,CONAME,address,lat,lng,distance
0,AAR CORP,"One AAR Place, 1100 North Wood Dale Road, Wood Dale, IL, 60191",41.987092,-87.98127799999999,10919.784575
1,AMERICAN AIRLINES GROUP INC,"4333 Amon Carter Boulevard, Fort Worth, TX, 76155",32.8280655,-97.05071389999999,12039.791824
2,PINNACLE WEST CAPITAL CORP,"400 North 5th Street, Phoenix, AZ, 85004",33.4524787,-112.0677898,11939.198625
3,AARON'S INC,"309 East Paces Ferry Road, NE, Atlanta, GA, 30305",33.8389925,-84.3776139,11727.211303
4,ABBOTT LABORATORIES,"100 Abbott Park Road, Abbott Park, IL, 60064",42.3021137,-87.8915621,10884.016228
5,ACETO CORP,"4 Tri Harbor Court, Port Washington, NY, 11050",40.812681,-73.66364639999999,10691.476163
6,ADVANCED MICRO DEVICES,"One AMD Place, PO Box 3453, Sunnyvale, CA, 94088",37.3829254,-121.9703842,11337.341453
7,AETNA INC,"151 Farmington Avenue, Hartford, CT, 6156",41.7678127,-72.6909539,10562.105344
8,AIR PRODUCTS & CHEMICALS INC,"7201 Hamilton Boulevard, Allentown, PA, 18195",40.5517321,-75.5986205,10779.088765
9,ALASKA AIR GROUP INC,"19300 International Boulevard, Seattle, WA, 98188",47.4292312,-122.2931934,10252.144943
10,MATSON INC,"1411 Sand Island Parkway, Honolulu, HI, 96819",21.309359,-157.8818136,11234.5106
11,ALLEGHANY CORP,"7 Times Square Tower, New York, NY, 10036",40.7554585,-73.98690549999999,10707.736299
12,HONEYWELL INTERNATIONAL INC,"115 Tabor Road, Morris Plains, NJ, 7950",40.8358456,-74.4771042,10715.008974
13,SKYWORKS SOLUTIONS INC,"20 Sylvan Road, Woburn, MA, 1801",42.4993304,-71.1645583,10436.992691
14,ALCOA INC,"390 Park Avenue, New York, 10022",40.7597285,-73.97294769999999,10706.851034
15,HESS CORP,"1185 Avenue of the Americas, 40th Floor, New York, NY, 10036",40.7579714,-73.98231419999999,10707.331204
16,ABM INDUSTRIES INC,"551 Fifth Avenue, Suite 300, New York, NY, 10176",40.7553825,-73.9788937,10707.487883
17,PRIMERICA INC,"1 Primerica Parkway, Duluth, GA, 30099",33.9858166,-84.09776,11704.791197
18,US ECOLOGY INC,"251 East Front Street, Suite 400, Boise, ID, 83702",43.6085987,-116.1955496,10770.253595
19,AMERICAN ELECTRIC POWER CO,"1 Riverside Plaza, Columbus, OH, 43215",39.9650383,-83.0064261,11039.151967
20,AMERICAN EXPRESS CO,"200 Vesey Street, New York, NY, 10285",40.7138829,-74.0146871,10712.897985
21,AFLAC INC,"1932 Wynnton Road, Columbus, GA, 31999",32.4672389,-84.9637973,11888.242939
22,AMERICAN INTERNATIONAL GROUP,"175 Water Street, New York, NY, 10038",40.7063657,-74.0051548,10713.365845
23,AMERICAN SCIENCE ENGINEERING,"829 Middlesex Turnpike, Billerica, MA, 1821",42.5242917,-71.2551247,10437.514603
24,AMERICAN VANGUARD CORP,"4695 Macarthur Court, Newport Beach, CA, 92660",33.6704415,-117.8623243,11824.693184
25,AMETEK INC,"1100 Cassatt Road, Berwyn, PA, 19312",40.0619112,-75.4635121,10825.674338
26,AMGEN INC,"One Amgen Center Drive, Thousand Oaks, CA, 91320",34.192136,-118.919477,11747.183796
27,ANALOG DEVICES,"One Technology Way, PO Box 9106, Norwood, MA, 2062",42.2104866,-71.18062359999999,10466.794129
28,ANALOGIC CORP,"8 Centennial Drive, Peabody, MA, 1960",42.524044,-70.959862,10427.566501
29,ANDERSONS INC,"480 West Dussel Drive, PO Box 119, Maumee, OH, 43537",41.57931000000001,-83.6794696,10881.222026
30,NABORS INDUSTRIES LTD,"Crown House, Second Floor, 4 Par-la-Ville Road, Hamilton, HM 08",32.2953168,-64.78837440000001,11194.462795
31,APACHE CORP,"One Post Oak Central, Suite 100, 2000 Post Oak Boulevard, Houston, TX, 77056",29.745399,-95.4627507,12365.422352
32,APOGEE ENTERPRISES INC,"4400 West 78th Street, Suite 520, Minneapolis, MN, 55435",44.8594519,-93.3359796,10677.640857
33,APPLE INC,"1 Infinite Loop, Cupertino, CA, 95014",37.3324975,-122.0289785,11341.403268
34,APPLIED MATERIALS INC,"3050 Bowers Avenue, PO Box 58039, Santa Clara, CA, 95052",37.3776247,-121.9787818,11337.717432
35,ACTUANT CORP  -CL A,"N86 W12500 Westbrook Crossing, Menomonee Falls, WI, 53051",43.1733188,-88.0649924,10792.118424
36,ARCHER-DANIELS-MIDLAND CO,"77 West Wacker Drive, Suite 4600, Chicago, IL, 60601",41.8864235,-87.6307509,10924.763814
37,ARCBEST CORP,"3801 Old Greenwood Road, Fort Smith, AR, 72917",35.3456509,-94.3936908,11736.98039
38,ARROW ELECTRONICS INC,"9201 East Dry Creek Road, Centennial, CO, 80112",39.5815619,-104.882257,11311.52375
39,ASHLAND INC,"50 East RiverCenter Boulevard, PO Box 391, Covington, KY, 41012",39.0901115,-84.50983269999999,11166.477624
40,AGL RESOURCES INC,"Ten Peachtree Place NE, Atlanta, GA, 30309",33.781014,-84.38700299999999,11733.649949
41,ATWOOD OCEANICS,"15011 Katy Freeway, Suite 800, Houston, TX, 77094",29.783886,-95.6471917,12363.09337
42,REX AMERICAN RESOURCES CORP,"7720 Paragon Road, Dayton, OH, 45459",39.6315467,-84.1804138,11101.153934
43,AUTODESK INC,"111 McInnis Parkway, San Rafael, CA, 94903",38.0054016,-122.530873,11257.719416
44,AUTOMATIC DATA PROCESSING,"One ADP Boulevard, Roseland, NJ, 7068",40.8155809,-74.31007,10711.828615
45,AVERY DENNISON CORP,"207 Goode Avenue, Glendale, CA, 91203",34.157038,-118.256557,11764.257942
46,AVNET INC,"2211 South 47th Street, Phoenix, AZ, 85034",33.4274752,-111.9800088,11942.99433
47,AVON PRODUCTS,"777 Third Avenue, New York, NY, 10017",40.7546823,-73.9711111,10707.310885
48,AZZ INC,"One Museum Place, Suite 500, 3100 West Seventh Street, Fort Worth, TX, 76107",32.751472,-97.3623552,12050.649701
49,BADGER METER INC,"4545 West Brown Deer Road, Milwaukee, WI, 53223",43.17578690000001,-87.9686175,10790.268148
50,BAKER HUGHES INC,"2929 Allen Parkway, Suite 2100, Houston, TX, 77019",29.7607456,-95.3974727,12363.042992
51,BALCHEM CORP  -CL B,"52 Sunrise Park Road, New Hampton, NY, 10958",41.4184432,-74.4242946,10653.322691
52,BALL CORP,"10 Longs Peak Drive, PO Box 5000, Broomfield, CO, 80021",39.91174729999999,-105.0996988,11274.354759
53,BANK OF HAWAII CORP,"130 Merchant Street, Honolulu, HI, 96813",21.3084038,-157.8623345,11235.901177
54,BANK OF NEW YORK MELLON CORP,"One Wall Street, New York, NY, 10286",40.707491,-74.0116385,10713.457537
55,BARD (C.R.) INC,"730 Central Avenue, Murray Hill, NJ, 7974",40.6973892,-74.4108664,10727.185455
56,BARNES GROUP INC,"123 Main Street, Bristol, CT, 6010",41.6705843,-72.9430563,10580.259766
57,BARRICK GOLD CORP,"Brookfield Place, TD Canada Trust Tower, Suite 3700, 161 Bay, Toronto, ON, M5J 2S1",43.6464513,-79.37850399999999,10560.454168
58,BAXTER INTERNATIONAL INC,"One Baxter Parkway, Deerfield, IL, 60015",42.1594315,-87.87728100000001,10899.291265
59,APPLIED INDUSTRIAL TECH INC,"1 Applied Plaza, Cleveland, OH, 44115",41.5038066,-81.66423619999999,10843.587743
60,BECTON DICKINSON & CO,"1 Becton Drive, Franklin Lakes, NJ, 7417",41.017009,-74.2106872,10687.952636
61,BEL FUSE INC,"206 Van Vorst Street, Jersey City, NJ, 7302",40.7145338,-74.04089069999999,10713.668505
62,VERIZON COMMUNICATIONS INC,"1095 Avenue of the Americas, New York, NY, 10036",40.7546766,-73.9849313,10707.75353
63,BEMIS CO INC,"One Neenah Center, 4th Floor, PO Box 669, Neenah, WI, 54957",44.1860429,-88.4599966,10688.156514
64,BERKSHIRE HATHAWAY,"3555 Farnam Street, Suite 1440, Omaha, NE, 68131",41.2571596,-95.965497,11099.471132
65,BEST BUY CO INC,"7601 Penn Avenue South, Richfield, MN, 55423",44.8645052,-93.305217,10676.766044
66,BIO-RAD LABORATORIES INC,"1000 Alfred Nobel Drive, Hercules, CA, 94547",38.023058,-122.279823,11261.639452
67,BLACK HILLS CORP,"625 Ninth Street, Rapid City, SD, 57701",44.0802357,-103.2336383,10814.00869
68,BLOCK H & R INC,"One H&R Block Way, Kansas City, MO, 64105",39.098401,-94.58305399999999,11325.369304
69,ENSCO PLC,"6 Chesterfield Gardens, London, W1J 5BQ",51.5071111,-0.1491054,5931.985722
70,BOB EVANS FARMS,"8111 Smith's Mill Road, New Albany, OH, 43054",40.0811946,-82.76694909999999,11021.212954
71,BOEING CO,"100 North Riverside, Chicago, IL, 60606",41.8841375,-87.6388423,10925.151515
72,ROBERT HALF INTL INC,"2884 Sand Hill Road, Menlo Park, CA, 94025",37.4219437,-122.2151303,11327.524191
73,BRADY CORP,"6555 West Good Hope Road, Milwaukee, WI, 53223",43.1471647,-87.9919625,10793.766333
74,BRIGGS & STRATTON,"12301 West Wirth Street, Wauwatosa, WI, 53222",43.0822259,-88.0652353,10802.035369
75,BRISTOL-MYERS SQUIBB CO,"345 Park Avenue, New York, NY, 10154",40.7579261,-73.972213,10707.012768
76,BROWN FORMAN CORP,"850 Dixie Highway, Louisville, KY, 40210",38.244955,-85.7837243,11284.332919
77,CALERES INC,"8300 Maryland Avenue, St. Louis, MO, 63105",38.6525531,-90.3471117,11321.218117
78,BRUNSWICK CORP,"1 North Field Court, Lake Forest, IL, 60045",42.2412537,-87.88912810000001,10890.593501
79,MATERION CORP,"6070 Parkland Boulevard, Mayfield Heights, OH, 44124",41.507836,-81.457408,10838.222199
80,ACXIOM CORP,"601 East Third Street, PO Box 8190, Little Rock, AR, 72203",34.7461459,-92.28785669999999,11776.989948
81,CDI CORP,"1717 Arch Street, 35th Floor, Philadelphia, PA, 19103",39.9553097,-75.1692673,10827.569493
82,CIGNA CORP,"900 Cottage Grove Road, Bloomfield, CT, 6002",41.8128862,-72.7469102,10559.328928
83,CSX CORP,"500 Water Street, 15th Floor, Jacksonville, FL, 32202",30.32452109999999,-81.6640579,12030.813138
84,CTS CORP,"1142 West Beardsley Avenue, Elkhart, IN, 46514",41.6940433,-85.9930796,10915.902881
85,CABOT CORP,"Two Seaport Lane, Suite 1300, Boston, MA, 2210",42.3488519,-71.0409079,10448.045481
86,CACI INTL INC  -CL A,"1100 North Glebe Road, Arlington, VA, 22201",38.883444,-77.118044,10998.266726
87,CALAMP CORP,"1401 North Rice Avenue, Oxnard, CA, 93030",34.214656,-119.1428804,11740.155744
88,CAMPBELL SOUP CO,"1 Campbell Place, Camden, NJ, 8103",39.9394842,-75.1079245,10827.288229
89,CONSTELLATION BRANDS  -CL A,"207 High Point Drive, Building 100, Victor, NY, 14564",43.029708,-77.435198,10574.189775
90,CARDINAL HEALTH INC,"7000 Cardinal Place, Dublin, OH, 43017",40.1090076,-83.1210856,11026.370724
91,CARLISLE COS INC,"11605 North Community House Road, Suite 600, Charlotte, NC, 28277",35.059272,-80.83924929999999,11506.593086
92,CARPENTER TECHNOLOGY CORP,"2 Meridian Boulevard, Wyomissing, PA, 19610",40.35446109999999,-75.9835598,10811.220013
93,CASEYS GENERAL STORES INC,"One Convenience Boulevard, Ankeny, IA, 50021",41.693711,-93.57316999999999,11028.881595
94,CATERPILLAR INC,"100 NE Adams Street, Peoria, IL, 61629",40.69176960000001,-89.5884418,11086.845861
95,CATO CORP  -CL A,"8100 Denmark Road, Charlotte, NC, 28273",35.127344,-80.88055899999999,11500.521084
96,CLECO CORP,"2030 Donahue Ferry Road, Pineville, LA, 71360",31.3384087,-92.418066,12152.479997
97,CENTURYLINK INC,"100 CenturyLink Drive, Monroe, LA, 71203",32.5895496,-92.0669497,12010.309646
98,MAGELLAN HEALTH INC,"4800 Scottsdale Road, Suite 4400, Scottsdale, AZ, 85251",33.5084767,-111.9274039,11934.704423
99,CANTEL MEDICAL CORP,"150 Clove Road, 9th Floor, Little Falls, NJ, 7424",40.8713065,-74.1954627,10702.463842
100,CHECKPOINT SYSTEMS INC,"101 Wolf Drive, PO Box 188, Thorofare, NJ, 8086",39.831235,-75.19167,10841.094104
101,CHEMED CORP,"255 East Fifth Street, Suite 2600, Cincinnati, OH, 45202",39.1016183,-84.50837159999999,11165.209117
102,JPMORGAN CHASE & CO,"270 Park Avenue, New York, NY, 10017",40.7558,-73.9754,10707.333223
103,CHEVRON CORP,"6001 Bollinger Canyon Road, San Ramon, CA, 94583",37.7582505,-121.9580965,11297.378383
104,BRINKER INTL INC,"6820 LBJ Freeway, Dallas, TX, 75240",32.9239341,-96.78740979999999,12027.080728
105,CHUBB CORP,"15 Mountain View Road, Warren, NJ, 7059",40.6454898,-74.57310009999999,10737.646823
106,CHURCH & DWIGHT INC,"Princeton South Corporate Center, 500 Charles Ewing Boulevar, Ewing, NJ, 8628",40.2868977,-74.7870701,10781.356154
107,CINCINNATI BELL INC,"221 East Fourth Street, Cincinnati, OH, 45202",39.1003055,-84.5086299,11165.35582
108,CINTAS CORP,"6800 Cintas Boulevard, PO Box 625737, Cincinnati, OH, 45262",39.34118160000001,-84.282986,11134.575464
109,CLARCOR INC,"840 Crescent Centre Drive, Suite 600, Franklin, TN, 37067",35.9428566,-86.81125910000002,11553.918107
110,CLOROX CO/DE,"1221 Broadway, Oakland, CA, 94612",37.80346309999999,-122.272345,11285.334274
111,COCA-COLA CO,"One Coca-Cola Plaza, Atlanta, GA, 30313",33.7704809,-84.3973221,11735.024367
112,COHERENT INC,"5100 Patrick Henry Drive, Santa Clara, CA, 95054",37.404801,-121.9851671,11334.657658
113,COHU INC,"12367 Crosthwaite Circle, Poway, CA, 92064",32.9442912,-117.0395032,11919.094624
114,COLGATE-PALMOLIVE CO,"300 Park Avenue, New York, NY, 10022",40.7570209,-73.97466949999999,10707.184379
115,AON PLC,"The Leadenhall Building, 122 Leadenhall Street, London, EC3V 4AN",51.5139404,-0.0822608,5927.345707
116,COMCAST CORP,"One Comcast Center, Philadelphia, PA, 19103",39.9547564,-75.1685345,10827.603811
117,COMERICA INC,"Comerica Bank Tower, 1717 Main Street, MC 6404, Dallas, TX, 75201",32.7815695,-96.79645479999999,12042.8826
118,COMMERCE BANCSHARES INC,"1000 Walnut Street, Kansas City, MO, 64106",39.1021449,-94.5825038,11324.950951
119,CITIGROUP INC,"399 Park Avenue, New York, NY, 10022",40.7592723,-73.9720349,10706.868719
120,COMMERCIAL METALS,"6565 North MacArthur Boulevard, Suite 800, Irving, TX, 75039",32.8982848,-96.95990979999999,12031.312023
121,CA INC,"520 Madison Avenue, 22nd Floor, New York, NY, 10022",40.760264,-73.9745165,10706.846182
122,COMPUTER SCIENCES CORP,"3170 Fairview Park Drive, Falls Church, VA, 22042",38.8604305,-77.21437829999999,11003.527839
123,COMTECH TELECOMMUN,"68 South Service Road, Suite 230, Melville, NY, 11747",40.7814623,-73.43849469999999,10687.385818
124,CONAGRA FOODS INC,"One ConAgra Drive, Omaha, NE, 68102",41.2553891,-95.9263818,11099.351317
125,CONSOLIDATED EDISON INC,"4 Irving Place, New York, NY, 10003",40.7341443,-73.9883294,10709.972497
126,BIGLARI HOLDINGS INC,"17802 IH 10 West, Suite 400, San Antonio, TX, 78257",29.6097643,-98.6051595,12406.556082
127,CMS ENERGY CORP,"One Energy Plaza, Jackson, MI, 49201",42.2466617,-84.4022463,10824.769579
128,COOPER COMPANIES INC,"6140 Stoneridge Mall Road, Suite 590, Pleasanton, CA, 94588",37.6977513,-121.9232221,11304.658906
129,MOLSON COORS BREWING CO,"1801 California Street, Suite 4600, Denver, CO, 80202",39.7479555,-104.9890457,11292.806011
130,CORNING INC,"One Riverfront Plaza, Corning, NY, 14831",42.1453767,-77.0558823,10656.073883
131,COUSINS PROPERTIES INC,"191 Peachtree Street NE, Suite 500, Atlanta, GA, 30303",33.7590563,-84.3873043,11736.01107
132,CRACKER BARREL OLD CTRY STOR,"305 Hartmann Drive, Lebanon, TN, 37088",36.226892,-86.3156897,11513.144995
133,CRANE CO,"100 First Stamford Place, Stamford, CT, 6902",41.0443102,-73.5486083,10664.003646
134,CUBIC CORP,"9333 Balboa Avenue, San Diego, CA, 92123",32.8214341,-117.1284975,11930.798401
135,CULLEN/FROST BANKERS INC,"100 West Houston Street, San Antonio, TX, 78205",29.4262536,-98.494108,12426.164227
136,CUMMINS INC,"500 Jackson Street, Box 3005, Columbus, IN, 47202",39.2048964,-85.92376449999999,11183.529597
137,CURTISS-WRIGHT CORP,"13925 Ballantyne Corporate Place, Suite 400, Charlotte, NC, 28277",35.0599527,-80.8549901,11506.952626
138,DST SYSTEMS INC,"333 West 11th Street, Kansas City, MO, 64105",39.10032959999999,-94.5881586,11325.207655
139,WENDY'S CO,"One Dave Thomas Boulevard, Dublin, OH, 43017",40.1005856,-83.1044032,11026.891947
140,DANA HOLDING CORP,"3939 Technology Drive, Maumee, OH, 43537",41.5675688,-83.6935076,10882.784674
141,DANAHER CORP,"2200 Pennsylvania Avenue NW, Suite 800W, Washington, DC, 20037",38.9017929,-77.0493245,10994.307632
142,DEERE & CO,"One John Deere Place, Moline, IL, 61265",41.4764894,-90.42535579999999,11013.476009
143,DELTA AIR LINES INC,"1030 Delta Boulevard, Atlanta, GA, 30354",33.6562452,-84.4242419,11747.911328
144,DELUXE CORP,"3680 Victoria Street North, Shoreview, MN, 55126",45.0539912,-93.1281199,10654.045906
145,DTE ENERGY CO,"One Energy Plaza, Detroit, MI, 48226",42.3336164,-83.0575473,10786.837568
146,DEVRY EDUCATION GROUP INC,"3005 Highland Parkway, Downers Grove, IL, 60515",41.83331159999999,-88.00764160000001,10936.953985
147,DIEBOLD INC,"5995 Mayfair Road, North Canton, OH, 44720",40.9079494,-81.421885,10901.172735
148,DIODES INC,"4949 Hedgcoxe Road, Suite 200, Plano, TX, 75024",33.0834733,-96.7996845,12009.555839
149,DISNEY (WALT) CO,"500 South Buena Vista Street, Burbank, CA, 91521",34.1568097,-118.3250894,11762.935164
150,DOLLAR GENERAL CORP,"100 Mission Ridge, Goodlettsville, TN, 37072",36.3090261,-86.69906499999999,11512.058351
151,DOMINION RESOURCES INC,"120 Tredegar Street, Richmond, VA, 23219",37.5339758,-77.4517422,11149.038079
152,DONALDSON CO INC,"1400 West 94th Street, Minneapolis, MN, 55431",44.8341441,-93.2971164,10680.026981
153,DONNELLEY (R R) & SONS CO,"35 West Wacker Drive, Chicago, IL, 60601",41.8865829,-87.6291883,10924.719582
154,DOVER CORP,"3005 Highland Parkway, Downers Grove, IL, 60515",41.83331159999999,-88.00764160000001,10936.953985
155,DOW CHEMICAL,"2030 Dow Center, Midland, MI, 48674",43.61614669999999,-84.2002385,10673.34602
156,OMNICOM GROUP,"437 Madison Avenue, New York, NY, 10022",40.7573533,-73.97524349999999,10707.168579
157,ASCENA RETAIL GROUP INC,"933 MacArthur Boulevard, Mahwah, NJ, 7430",41.0743388,-74.17059499999999,10680.785573
158,DU PONT (E I) DE NEMOURS,"Chestnut Run Plaza, 974 Centre Road, PO Box 2915, Wilmington, DE, 19805",39.752295,-75.6058851,10862.128626
159,DUKE ENERGY CORP,"550 South Tryon Street, Charlotte, NC, 28202",35.224284,-80.8487633,11489.392762
160,FLOWSERVE CORP,"5215 North O'Connor Boulevard, Suite 2300, Irving, TX, 75039",32.8712244,-96.9387775,12034.132937
161,DYCOM INDUSTRIES INC,"11780 US Highway 1, Suite 600, Palm Beach Gardens, FL, 33408",26.8495948,-80.05839809999999,12348.256689
162,PERKINELMER INC,"940 Winter Street, Waltham, MA, 2451",42.4047616,-71.2742976,10450.27454
163,EASTGROUP PROPERTIES,"190 East Capitol Street, Suite 400, Jackson, MS, 39201",32.3004269,-90.1867448,12012.334479
164,EATON CORP PLC,"Eaton House, 30 Pembroke Road, Dublin, 4",53.3328776,-6.24098,6251.921137
165,EATON VANCE CORP,"Two International Place, Boston, MA, 2110",42.3564429,-71.0517885,10447.646316
166,ECOLAB INC,"370 Wabasha Street North, St. Paul, MN, 55102",44.9461828,-93.0941778,10665.561901
167,EL PASO ELECTRIC CO,"Stanton Tower, 100 North Stanton, El Paso, TX, 79901",31.759098,-106.4854862,12173.19922
168,ELECTRO SCIENTIFIC INDS INC,"13900 NW Science Park Drive, Portland, OR, 97229",45.5252466,-122.8201819,10445.892118
169,EMERSON ELECTRIC CO,"8000 West Florissant Avenue, PO Box 4100, St. Louis, MO, 63136",38.7315866,-90.2790342,11311.549412
170,ENERGEN CORP,"605 Richard Arrington Jr. Boulevard North, Birmingham, AL, 35203",33.5204212,-86.8073488,11815.765892
171,ATMOS ENERGY CORP,"Three Lincoln Centre, Suite 1800, 5430 LBJ Freeway, Dallas, TX, 75240",32.9223986,-96.8178046,12027.499395
172,EQUIFAX INC,"1550 Peachtree Street, N.W., Atlanta, GA, 30309",33.7966512,-84.3884949,11732.009006
173,EQT CORP,"EQT Plaza, 625 Liberty Avenue, Suite 1700, Pittsburgh, PA, 15222",40.4424701,-80.0009554,10914.837421
174,ESTERLINE TECHNOLOGIES CORP,"500 108th Avenue NE, Suite 1500, Bellevue, WA, 98004",47.6150107,-122.1957478,10234.06753
175,NEWMARKET CORP,"330 South Fourth Street, Richmond, VA, 23219",37.5379107,-77.4443828,11148.406237
176,EXAR CORP,"48720 Kato Road, Fremont, CA, 94538",37.461544,-121.923311,11329.987502
177,EXPEDITORS INTL WASH INC,"1015 Third Avenue, 12th Floor, Seattle, WA, 98104",47.60583800000001,-122.334683,10232.367574
178,EXXON MOBIL CORP,"5959 Las Colinas Boulevard, Irving, TX, 75039",32.8900057,-96.9499086,12032.146871
179,FMC CORP,"1735 Market Street, Philadelphia, PA, 19103",39.9536631,-75.1695865,10827.749652
180,NEXTERA ENERGY INC,"700 Universe Boulevard, Juno Beach, FL, 33408",26.8596034,-80.05937279999999,12347.238692
181,FEDEX CORP,"942 South Shady Grove Road, Memphis, TN, 38120",35.10565,-89.8583139,11700.825706
182,FEDERAL REALTY INVESTMENT TR,"1626 East Jefferson Street, Rockville, MD, 20852",39.0633932,-77.1266741,10979.754944
183,FEDERAL SIGNAL CORP,"1415 West 22nd Street, Suite 1100, Oak Brook, IL, 60523",41.846024,-87.9553219,10934.689628
184,MACY'S INC,"7 West Seventh Street, Cincinnati, OH, 45202",39.1033122,-84.51410820000001,11165.151026
185,FIFTH THIRD BANCORP,"38 Fountain Square Plaza, Cincinnati, OH, 45263",39.1014231,-84.5117041,11165.302138
186,REGIONS FINANCIAL CORP,"1900 Fifth Avenue North, Birmingham, AL, 35203",33.5180597,-86.80891419999999,11816.053813
187,FIRSTMERIT CORP,"III Cascade Plaza, 7th Floor, Akron, OH, 44308",41.0820208,-81.5190443,10885.00582
188,TRUSTMARK CORP,"248 East Capitol Street, Jackson, MS, 39201",32.3000762,-90.1842557,12012.330431
189,M & T BANK CORP,"One M&T Plaza, Buffalo, NY, 14203",42.8837738,-78.87426839999999,10627.953936
190,U S BANCORP,"800 Nicollet Mall, Minneapolis, MN, 55402",44.9758453,-93.2738249,10664.174537
191,FIRST HORIZON NATIONAL CORP,"165 Madison Avenue, Memphis, TN, 38103",35.1439702,-90.0509598,11699.823388
192,FLOWERS FOODS INC,"1919 Flowers Circle, Thomasville, GA, 31757",30.81105239999999,-83.93692039999999,12040.459003
193,FLUOR CORP,"6700 Las Colinas Boulevard, Irving, TX, 75039",32.9008085,-96.95060559999999,12030.958779
194,FORD MOTOR CO,"One American Road, Dearborn, MI, 48126",42.3174368,-83.2094894,10791.895389
195,FRANKLIN ELECTRIC CO INC,"9255 Coverdale Road, Fort Wayne, IN, 46809",40.9995618,-85.2259184,10975.851177
196,FRANKLIN RESOURCES INC,"One Franklin Parkway, San Mateo, CA, 94403",37.543695,-122.293687,11312.662781
197,FULLER (H. B.) CO,"1200 Willow Lake Boulevard, PO Box 64683, Saint Paul, MN, 55164",45.0454315,-93.0516256,10654.181871
198,G&K SERVICES INC  -CL A,"5995 Opus Parkway, Minnetonka, MN, 55343",44.89640199999999,-93.4053725,10674.283124
199,GATX CORP,"222 West Adams Street, Chicago, IL, 60606",41.8794972,-87.63471299999999,10925.584616
200,ARTHUR J GALLAGHER & CO,"The Gallagher Centre, 2 Pierce Place, Itasca, IL, 60143",41.9873658,-88.0149821,10920.320702
201,TEGNA INC,"7950 Jones Branch Drive, McLean, VA, 22107",38.9316133,-77.2192237,10996.244303
202,GAP INC,"2 Folsom Street, San Francisco, CA, 94105",37.7906941,-122.3910195,11283.954854
203,AEROJET ROCKETDYNE HOLDINGS,"2001 Aerojet Road, Rancho Cordova, CA, 95742",38.6277095,-121.20613,11220.657316
204,GENERAL DYNAMICS CORP,"2941 Fairview Park Drive, Suite 100, Falls Church, VA, 22042",38.8690333,-77.2150053,11002.648848
205,GENERAL ELECTRIC CO,"3135 Easton Turnpike, Fairfield, CT, 06828-0001",41.2155842,-73.253315,10636.897389
206,GENERAL MILLS INC,"Number One General Mills Boulevard, Minneapolis, MN, 55426",44.9788759,-93.3947841,10665.086785
207,GENERAL MOTORS CO,"300 Renaissance Center, Detroit, MI, 48265",42.3283747,-83.04079229999999,10787.030633
208,SPX CORP,"13320 Ballantyne Corporate Place, Charlotte, NC, 28277",35.0607938,-80.8458228,11506.612323
209,GENESCO INC,"Genesco Park, 1415 Murfreesboro Road, Nashville, TN, 37217",36.1131751,-86.6923297,11533.10418
210,GENTEX CORP,"600 North Centennial Street, Zeeland, MI, 49464",42.8229727,-86.012458,10794.18906
211,GENUINE PARTS CO,"2999 Circle 75 Parkway, Atlanta, GA, 30339",33.895226,-84.46998719999999,11723.369939
212,GETTY REALTY CORP,"Two Jericho Plaza, Suite 110, Wing C, Jericho, NY, 11753",40.7851095,-73.54950699999999,10690.614232
213,GLATFELTER,"96 South George Street, Suite 520, York, PA, 17401",39.961185,-76.727391,10874.350107
214,GOODYEAR TIRE & RUBBER CO,"200 Innovation Way, Akron, OH, 44316",41.0592172,-81.4769863,10886.417466
215,GRACO INC,"88 -11th Avenue Northeast, Minneapolis, MN, 55413",44.9970428,-93.2686715,10661.785843
216,GRAINGER (W W) INC,"100 Grainger Parkway, Lake Forest, IL, 60045",42.2363993,-87.911161,10891.492013
217,GREIF INC  -CL A,"425 Winter Road, Delaware, OH, 43015",40.2244946,-83.0458805,11012.301044
218,GULFMARK OFFSHORE INC,"842 West Sam Houston Parkway North, Suite 400, Houston, TX, 77024",29.780473,-95.561982,12362.592039
219,HALLIBURTON CO,"3000 North Sam Houston Parkway East, Houston, TX, 77032",29.937706,-95.3404606,12342.940554
220,HARRIS CORP,"1025 West NASA Boulevard, Melbourne, FL, 32919",28.0907781,-80.6385483,12236.156107
221,HARSCO CORP,"350 Poplar Church Road, Camp Hill, PA, 17011",40.2602355,-76.91060039999999,10848.582707
222,HASBRO INC,"1027 Newport Avenue, Pawtucket, RI, 2861",41.8841197,-71.3532113,10505.717385
223,HAVERTY FURNITURE,"780 Johnson Ferry Road, Suite 800, Atlanta, GA, 30342",33.9076427,-84.36233779999999,11719.488969
224,HAWAIIAN ELECTRIC INDS,"1001 Bishop Street, Suite 2900, Honolulu, HI, 96813",21.3081985,-157.8608441,11236.018713
225,HAWKINS INC,"2381 Rosegate, Roseville, MN, 55113",45.01258120000001,-93.19010050000001,10659.256387
226,HEALTHCARE SERVICES GROUP,"3220 Tillman Drive, Suite 300, Bensalem, PA, 19020",40.11622879999999,-74.9606052,10804.418643
227,WELLTOWER INC,"4500 Dorr Street, Toledo, OH, 43615",41.6565317,-83.6459718,10872.214839
228,KRAFT HEINZ CO,"One PPG Place, Pittsburgh, PA, 15222",40.4398,-80.00319999999999,10915.177978
229,HELEN OF TROY LTD,"One Helen of Troy Plaza, El Paso, TX, 79912",31.873959,-106.5763412,12160.03923
230,HELMERICH & PAYNE,"1437 South Boulder Avenue, Suite 1400, Tulsa, OK, 74119",36.1412399,-95.9878774,11664.916808
231,HERSHEY CO,"100 Crystal A Drive, Hershey, PA, 17033",40.3010198,-76.648536,10836.62795
232,HP INC,"1501 Page Mill Road, Palo Alto, CA, 94304",37.4117131,-122.1488808,11330.152143
233,HILL-ROM HOLDINGS INC,"Two Prudential Plaza, Suite 4100, Chicago, IL, 60601",41.8849835,-87.6231392,10924.789152
234,HOLLYFRONTIER CORP,"2828 North Harwood, Suite 1300, Dallas, TX, 75201",32.7944186,-96.80809699999999,12041.558721
235,PINNACLE ENTERTAINMENT INC,"3980 Howard Hughes Parkway, Las Vegas, NV, 89169",36.1158817,-115.1579285,11604.922821
236,HOME DEPOT INC,"2455 Paces Ferry Road, NW, Atlanta, GA, 30339",33.848802,-84.43259479999999,11727.463724
237,HNI CORP,"408 East Second Street, PO Box 1109, Muscatine, IA, 52761",41.4240295,-91.0395377,11027.771032
238,HORMEL FOODS CORP,"1 Hormel Place, Austin, MN, 55912",43.6824203,-92.9684034,10803.353689
239,STARWOOD HOTELS&RESORTS WRLD,"One StarPoint, Stamford, CT, 6902",41.0419448,-73.5314306,10663.692002
240,CENTERPOINT ENERGY INC,"1111 Louisiana Street, Houston, TX, 77002",29.7571169,-95.36798879999999,12363.129988
241,URSTADT BIDDLE PROPERTIES,"321 Railroad Avenue, Greenwich, CT, 6830",41.0215484,-73.6324187,10669.03891
242,HUBBELL INC,"40 Waterview Drive, Shelton, CT, 6484",41.296005,-73.0808096,10623.056612
243,HUNT (JB) TRANSPRT SVCS INC,"615 J.B. Hunt Corporate Drive, Lowell, AR, 72745",36.2455249,-94.1477949,11635.174239
244,HUNTINGTON BANCSHARES,"41 South High Street, Columbus, OH, 43287",39.9610405,-83.0007548,11039.449388
245,ITT CORP,"1133 Westchester Avenue, White Plains, NY, 10604",41.015739,-73.72495839999999,10672.609411
246,RAYONIER INC,"225 Water Street, Suite 1400, Jacksonville, FL, 32202",30.3258787,-81.66148419999999,12030.595977
247,IDACORP INC,"1221 West Idaho Street, Boise, ID, 83702",43.6187705,-116.2082,10768.958755
248,ILLINOIS TOOL WORKS,"155 Harlem Avenue, Glenview, IL, 60025",42.0588129,-87.8058528,10909.022197
249,VECTREN CORP,"One Vectren Square, Evansville, IN, 47708",37.97152820000001,-87.5766836,11348.883955
250,INGERSOLL-RAND PLC,"Airside Business Park, 170/175 Lakeview Drive, Swords",53.4493569,-6.2184183,6245.805896
251,AEGION  CORP,"17988 Edison Avenue, St. Louis, MO, 63005",38.6647913,-90.6335203,11324.149928
252,GRIFFON CORP,"712 Fifth Avenue, 18th Floor, New York, NY, 10019",40.7622826,-73.9750368,10706.655367
253,INTEGRATED DEVICE TECH INC,"6024 Silver Creek Valley Road, San Jose, CA, 95138",37.2567114,-121.7858772,11355.086476
254,INTEL CORP,"2200 Mission College Boulevard, Santa Clara, CA, 95054",37.3875909,-121.9637869,11336.992263
255,INTERFACE INC,"2859 Paces Ferry Road, Suite 2000, Atlanta, GA, 30339",33.8688619,-84.4693563,11726.182365
256,INTL BUSINESS MACHINES CORP,"1 New Orchard Road, Armonk, NY, 10504",41.1095709,-73.7228708,10662.91034
257,INTL FLAVORS & FRAGRANCES,"521 West 57th Street, New York, NY, 10019",40.7698378,-73.98952249999999,10706.34206
258,INTERDIGITAL INC,"200 Bellevue Parkway, Suite 300, Wilmington, DE, 19809",39.7795839,-75.4940929,10855.846151
259,INTL PAPER CO,"6400 Poplar Avenue, Memphis, TN, 38197",35.1014608,-89.8502899,11701.149226
260,INTL SPEEDWAY CORP  -CL A,"One Daytona Boulevard, Daytona Beach, FL, 32114",29.1931944,-81.0714315,12133.109083
261,INTERPUBLIC GROUP OF COS,"909 Third Avenue, New York, NY, 10022",40.7583293,-73.96798869999999,10706.836185
262,INVACARE CORP,"1 Invacare Way, Elyria, OH, 44035",41.3724673,-82.0711859,10867.175406
263,ANIXTER INTL INC,"2301 Patriot Boulevard, Glenview, IL, 60026",42.0976623,-87.8236356,10905.100284
264,JACOBS ENGINEERING GROUP INC,"155 North Lake Avenue, Pasadena, CA, 91101",34.1484824,-118.1327948,11767.604351
265,EMCOR GROUP INC,"301 Merritt Seven, Norwalk, CT, 6851",41.1494149,-73.42689899999999,10649.297996
266,JOHNSON & JOHNSON,"One Johnson & Johnson Plaza, New Brunswick, NJ, 8933",40.4979518,-74.44305589999999,10748.746507
267,JOHNSON CONTROLS INC,"5757 North Green Bay Avenue, Milwaukee, WI, 53209",43.12394279999999,-87.93698839999999,10795.386737
268,KLA-TENCOR CORP,"One Technology Drive, Milpitas, CA, 95035",37.4207877,-121.924156,11334.338624
269,KINDER MORGAN INC,"1001 Louisiana Street, Suite 1000, Houston, TX, 77002",29.7578183,-95.3673755,12363.04619
270,KAMAN CORP,"1332 Blue Hills Avenue, Bloomfield, CT, 6002",41.8594262,-72.70898919999999,10553.338006
271,GREAT PLAINS ENERGY INC,"1200 Main Street, Kansas City, MO, 64105",39.0996349,-94.5837663,11325.24036
272,KANSAS CITY SOUTHERN,"427 West 12th Street, Kansas City, MO, 64105",39.0996289,-94.58971199999999,11325.300445
273,WESTAR ENERGY INC,"818 South Kansas Avenue, Topeka, KS, 66612",39.0480472,-95.6744743,11341.139355
274,KELLOGG CO,"One Kellogg Square, Battle Creek, MI, 49016",42.3208176,-85.1863092,10832.575813
275,KELLY SERVICES INC  -CL A,"999 West Big Beaver Road, Troy, MI, 48084",42.5607669,-83.16649129999999,10764.89366
276,KENNAMETAL INC,"1600 Technology Way, PO Box 231, Latrobe, PA, 15650",40.27785000000001,-79.3937627,10916.230604
277,KIMBERLY-CLARK CORP,"PO Box 619100, Dallas, TX, 75261",32.898088,-97.0337141,12031.919756
278,KIRBY CORP,"55 Waugh Drive, Suite 1000, Houston, TX, 77007",29.767155,-95.39769199999999,12362.339112
279,KROGER CO,"1014 Vine Street, Cincinnati, OH, 45202",39.1067459,-84.5138214,11164.775717
280,KULICKE & SOFFA INDUSTRIES,"23A Serangoon North Avenue 5, No. 01-01 K&S Corporate Headqu, Singapore, 554369",1.3759335,103.8740889,4971.630945
281,LSB INDUSTRIES INC,"16 South Pennsylvania Avenue, Oklahoma City, OK, 73107",35.466203,-97.547483,11751.764775
282,LA-Z-BOY INC,"One La-Z-Boy Drive, Monroe, MI, 48162",41.9330927,-83.39458490000001,10837.110659
283,LACLEDE GROUP INC,"700 Market Street, St. Louis, MO, 63101",38.6256588,-90.1929457,11321.818859
284,LAM RESEARCH CORP,"4650 Cushing Parkway, Fremont, CA, 94538",37.488472,-121.9574428,11326.321001
285,LANCASTER COLONY CORP,"37 West Broad Street, Columbus, OH, 43215",39.9617817,-83.00202759999999,11039.399329
286,SNYDERS-LANCE INC,"13024 Ballantyne Corporate Place, Suite 900, Charlotte, NC, 28277",35.0559649,-80.8428821,11507.042638
287,LEGGETT & PLATT INC,"No. 1 Leggett Road, Carthage, MO, 64836",37.1774372,-94.3843215,11535.076049
288,LEGG MASON INC,"100 International Drive, Baltimore, MD, 21202-1099",39.2825907,-76.6016092,10941.239689
289,LENNAR CORP,"700 Northwest 107th Avenue, Miami, FL, 33172",25.7769431,-80.37039759999999,12470.794594
290,LEUCADIA NATIONAL CORP,"520 Madison Avenue, New York, NY, 10022",40.760264,-73.9745165,10706.846182
291,LILLY (ELI) & CO,"Lilly Corporate Center, Indianapolis, IN, 46285",39.7559112,-86.1530808,11128.523419
292,L BRANDS INC,"Three Limited Parkway, Columbus, OH, 43230",40.0543384,-82.89688149999999,11027.084454
293,LINCOLN ELECTRIC HLDGS INC,"22801 St. Clair Avenue, Cleveland, OH, 44117",41.5884253,-81.5195262,10831.133839
294,LINCOLN NATIONAL CORP,"150 North Radnor Chester Road, Suite A305, Radnor, PA, 19087",40.04303489999999,-75.3658121,10824.607795
295,KATE SPADE & CO,"2 Park Avenue, New York, NY, 10016",40.7460032,-73.9824513,10708.565642
296,LOCKHEED MARTIN CORP,"6801 Rockledge Drive, Bethesda, MD, 20817",39.03099,-77.138944,10983.498478
297,LOEWS CORP,"667 Madison Avenue, New York, NY, 10065",40.7644306,-73.9701927,10706.279663
298,RANGE RESOURCES CORP,"100 Throckmorton Street, Suite 1200, Fort Worth, TX, 76102",32.7557098,-97.3345964,12049.973254
299,LOUISIANA-PACIFIC CORP,"414 Union Street, Suite 2000, Nashville, TN, 37219",36.1649101,-86.7808709,11529.287588
300,LOWE'S COMPANIES INC,"1605 Curtis Bridge Road, Wilkesboro, NC, 28697",36.1525775,-81.18654769999999,11400.167278
301,LYDALL INC,"One Colonial Road, Manchester, CT, 6042",41.7967838,-72.5075418,10553.136672
302,MDC HOLDINGS INC,"4350 South Monaco Street, Suite 500, Denver, CO, 80237",39.6357211,-104.9107342,11305.447288
303,MDU RESOURCES GROUP INC,"1200 West Century Avenue, PO Box 5650, Bismarck, ND, 58506",46.8358387,-100.8126265,10505.394486
304,MTS SYSTEMS CORP,"14000 Technology Drive, Eden Prairie, MN, 55344",44.8599252,-93.4553567,10678.813551
305,MARATHON OIL CORP,"5555 San Felipe Street, Houston, TX, 77056",29.7493564,-95.4715705,12365.078832
306,MARCUS CORP,"100 East Wisconsin Avenue, Suite 1900, Milwaukee, WI, 53202",43.0389547,-87.9094954,10804.176876
307,HOST HOTELS & RESORTS INC,"6903 Rockledge Drive, Suite 1500, Bethesda, MD, 20817",39.0277524,-77.14033719999999,10983.877485
308,MARSH & MCLENNAN COS,"1166 Avenue of the Americas, New York, NY, 10036",40.7568517,-73.9820388,10707.437475
309,MASCO CORP,"21001 Van Born Road, Taylor, MI, 48180",42.2683142,-83.2426558,10797.880806
310,MATTEL INC,"333 Continental Boulevard, El Segundo, CA, 90245",33.9207921,-118.392394,11787.175391
311,MCCORMICK & CO INC,"18 Loveton Circle, Sparks, MD, 21152",39.5203149,-76.64976000000001,10917.943432
312,MCDONALD'S CORP,"One McDonald's Plaza, Oak Brook, IL, 60523",41.8478615,-87.94481809999999,10934.312438
313,MCGRAW HILL FINANCIAL,"55 Water Street, New York, NY, 10041",40.7033782,-74.009675,10713.817498
314,MCKESSON CORP,"One Post Street, San Francisco, CA, 94104",37.788766,-122.402747,11283.88894
315,MEDTRONIC PLC,"20 On Hatch, Lower Hatch Street, Dublin, 2",53.3336406,-6.257194399999999,6252.895972
316,CVS HEALTH CORP,"One CVS Drive, Woonsocket, RI, 2895",41.990756,-71.477265,10499.09845
317,MENTOR GRAPHICS CORP,"8005 SW Boeckman Road, Wilsonville, OR, 97070",45.3187827,-122.762568,10469.214406
318,MERCK & CO,"2000 Galloping Hill Road, Kenilworth, NJ, 7033",40.6774305,-74.2723554,10724.855122
319,MEREDITH CORP,"1716 Locust Street, Des Moines, IA, 50309",41.5834196,-93.63923799999999,11041.734677
320,METHODE ELECTRONICS INC,"7401 West Wilson Avenue, Chicago, IL, 60706",41.9628739,-87.8124459,10919.563963
321,MICRON TECHNOLOGY INC,"8000 South Federal Way, Boise, ID, 83716",43.5300934,-116.1494251,10779.501566
322,MICROSEMI CORP,"One Enterprise, Aliso Viejo, CA, 92656",33.5858799,-117.7334454,11836.345941
323,ENTERGY CORP,"639 Loyola Avenue, New Orleans, LA, 70113",29.9489612,-90.07683019999999,12266.759732
324,MILLER (HERMAN) INC,"855 East Main Avenue, PO Box 302, Zeeland, MI, 49464",42.8144431,-85.99595939999999,10794.803547
325,MSA SAFETY INC,"1000 Cranberry Woods Drive, Cranberry Township, PA, 16066",40.6761653,-80.088267,10892.38627
326,3M CO,"3M Center, St. Paul, MN, 55144",44.9581946,-93.0024097,10663.265483
327,ALLETE INC,"30 West Superior Street, Duluth, MN, 55802",46.7860464,-92.098798,10452.246427
328,MOOG INC  -CL A,"Jamison Road, East Aurora, NY, 14052",42.8050893,-78.6094505,10629.301501
329,RUBY TUESDAY INC,"150 West Church Avenue, Maryville, TN, 37801",35.7545657,-83.97135159999999,11512.311127
330,MOTOROLA SOLUTIONS INC,"1303 East Algonquin Road, Schaumburg, IL, 60196",42.0624688,-88.0514374,10912.761227
331,MURPHY OIL CORP,"200 Peach Street, P.O. Box 7000, El Dorado, AR, 71731-7000",33.2147208,-92.6622873,11950.103158
332,MYERS INDUSTRIES INC,"1293 South Main Street, Akron, OH, 44301",41.051759,-81.526698,10888.409922
333,MYLAN NV,"Building 4, Trident Place, Mosquito Way, Hatfield, Hertfordshire, AL10 9UL",51.7675457,-0.2364009,5928.469235
334,BANK OF AMERICA CORP,"Bank of America Corporate Center, 100 North Tryon Street, Charlotte, NC, 28255",35.2273417,-80.84191679999999,11488.88197
335,NANOMETRICS INC,"1550 Buckeye Drive, Milpitas, CA, 95035",37.4081915,-121.9135317,11335.931844
336,NATIONAL FUEL GAS CO,"6363 Main Street, Williamsville, NY, 14221",42.9625847,-78.71454059999999,10615.490367
337,TENET HEALTHCARE CORP,"1445 Ross Avenue, Suite 1400, Dallas, TX, 75202",32.7848394,-96.80269779999999,12042.572659
338,NATIONAL PRESTO INDS INC,"3925 North Hastings Way, Eau Claire, WI, 54703",44.8592988,-91.45419290000001,10656.356622
339,NEW JERSEY RESOURCES CORP,"1415 Wyckoff Road, Wall, NJ, 7719",40.2101433,-74.1282981,10768.32883
340,NEW YORK TIMES CO  -CL A,"620 Eighth Avenue, New York, NY, 10018",40.756098,-73.99018819999999,10707.775537
341,NEWELL RUBBERMAID INC,"Three Glenlake Parkway, Atlanta, GA, 30328",33.9355355,-84.35995,11716.442107
342,NEWMONT MINING CORP,"6363 South Fiddler's Green Circle, Suite 800, Greenwood Village, CO, 80111",39.6006238,-104.8923492,11309.385018
343,NEWPARK RESOURCES,"9320 Lakeside Boulevard, Suite 100, The Woodlands, TX, 77381",30.17050609999999,-95.4763911,12318.718326
344,NEWPORT CORP,"1791 Deere Avenue, Irvine, CA, 92606",33.7009104,-117.8416088,11821.78661
345,NIKE INC  -CL B,"One Bowerman Drive, Beaverton, OR, 97005",45.50702219999999,-122.8254766,10447.735919
346,NOBLE ENERGY INC,"1001 Noble Energy Way, Houston, TX, 77070",29.9948551,-95.5812153,12339.162439
347,NORDSON CORP,"28601 Clemens Road, Westlake, OH, 44145",41.468993,-81.9366809,10853.73264
348,NORDSTROM INC,"1617 Sixth Avenue, Seattle, WA, 98101",47.6124423,-122.3364045,10231.624755
349,NORFOLK SOUTHERN CORP,"Three Commercial Place, Norfolk, VA, 23510",36.8454996,-76.2880966,11184.803452
350,MOVADO GROUP INC,"650 From Road, Suite 375, Paramus, NJ, 7652",40.9626475,-74.06856739999999,10689.039532
351,EVERSOURCE ENERGY,"300 Cadwell Drive, Springfield, MA, 1104",42.1512628,-72.5474163,10518.270895
352,NISOURCE INC,"801 East 86th Avenue, Merrillville, IN, 46410",41.4614637,-87.3254497,10965.585292
353,XCEL ENERGY INC,"414 Nicollet Mall, Minneapolis, MN, 55401",44.97957539999999,-93.2705091,10663.729225
354,NORTHERN TRUST CORP,"50 South La Salle Street, Chicago, IL, 60603",41.8811501,-87.6330595,10925.376547
355,NORTHROP GRUMMAN CORP,"2980 Fairview Park Drive, Falls Church, VA, 22042",38.8677505,-77.2159054,11002.809373
356,TEREX CORP,"200 Nyala Farm Road, Westport, CT, 6880",41.1228346,-73.3273007,10648.797291
357,NORTHWEST NATURAL GAS CO,"220 North West, Second Avenue, Portland, OR, 97209",45.52491939999999,-122.6719341,10448.980752
358,NORTHWESTERN CORP,"3010 West 69th Street, Sioux Falls, SD, 57108",43.490267,-96.75843379999999,10858.331285
359,WELLS FARGO & CO,"420 Montgomery Street, San Francisco, CA, 94104",37.7933844,-122.4026141,11283.397567
360,NUCOR CORP,"1915 Rexford Road, Charlotte, NC, 28211",35.1587199,-80.83488109999999,11495.950713
361,OCCIDENTAL PETROLEUM CORP,"5 Greenway Plaza, Suite 110, Houston, TX, 77046",29.73285,-95.434912,12366.512228
362,OCEANEERING INTERNATIONAL,"11911 FM 529, Houston, TX, 77041",29.8793825,-95.5887247,12351.967039
363,BRISTOW GROUP INC,"2103 City West Boulevard, 4th Floor, Houston, TX, 77042",29.7426921,-95.55934889999999,12366.728598
364,FIRSTENERGY CORP,"76 South Main Street, Akron, OH, 44308",41.0831382,-81.5182305,10884.867331
365,OGE ENERGY CORP,"321 North Harvey, PO Box 321, Oklahoma City, OK, 73101",35.4707055,-97.51808249999999,11751.063196
366,OLIN CORP,"190 Carondelet Plaza, Suite 1530, Clayton, MO, 63105",38.6482694,-90.3332073,11321.476666
367,ONEOK INC,"100 West Fifth Street, Tulsa, OK, 74103",36.1505651,-95.9916855,11663.920403
368,OWENS & MINOR INC,"9120 Lockwood Boulevard, Mechanicsville, VA, 23116",37.64449159999999,-77.40866679999999,11136.209392
369,OWENS-ILLINOIS INC,"One Michael Owens Way, Perrysburg, OH, 43551",41.5285372,-83.64799190000001,10885.987901
370,OXFORD INDUSTRIES INC,"999 Peachtree Street, N.E., Suite 688, Atlanta, GA, 30309",33.7810701,-84.3836383,11733.563962
371,PNC FINANCIAL SVCS GROUP INC,"One PNC Plaza, 249 Fifth Avenue, Pittsburgh, PA, 15222-2707",40.4412198,-80.000496,10914.957662
372,PPG INDUSTRIES INC,"One PPG Place, Pittsburgh, PA, 15272",40.4398,-80.00319999999999,10915.177978
373,PACCAR INC,"777 - 106th Avenue N.E., Bellevue, WA, 98004",47.61666169999999,-122.1997588,10233.812833
374,PG&E CORP,"77 Beale Street, PO Box 770000, San Francisco, CA, 94177",37.7916858,-122.3956663,11283.740785
375,SEMPRA ENERGY,"101 Ash Street, San Diego, CA, 92101",32.7193282,-117.1633888,11941.243823
376,PARK ELECTROCHEMICAL CORP,"48 South Service Road, Suite 300, Melville, NY, 11747",40.7839294,-73.4435264,10687.296513
377,PARKER-HANNIFIN CORP,"6035 Parkland Boulevard, Cleveland, OH, 44124",41.5065902,-81.4611707,10838.444944
378,PARKWAY PROPERTIES INC,"Bank of America Center, Suite 2400, 390 North Orange Avenue, Orlando, FL, 32801",28.5473298,-81.3799544,12210.460319
379,PAYCHEX INC,"911 Panorama Trail South, Rochester, NY, 14625",43.1250668,-77.49238869999999,10565.7751
380,AMERICAN FINANCIAL GROUP INC,"Great American Insurance Group Tower, 301 East Fourth Street, Cincinnati, OH, 45202",39.09976,-84.50692099999999,11165.377512
381,PENNEY (J C) CO,"6501 Legacy Drive, Plano, TX, 75024",33.0816257,-96.8317551,12010.021468
382,PPL CORP,"Two North Ninth Street, Allentown, PA, 18101-1179",40.6014505,-75.4758514,10770.192066
383,PENNSYLVANIA RE INVS TRUST,"The Bellevue, 200 South Broad Street, Philadelphia, PA, 19102",39.9491188,-75.1648441,10828.071317
384,PENTAIR PLC,"Sharp Street, Walkden, P.O. Box 471, Manchester, M28 8BU",53.52552780000001,-2.3868345,6003.939077
385,PEP BOYS-MANNY MOE & JACK,"3111 West Allegheny Avenue, Philadelphia, PA, 19132",40.0059302,-75.1809858,10822.702575
386,PEPSICO INC,"700 Anderson Hill Road, Purchase, NY, 10577",41.0344724,-73.6928681,10669.656215
387,PDC ENERGY INC,"1775 Sherman Street, Suite 3000, Denver, CO, 80203",39.7445109,-104.9851612,11293.197641
388,PFIZER INC,"235 East 42nd Street, New York, NY, 10017",40.7502476,-73.9725386,10707.812316
389,EXELON CORP,"10 South Dearborn Street, 48th Floor, PO Box 805379, Chicago, IL, 60680",41.8811005,-87.62978450000001,10925.325532
390,AQUA AMERICA INC,"762 West Lancaster Avenue, Bryn Mawr, PA, 19010",40.0202242,-75.3163591,10825.434738
391,ALTRIA GROUP INC,"6601 West Broad Street, Richmond, VA, 23230",37.60066279999999,-77.51673149999999,11144.025409
392,CONOCOPHILLIPS,"600 North Dairy Ashford, Houston, TX, 77079",29.7891986,-95.6134428,12362.161476
393,PVH CORP,"200 Madison Avenue, New York, NY, 10016",40.7491338,-73.98258969999999,10708.248316
394,PIEDMONT NATURAL GAS CO,"4720 Piedmont Row Drive, Charlotte, NC, 28210",35.1517607,-80.8402873,11496.835144
395,SENECA FOODS CORP,"3736 South Main Street, Marion, NY, 14505",43.1411774,-77.1904708,10555.805155
396,AGILYSYS INC,"1000 Windward Concourse, Suite 250, Alpharetta, GA, 30005",34.0958977,-84.2409687,11696.424512
397,PIPER JAFFRAY COS INC,"800 Nicollet Mall, Suite 1000, Minneapolis, MN, 55402",44.9758453,-93.2738249,10664.174537
398,PITNEY BOWES INC,"3001 Summer Street, Stamford, CT, 6926",41.07086169999999,-73.54859150000001,10661.280027
399,PLANTRONICS INC,"345 Encinal Street, PO Box 1802, Santa Cruz, CA, 95060",36.9866099,-122.0364022,11378.303717
400,POTLATCH CORP,"601 West First Avenue, Suite 1600, Spokane, WA, 99201",47.6561642,-117.4215296,10310.470425
401,PEPCO HOLDINGS INC,"701 Ninth Street, NW, Washington, DC, 20068",38.8990736,-77.02382109999999,10993.830712
402,POWELL INDUSTRIES INC,"8550 Mosley Road, Houston, TX, 77075",29.6448755,-95.2554375,12374.288761
403,PRECISION CASTPARTS CORP,"4650 SW Macadam Avenue, Suite 400, Portland, OR, 97239",45.4891943,-122.6729013,10452.791963
404,PROCTER & GAMBLE CO,"One Procter & Gamble Plaza, Cincinnati, OH, 45202",39.1032195,-84.5052772,11164.970097
405,PNM RESOURCES INC,"414 Silver Avenue SW, Albuquerque, NM, 87102",35.082494,-106.6528481,11804.281399
406,PUBLIC SERVICE ENTRP GRP INC,"80 Park Plaza, PO Box 1171, Newark, NJ, 7101",40.7378054,-74.1691355,10715.363113
407,PULTEGROUP INC,"3350 Peachtree Road NE, Atlanta, GA, 30326",33.8476821,-84.3681861,11726.055759
408,QUAKER CHEMICAL CORP,"One Quaker Park, 901 East Hector Street, Conshohocken, PA, 19428",40.0743164,-75.2891343,10818.994946
409,QUALITY SYSTEMS INC,"18111 Von Karman Avenue, Suite 700, Irvine, CA, 92612",33.680327,-117.8539145,11823.782815
410,QUESTAR CORP,"333 South State Street, PO Box 45433, Salt Lake City, UT, 84145",40.76181,-111.8874363,11136.41565
411,RAYMOND JAMES FINANCIAL CORP,"880 Carillon Parkway, St. Petersburg, FL, 33716",27.8928124,-82.6706241,12317.19866
412,RPM INTERNATIONAL INC,"2628 Pearl Road, PO Box 777, Medina, OH, 44258",41.202366,-81.844115,10879.960181
413,RAYTHEON CO,"870 Winter Street, Waltham, MA, 2451",42.4057975,-71.282688,10450.452171
414,REGAL BELOIT CORP,"200 State Street, Beloit, WI, 53511",42.4984104,-89.0363758,10881.136715
415,REGIS CORP/MN,"7201 Metro Boulevard, Minneapolis, MN, 55439",44.87329340000001,-93.3518799,10676.279812
416,AUTONATION INC,"200 SW 1st Avenue, Fort Lauderdale, FL, 33301",26.1200646,-80.1441231,12427.499852
417,ROCKWELL AUTOMATION,"1201 South 2nd Street, Milwaukee, WI, 53204",43.0185622,-87.9135988,10806.463028
418,ROGERS CORP,"One Technology Drive, PO Box 188, Rogers, CT, 6263",41.8402028,-71.9113365,10528.961578
419,ROLLINS INC,"2170 Piedmont Road, N.E., Atlanta, GA, 30324",33.8161635,-84.3671841,11729.410735
420,ROSS STORES INC,"5130 Hacienda Drive, Dublin, CA, 94568",37.7103486,-121.8900734,11304.060292
421,ROWAN COS PLC,"2800 Post Oak Boulevard, Suite 5450, Houston, 77056",29.7370769,-95.46221829999999,12366.333797
422,ROYAL GOLD INC,"1660 Wynkoop Street, Suite 1000, Denver, CO, 80202",39.7521134,-105.0000873,11292.317936
423,RYDER SYSTEM INC,"11690 NW 105th Street, Miami, FL, 33178",25.868202,-80.38530779999999,12461.702113
424,SEI INVESTMENTS CO,"1 Freedom Valley Drive, Oaks, PA, 19456",40.1414246,-75.4473028,10816.943398
425,ST JUDE MEDICAL INC,"One St. Jude Medical Drive, St. Paul, MN, 55117",45.012431,-93.101079,10658.338655
426,SCANA CORP,"100 SCANA Parkway, Cayce, SC, 29033",33.9352854,-81.0504524,11631.354624
427,SCHLUMBERGER LTD,"42, rue Saint-Dominique, Paris, 75007",48.8600021,2.3109,5860.851914
428,SCHOLASTIC CORP,"557 Broadway, New York, NY, 10012",40.724041,-73.99838319999999,10711.3325
429,SCHULMAN (A.) INC,"3637 Ridgewood Road, Fairlawn, OH, 44333",41.11090009999999,-81.6431497,10884.913252
430,SEALED AIR CORP,"8215 Forest Point Boulevard, Charlotte, NC, 28273",35.1318927,-80.9064054,11500.74612
431,SEMTECH CORP,"200 Flynn Road, Camarillo, CA, 93012",34.2180997,-119.0210025,11742.296175
432,SERVICE CORP INTERNATIONAL,"1929 Allen Parkway, Houston, TX, 77019",29.7606136,-95.38685919999999,12362.945073
433,SHERWIN-WILLIAMS CO,"101 West Prospect Avenue, Cleveland, OH, 44115",41.4972774,-81.6924983,10844.954095
434,SMITH (A O) CORP,"11270 West Park Place, Suite 170, PO Box 245008, Milwaukee, WI, 53224",43.1514819,-88.0516268,10794.275935
435,SMUCKER (JM) CO,"One Strawberry Lane, Orrville, OH, 44667",40.8470663,-81.7621164,10915.850587
436,SNAP-ON INC,"2801 80th Street, Kenosha, WI, 53143",42.556708,-87.843003,10855.515269
437,KEYCORP,"127 Public Square, Cleveland, OH, 44114",41.50144,-81.6941499,10844.550044
438,SONOCO PRODUCTS CO,"1 North Second Street, Hartsville, SC, 29550",34.3814307,-80.0666708,11556.535025
439,SOUTH JERSEY INDUSTRIES INC,"1 South Jersey Plaza, Folsom, NJ, 8037",39.60364879999999,-74.8383904,10853.471536
440,PIONEER ENERGY SERVICES CORP,"1250 NE Loop 410, Suite 1000, San Antonio, TX, 78209",29.5149605,-98.4491846,12416.067958
441,EDISON INTERNATIONAL,"2244 Walnut Grove Avenue, PO Box 976, Rosemead, 91770",34.053896,-118.0807162,11778.873558
442,AMERICAN STATES WATER CO,"630 East Foothill Boulevard, San Dimas, CA, 91773",34.1221117,-117.79581,11776.957175
443,SOUTHERN CO,"30 Ivan Allen Jr Boulevard NW, Atlanta, GA, 30308",33.7642398,-84.38824799999999,11735.477812
444,SOUTHWEST AIRLINES,"2702 Love Field Drive, Dallas, TX, 75235",32.84540700000001,-96.86211329999999,12036.366587
445,SOUTHWEST GAS CORP,"5241 Spring Mountain Road, Post Office Box 98510, Las Vegas, NV, 89193",36.12542,-115.2136515,11603.028728
446,AT&T INC,"208 South Akard Street, Dallas, TX, 75202",32.779561,-96.7988893,12043.124495
447,SOUTHWESTERN ENERGY CO,"10000 Energy Drive, Spring, TX, 77389",30.0988966,-95.4384362,12326.213544
448,STANDARD MOTOR PRODS,"37-18 Northern Boulevard, Long Island City, NY, 11101",40.7519244,-73.9254192,10706.131381
449,CALATLANTIC GROUP INC,"15360 Barranca Parkway, Irvine, CA, 92618",33.6603073,-117.7418271,11828.107941
450,STANDEX INTERNATIONAL CORP,"11 Keewaydin Drive, Salem, NH, 3079",42.7732289,-71.2446835,10411.934372
451,STANLEY BLACK & DECKER INC,"1000 Stanley Drive, New Britain, CT, 6053",41.6936214,-72.8078946,10573.503435
452,STATE STREET CORP,"State Street Financial Center, One Lincoln Street, Boston, MA, 2111",42.35272579999999,-71.05844429999999,10448.248376
453,STEPAN CO,"22 West Frontage Road, Northfield, IL, 60093",42.0912849,-87.7622646,10904.751414
454,STEWART INFORMATION SERVICES,"1980 Post Oak Boulevard, Suite 800, Houston, TX, 77056",29.74623159999999,-95.4618162,12365.320792
455,PUBLIC STORAGE,"701 Western Avenue, Glendale, CA, 91201",34.1664274,-118.2955073,11762.475237
456,STRYKER CORP,"2825 Airview Boulevard, Kalamazoo, MI, 49002",42.2428207,-85.55533969999999,10848.200385
457,NAVIENT CORP,"123 Justison Street, Wilmington, DE, 19801",39.7384665,-75.5590563,10862.113817
458,STURM RUGER & CO INC,"Lacey Place, Southport, CT, 6890",41.1406169,-73.27634510000001,10645.322382
459,SUNTRUST BANKS INC,"303 Peachtree Street, N.E., Atlanta, GA, 30308",33.762766,-84.3865105,11735.594505
460,SUPERVALU INC,"11840 Valley View Road, Eden Prairie, MN, 55344",44.8723239,-93.42536779999999,10677.141009
461,SUPERIOR INDUSTRIES INTL,"24800 Denso Drive, Suite 225, Southfield, MI, 48033",42.4781559,-83.2896473,10776.417959
462,SYSCO CORP,"1390 Enclave Parkway, Houston, TX, 77077",29.759024,-95.6197558,12365.552242
463,TECO ENERGY INC,"TECO Plaza, 702 North Franklin Street, Tampa, FL, 33602",27.9503502,-82.45938509999999,12305.084225
464,ALLEGHENY TECHNOLOGIES INC,"1000 Six PPG Place, Pittsburgh, PA, 15222",40.4393677,-80.0037947,10915.239122
465,TELEFLEX INC,"550 East Swedesford Road, Suite 400, Wayne, PA, 19087",40.0771684,-75.41762349999999,10822.678202
466,TELEPHONE & DATA SYSTEMS INC,"Empire State Building, 21st Floor, 350 Fifth Avenue, New York, NY, 10118",40.7484799,-73.9854245,10708.40619
467,TENNANT CO,"701 North Lilac Drive, Minneapolis, MN, 55422",44.987209,-93.352611,10663.73591
468,TERADYNE INC,"600 Riverpark Drive, North Reading, MA, 1864",42.55612139999999,-71.1350329,10430.244391
469,TESORO CORP,"19100 Ridgewood Parkway, San Antonio, TX, 78259-1828",29.6159513,-98.45895569999999,12404.959758
470,TEXAS INSTRUMENTS INC,"12500 TI Boulevard, Dallas, TX, 75243",32.9104609,-96.7580734,12028.327606
471,TEXTRON INC,"40 Westminster Street, Providence, RI, 2903",41.8249048,-71.4092955,10513.62265
472,THERMO FISHER SCIENTIFIC INC,"81 Wyman Street, Waltham, MA, 2451",42.3998795,-71.2581874,10450.226462
473,THOR INDUSTRIES INC,"601 East Beardsley Avenue, Elkhart, IN, 46514",41.6927175,-85.9690081,10915.587003
474,TIDEWATER INC,"Pan American Life Center, 601 Poydras Street, Suite 1500, New Orleans, LA, 70130",29.949959,-90.06967670000002,12266.52362
475,TIMKEN CO,"4500 Mount Pleasant St. N.W., North Canton, OH, 44720",40.9058618,-81.4330213,10901.66492
476,TOOTSIE ROLL INDUSTRIES INC,"7401 South Cicero Avenue, Chicago, IL, 60629",41.7583948,-87.74093200000002,10940.56961
477,TORCHMARK CORP,"3700 South Stonebridge Drive, McKinney, TX, 75070",33.1717418,-96.7284935,11999.219394
478,TORO CO,"8111 Lyndale Avenue South, Bloomington, MN, 55420",44.8572504,-93.2871696,10677.378228
479,TOTAL SYSTEM SERVICES INC,"One TSYS Way, Columbus, GA, 31901",32.4749904,-84.9924032,11888.084157
480,TRINITY INDUSTRIES,"2525 North Stemmons Freeway, Dallas, TX, 75207",32.805475,-96.8399378,12040.597759
481,TYCO INTERNATIONAL PLC,"Building 1000, Unit 1202, City Gate, Mahon",51.886605,-8.405006,6448.958568
482,TYLER TECHNOLOGIES INC,"5101 Tennyson Parkway, Plano, TX, 75024",33.0657811,-96.8022754,12011.531652
483,TYSON FOODS INC  -CL A,"2200 Don Tyson Parkway, Springdale, AR, 72762",36.1556481,-94.1545321,11645.146084
484,UNITED CONTINENTAL HLDGS INC,"233 South Wacker Drive, Chicago, IL, 60606",41.87887610000001,-87.635915,10925.672799
485,UGI CORP,"460 North Gulph Road, King Of Prussia, PA, 19406",40.0885655,-75.40706689999999,10821.172489
486,UNIFI INC,"7201 West Friendly Avenue, Greensboro, NC, 27419",36.087341,-79.922748,11372.587398
487,UNIFIRST CORP,"68 Jonspin Road, Wilmington, MA, 1887",42.5969,-71.1483793,10426.564103
488,AMEREN CORP,"1901 Chouteau Avenue, St. Louis, MO, 63103",38.6224792,-90.20937320000002,11322.416994
489,UNION PACIFIC CORP,"1400 Douglas Street, Omaha, NE, 68179",41.259172,-95.93518,11099.004275
490,UNIT CORP,"7130 South Lewis, Suite 1000, Tulsa, OK, 74136",36.0593629,-95.9608303,11673.720491
491,UDR INC,"1745 Shea Center Drive, Suite 200, Highlands Ranch, CO, 80129",39.55488829999999,-105.0092628,11314.184434
492,UNITEDHEALTH GROUP INC,"UnitedHealth Group Center, 9900 Bren Road East, Minnetonka, MN, 55343",44.8973859,-93.4032532,10674.152997
493,UMB FINANCIAL CORP,"1010 Grand Boulevard, Kansas City, MO, 64106",39.1014321,-94.58128889999999,11325.017405
494,UNITED PARCEL SERVICE INC,"55 Glenlake Parkway, NE, Atlanta, GA, 30328",33.9431979,-84.3602082,11715.626807
495,ESSENDANT INC,"One Parkway North Boulevard, Suite 100, Deerfield, IL, 60015",42.1639468,-87.8767361,10898.79109
496,UNITED TECHNOLOGIES CORP,"10 Farm Springs Road, Farmington, CT, 6032",41.70844719999999,-72.80322380000001,10571.83613
497,SCIENTIFIC GAMES CORP,"6650 South El Camino Road, Las Vegas, NV, 89118",36.0684881,-115.2282739,11609.029782
498,SENSIENT TECHNOLOGIES CORP,"777 East Wisconsin Avenue, Milwaukee, WI, 53202",43.0382719,-87.901871,10804.124793
499,UNIVERSAL CORP/VA,"Stony Point II Building, 9201 Forest Hill Avenue, Richmond, VA, 23235",37.539853,-77.56514899999999,11151.824591
500,UNIVERSAL HEALTH SVCS INC,"Universal Corporate Center, 367 South Gulph Road, PO Box 615, King Of Prussia, PA, 19406",40.078207,-75.36959,10821.085503
501,VF CORP,"105 Corporate Center Boulevard, Greensboro, NC, 27408",36.1221552,-79.79890089999999,11365.44044
502,VALMONT INDUSTRIES INC,"One Valmont Plaza, Omaha, NE, 68154",41.2651094,-96.130981,11099.907673
503,VALSPAR CORP,"1101 South 3rd Street, Minneapolis, MN, 55415",44.9739692,-93.2536566,10664.171923
504,VARIAN MEDICAL SYSTEMS INC,"3100 Hansen Way, Palo Alto, CA, 94304",37.4170321,-122.1428778,11329.720803
505,VEECO INSTRUMENTS INC,"1 Terminal Drive, Plainview, NY, 11803",40.7922859,-73.4658066,10687.163804
506,VISHAY INTERTECHNOLOGY INC,"63 Lancaster Avenue, Malvern, PA, 19355",40.0446615,-75.52806559999999,10829.450418
507,VORNADO REALTY TRUST,"888 Seventh Avenue, New York, NY, 10019",40.7652747,-73.9807922,10706.531921
508,VULCAN MATERIALS CO,"1200 Urban Center Drive, Birmingham, AL, 35242",33.482953,-86.704047,11817.648709
509,WD-40 CO,"1061 Cudahy Place, San Diego, CA, 92110",32.7668567,-117.2005933,11935.382702
510,WAL-MART STORES INC,"702 SW 8th Street, Bentonville, AR, 72716",36.3652654,-94.2176381,11622.754942
511,WALGREENS BOOTS ALLIANCE INC,"108 Wilmot Road, Deerfield, IL, 60015",42.1555253,-87.86886179999999,10899.573937
512,WGL HOLDINGS INC,"101 Constitution Avenue N.W., Washington, DC, 20080",38.8928495,-77.01299440000001,10994.15648
513,GRAHAM HOLDINGS CO,"1300 North 17th Street, 17th Floor, Arlington, VA, 22209",38.89360509999999,-77.0725457,10995.853108
514,AVISTA CORP,"1411 East Mission Avenue, Spokane, WA, 99202",47.6734481,-117.3886669,10309.064246
515,WATSCO INC,"2665 South Bayshore Drive, Suite 901, Coconut Grove, Miami, FL, 33133",25.7303942,-80.236066,12471.32722
516,WAUSAU PAPER CORP,"100 Paper Place, Mosinee, WI, 54455",44.8136328,-89.66824799999999,10637.682561
517,WEINGARTEN REALTY INVST,"2600 Citadel Plaza Drive, Suite 125, Houston, TX, 77008",29.8100423,-95.4357711,12358.01554
518,WEST PHARMACEUTICAL SVSC INC,"530 Herman O. West Drive, Exton, PA, 19341",40.061479,-75.6805357,10832.391996
519,WESTERN DIGITAL CORP,"3355 Michelson Drive, Suite 100, Irvine, CA, 92612",33.673017,-117.8409843,11824.825036
520,WEYERHAEUSER CO,"33663 Weyerhaeuser Way South, Federal Way, WA, 98063",47.2968716,-122.2991023,10266.249161
521,WHIRLPOOL CORP,"2000 North M-63, Benton Harbor, MI, 49022-2692",42.1507583,-86.4419435,10874.90045
522,WILEY (JOHN) & SONS  -CL A,"111 River Street, Hoboken, NJ, 7030",40.7373992,-74.02845959999999,10710.920744
523,WILLIAMS COS INC,"One Williams Center, Tulsa, OK, 74172",36.155,-95.99029999999999,11663.41849
524,WILLIAMS-SONOMA INC,"3250 Van Ness Avenue, San Francisco, CA, 94109",37.8058741,-122.4250473,11281.53912
525,WINNEBAGO INDUSTRIES,"605 West Crystal Lake Road, Forest City, IA, 50436",43.256103,-93.64531679999999,10857.502435
526,WEC ENERGY GROUP INC,"231 West Michigan Street, Milwaukee, WI, 53203",43.0371135,-87.9137137,10804.44703
527,ALLIANT ENERGY CORP,"4902 North Biltmore Lane, Suite 1000, Madison, WI, 53718",43.1512115,-89.2958529,10813.858986
528,WOLVERINE WORLD WIDE,"9341 Courtland Drive NE, Rockford, MI, 49351",43.1352383,-85.5443816,10751.612789
529,WOODWARD INC,"1000 East Drake Road, Fort Collins, CO, 80525",40.5542166,-105.0605898,11203.14342
530,FOOT LOCKER INC,"112 West 34th Street, New York, NY, 10120",40.7496971,-73.9889209,10708.392903
531,WORTHINGTON INDUSTRIES,"200 Old Wilson Bridge Road, Columbus, OH, 43085",40.110674,-83.02154399999999,11023.921056
532,XEROX CORP,"45 Glover Avenue, PO Box 4505, Norwalk, CT, 6856",41.1449042,-73.428685,10649.81805
533,TJX COMPANIES INC,"770 Cochituate Road, Framingham, MA, 1701",42.3068997,-71.3560318,10462.948003
534,ZIONS BANCORPORATION,"One South Main Street, 15th Floor, Salt Lake City, UT, 84133",40.76908299999999,-111.890529,11135.582096
535,OSHKOSH CORP,"PO Box 2566, Oshkosh, WI, 54903",43.9928377,-88.5427575,10710.504963
536,ALEXANDER & BALDWIN INC,"822 Bishop Street, Post Office Box 3440, Honolulu, HI, 96801",21.3079324,-157.8625906,11235.923702
537,STIFEL FINANCIAL CORP,"501 North Broadway, St. Louis, MO, 63102-2188",38.6296755,-90.1888688,11321.317633
538,DREW INDUSTRIES INC,"3501 County Road 6 East, Elkhart, IN, 46514",41.7236612,-85.9187951,10911.282324
539,HENRY (JACK) & ASSOCIATES,"663 West Highway 60, PO Box 807, Monett, MO, 65708",36.9113,-93.942301,11559.581695
540,ASSOCIATED BANC-CORP,"433 Main Street, Green Bay, WI, 54301",44.517726,-88.009331,10644.899851
541,BB&T CORP,"200 West Second Street, Winston-Salem, NC, 27101",36.0959621,-80.2464116,11380.683472
542,VALLEY NATIONAL BANCORP,"1455 Valley Road, Wayne, NJ, 7470",40.9629545,-74.2257279,10693.9912
543,FIRST MIDWEST BANCORP INC,"One Pierce Place, Suite 1500, Itasca, IL, 60143",41.9879566,-88.0168582,10920.287902
544,ANADARKO PETROLEUM CORP,"1201 Lake Robbins Drive, The Woodlands, TX, 77380-1046",30.160256,-95.45477559999999,12319.622598
545,NOBLE CORP PLC,"Devonshire House, 1 Mayfair Place, London, W1J 8AJ",51.5072829,-0.1430413,5931.580724
546,TUESDAY MORNING CORP,"6250 LBJ Freeway, Dallas, TX, 75240",32.92382380000001,-96.7979127,12027.179102
547,EMC CORP/MA,"176 South Street, Hopkinton, MA, 1748",42.1941163,-71.5438686,10480.702987
548,BIG LOTS INC,"300 Phillipi Road, PO Box 28512, Columbus, OH, 43228",39.9591965,-83.109347,11042.132885
549,MORGAN STANLEY,"1585 Broadway, New York, NY, 10036",40.760386,-73.985678,10707.190604
550,PRICE (T. ROWE) GROUP,"100 East Pratt Street, Baltimore, MD, 21202",39.2871714,-76.6128397,10941.100782
551,NATIONAL RETAIL PROPERTIES,"450 South Orange Avenue, Suite 900, Orlando, FL, 32801",28.5370565,-81.37933699999999,12211.52691
552,MICROSOFT CORP,"One Microsoft Way, Redmond, WA, 98052",47.6423318,-122.1369302,10232.261872
553,ORACLE CORP,"500 Oracle Parkway, Redwood City, CA, 94065",37.53070520000001,-122.26242,11314.778961
554,TECH DATA CORP,"5350 Tech Data Drive, Clearwater, FL, 33760",27.917127,-82.707835,12315.670969
555,REPLIGEN CORP,"Building 1, Suite 100, 41 Seyon Street, Waltham, MA, 2453",42.37028220000001,-71.2160251,10451.803279
556,CYPRESS SEMICONDUCTOR CORP,"198 Champion Court, San Jose, CA, 95134",37.4103081,-121.9505551,11334.859232
557,LINEAR TECHNOLOGY CORP,"1630 McCarthy Boulevard, Milpitas, CA, 95035",37.4064253,-121.9169101,11336.044138
558,ASTEC INDUSTRIES INC,"1725 Shepherd Road, Chattanooga, TN, 37421",35.0367136,-85.19102319999999,11617.329308
559,WERNER ENTERPRISES INC,"14507 Frontier Road, Post Office Box 45308, Omaha, NE, 68145",41.1579896,-96.1415689,11111.835054
560,AMERICAN WOODMARK CORP,"3102 Shawnee Drive, Winchester, VA, 22601",39.134595,-78.1810524,11002.960372
561,HARLEY-DAVIDSON INC,"3700 West Juneau Avenue, Milwaukee, WI, 53208",43.0460968,-87.9599862,10804.235059
562,SKYWEST INC,"444 South River Road, St. George, UT, 84790",37.1006483,-113.5569325,11519.661814
563,TOLL BROTHERS INC,"250 Gibraltar Road, Horsham, PA, 19044",40.1746577,-75.1358396,10803.855982
564,FREDS INC,"4300 New Getwell Road, Memphis, TN, 38118",35.0382962,-89.93653499999999,11709.470854
565,ENGILITY HOLDINGS INC,"3750 Centerview Drive, Chantilly, VA, 20151",38.9012417,-77.4292287,11005.611183
566,MERIDIAN BIOSCIENCE INC,"3471 River Hills Drive, Cincinnati, OH, 45244",39.1237629,-84.35680699999999,11159.540511
567,GARTNER INC,"56 Top Gallant Road, PO Box 10212, Stamford, CT, 6902",41.0304821,-73.55030239999999,10665.476474
568,WATTS WATER TECHNOLOGIES INC,"815 Chestnut Street, North Andover, MA, 1845",42.65649,-71.10499209999999,10419.066739
569,NVR INC,"Plaza America Tower I, Suite 500, 11700 Plaza America Drive, Reston, VA, 20190",38.9526486,-77.34993060000001,10997.909175
570,WORLD FUEL SERVICES CORP,"9800 Northwest 41st Street, Suite 400, Miami, FL, 33178",25.8105331,-80.35552299999999,12466.79121
571,CABLEVISION SYS CORP  -CL A,"1111 Stewart Avenue, Bethpage, NY, 11714",40.7614169,-73.4950539,10691.277695
572,ADOBE SYSTEMS INC,"345 Park Avenue, San Jose, CA, 95110",37.33080700000001,-121.8942752,11344.669837
573,HARTE HANKS INC,"9601 McAllister Freeway, Suite 610, San Antonio, TX, 78216",29.5276635,-98.4848039,12414.888684
574,M/I HOMES INC,"3 Easton Oval, Suite 500, Columbus, OH, 43219",40.0466043,-82.9052312,11028.103625
575,MARTEN TRANSPORT LTD,"129 Marten Street, Mondovi, WI, 54755",44.5690376,-91.65625829999999,10690.698387
576,FISERV INC,"255 Fiserv Drive, Brookfield, WI, 53045",43.0334751,-88.14076349999999,10808.57628
577,KB HOME,"10990 Wilshire Boulevard, Los Angeles, CA, 90024",34.0575438,-118.4471134,11771.274105
578,UNUM GROUP,"1 Fountain Square, Chattanooga, TN, 37402",35.0504844,-85.3068744,11618.425888
579,COCA-COLA ENTERPRISES INC,"2500 Windy Ridge Parkway, Atlanta, GA, 30339",33.9049622,-84.45656369999999,11722.008655
580,HARMAN INTERNATIONAL INDS,"400 Atlantic Street, Suite 1500, Stamford, CT, 6901",41.0504634,-73.53885629999999,10663.058022
581,CORELOGIC INC,"40 Pacifica, Suite 900, Irvine, CA, 92618",33.6506498,-117.7517227,11828.966575
582,J & J SNACK FOODS CORP,"6000 Central Highway, Pennsauken, NJ, 8109",39.9314107,-75.06969289999999,10826.925597
583,HEARTLAND EXPRESS INC,"901 North Kansas Avenue, North Liberty, IA, 52317",41.7577674,-91.6401734,10999.106202
584,CERNER CORP,"2800 Rockcreek Parkway, North Kansas City, MO, 64117",39.14986409999999,-94.5459231,11319.322521
585,TWENTY-FIRST CENTURY FOX INC,"1211 Avenue of the Americas, New York, NY, 10036",40.758464,-73.98180599999999,10707.264323
586,PLEXUS CORP,"One Plexus Way, PO Box 156, Neenah, WI, 54957",44.1883284,-88.4639135,10687.968726
587,AIRGAS INC,"259 North Radnor-Chester Road, Suite 100, Radnor, PA, 19087",40.0415201,-75.3603244,10824.594573
588,JOY GLOBAL INC,"100 East Wisconsin Avenue, Suite 2780, Milwaukee, WI, 53202",43.0389547,-87.9094954,10804.176876
589,CASH AMERICA INTL INC,"1600 West 7th Street, Fort Worth, TX, 76102",32.7513958,-97.3445636,12050.524936
590,SYNOVUS FINANCIAL CORP,"1111 Bay Avenue, Suite 500, Columbus, GA, 31901",32.4668758,-84.9956294,11889.031288
591,JACK IN THE BOX INC,"9330 Balboa Avenue, San Diego, CA, 92123",32.8228135,-117.1289306,11930.640414
592,HCP INC,"1920 Main Street, Suite 1200, Irvine, CA, 92614",33.6841151,-117.8526637,11823.39593
593,CAPSTEAD MORTGAGE CORP,,33.791638,-84.389488,11732.570047
594,CEDAR REALTY TRUST INC,"44 South Bayles Avenue, Port Washington, NY, 11050",40.8276349,-73.6863169,10690.672814
595,SANDERSON FARMS INC,"127 Flynt Road, Laurel, MS, 39443",31.7173956,-89.15698139999999,12057.563593
596,PROGRESSIVE CORP-OHIO,"6300 Wilson Mills Road, Mayfield Village, OH, 44143",41.5359019,-81.4510402,10835.08377
597,RLI CORP,"9025 North Lindbergh Drive, Peoria, IL, 61615",40.7974496,-89.6114058,11075.659367
598,VOXX INTERNATIONAL CORP,"180 Marcus Boulevard, Hauppauge, NY, 11788",40.815504,-73.2480623,10677.69258
599,GENERAL COMMUNICATION  -CL A,"2550 Denali Street, Suite 1000, Anchorage, AK, 99503",61.19723149999999,-149.8780298,8127.641166
600,CALGON CARBON CORP,"3000 GSK Drive, Moon Township, Pittsburgh, PA, 15108",40.4601407,-80.17737609999999,10917.533428
601,CADENCE DESIGN SYSTEMS INC,"2655 Seely Avenue, Building 5, San Jose, CA, 95134",37.3961206,-121.9194713,11337.090674
602,LEVEL 3 COMMUNICATIONS INC,"1025 Eldorado Boulevard, Broomfield, CO, 80021",39.9209056,-105.1443654,11273.224305
603,EBIX INC,"1 Ebix Way, Johns Creek, GA, 30097",34.0652981,-84.17385929999999,11698.101574
604,CARNIVAL CORP/PLC (USA),"3655 NW 87th Avenue, Miami, 33178",25.8068316,-80.3355508,12466.534543
605,DUKE REALTY CORP,"600 East 96th Street, Suite 100, Indianapolis, IN, 46240",39.9288905,-86.1469152,11109.70306
606,WHITEWAVE FOODS CO,"1225 Seventeenth Street, Suite 1000, Denver, CO, 80202",39.7502764,-104.9952031,11292.533604
607,CELGENE CORP,"86 Morris Avenue, Summit, NJ, 7901",40.7090186,-74.3452692,10723.913875
608,ABIOMED INC,"22 Cherry Hill Drive, Danvers, MA, 1923",42.5769047,-70.91752389999999,10420.782568
609,CONMED CORP,"525 French Road, Utica, NY, 13502",43.0873037,-75.2839922,10507.005854
610,TIFFANY & CO,"727 Fifth Avenue, New York, NY, 10022",40.7626931,-73.9739144,10706.577278
611,DENTSPLY INTERNATL INC,"221 West Philadelphia Street, PO Box 2558, York, PA, 17405",39.9624421,-76.7342834,10874.423263
612,CBS CORP,"51 West 52nd Street, New York, NY, 10019",40.7611804,-73.97881939999999,10706.889626
613,ZOETIS INC,"100 Campus Drive, Florham Park, NJ, 7932",40.7824143,-74.4260905,10718.907641
614,AIR METHODS CORP,"7301 South Peoria, Englewood, CO, 80112",39.5838729,-104.847405,11311.346118
615,ALMOST FAMILY INC,"9510 Ormsby Station Road, Suite 300, Louisville, KY, 40223",38.2624696,-85.57680719999999,11278.180996
616,FAIR ISAAC CORP,"181 Metro Drive, Suite 700, San Jose, CA, 95110",37.3685081,-121.9186616,11340.070102
617,CAMBREX CORP,"One Meadowlands Plaza, East Rutherford, NJ, 7073",40.8062412,-74.0785874,10705.441906
618,SCHWAB (CHARLES) CORP,"211 Main Street, San Francisco, CA, 94105",37.7905969,-122.3927897,11283.924163
619,CLEAN HARBORS INC,"42 Longwater Drive, PO Box 9149, Norwell, MA, 2061",42.1603973,-70.8839929,10461.765663
620,ALBANY INTL CORP  -CL A,"216 Airport Drive, Rochester, NH, 3867",43.2881642,-70.9309603,10349.274953
621,LANDAUER INC,"2 Science Road, Glenwood, IL, 60425",41.5433728,-87.62551549999999,10961.944988
622,FULTON FINANCIAL CORP,"One Penn Square, PO Box 4887, Lancaster, PA, 17604",40.0381803,-76.3053296,10853.756253
623,BANCORPSOUTH INC,"One Mississippi Plaza, 201 South Spring Street, Tupelo, MS, 38804",34.256342,-88.70378939999999,11773.156718
624,FASTENAL CO,"2001 Theurer Boulevard, Winona, MN, 55987",44.0629544,-91.68776249999999,10746.655827
625,WESTAMERICA BANCORPORATION,"1108 Fifth Avenue, San Rafael, CA, 94901",37.9744255,-122.5288828,11261.080914
626,MAXIM INTEGRATED PRODUCTS,"160 Rio Robles, San Jose, CA, 95134",37.4054899,-121.9499774,11335.389052
627,AMPHENOL CORP,"358 Hall Avenue, PO Box 5030, Wallingford, CT, 6492",41.46077469999999,-72.8330564,10598.119094
628,AKORN INC,"1925 West Field Court, Suite 300, Lake Forest, IL, 60045",42.24446700000001,-87.89324839999999,10890.313415
629,INTER PARFUMS INC,"551 Fifth Avenue, New York, NY, 10176",40.7553825,-73.9788937,10707.487883
630,POLARIS INDUSTRIES INC,"2100 Highway 55, Medina, MN, 55340",45.05750700000001,-93.57653669999999,10658.262782
631,PIONEER NATURAL RESOURCES CO,"5205 North O'Connor Boulevard, Suite 200, Irving, TX, 75039",32.8703634,-96.9395894,12034.234584
632,MANPOWERGROUP,"100 Manpower Place, Milwaukee, WI, 53212",43.0492373,-87.91310059999999,10803.118116
633,SOTHEBY'S,"1334 York Avenue, New York, NY, 10021",40.7662927,-73.9537081,10705.560849
634,ADT CORP,"1501 Yamato Road, Boca Raton, FL, 33431",26.395193,-80.1180325,12397.816117
635,WASTE MANAGEMENT INC,"1001 Fannin Street, Houston, TX, 77002",29.7557923,-95.3639415,12363.232891
636,EW SCRIPPS  -CL A,"312 Walnut Street, Cincinnati, OH, 45202",39.0992627,-84.51035970000001,11165.50531
637,II-VI INC,"375 Saxonburg Boulevard, Saxonburg, PA, 16056",40.7331156,-79.8204375,10879.42872
638,FREEPORT-MCMORAN INC,"333 North Central Avenue, Phoenix, AZ, 85004-2189",33.4517282,-112.073067,11939.218023
639,OFFICE DEPOT INC,"6600 North Military Trail, Boca Raton, FL, 33496",26.4051287,-80.1205277,12396.855131
640,MERITAGE HOMES CORP,"8800 East Raintree Drive, Suite 300, Scottsdale, AZ, 85260",33.6193961,-111.8897349,11922.942518
641,BERKLEY (W R) CORP,"475 Steamboat Road, Greenwich, CT, 6830",41.0187265,-73.6222537,10669.001217
642,CINCINNATI FINANCIAL CORP,"6200 South Gilmore Road, Fairfield, OH, 45014",39.3077875,-84.52070870000001,11143.311889
643,OLD REPUBLIC INTL CORP,"307 North Michigan Avenue, Chicago, IL, 60601",41.8870736,-87.6242104,10924.580516
644,3D SYSTEMS CORP,"333 Three D Systems Circle, Rock Hill, SC, 29730",34.9497087,-80.949433,11521.20575
645,DEVON ENERGY CORP,"333 West Sheridan Avenue, Oklahoma City, OK, 73102",35.4669418,-97.5177018,11751.476911
646,LINDSAY CORP,"2222 North 111th Street, Omaha, NE, 68164",41.2796331,-96.0857929,11097.945802
647,LABORATORY CP OF AMER HLDGS,"358 South Main Street, Burlington, NC, 27215",36.0931722,-79.4373797,11358.24697
648,ISTAR INC,"1114 Avenue of the Americas, New York, NY, 10036",40.75471719999999,-73.98277449999999,10707.680382
649,VALERO ENERGY CORP,"One Valero Way, San Antonio, TX, 78249",29.5860851,-98.60540619999999,12409.177062
650,IDEX CORP,"1925 West Field Court, Suite 200, Lake Forest, IL, 60045",42.24446700000001,-87.89324839999999,10890.313415
651,MUELLER INDUSTRIES,"8285 Tournament Drive, Suite 150, Memphis, TN, 38125",35.055935,-89.78608899999999,11705.043729
652,TCF FINANCIAL CORP,"200 Lake Street East, Mail Code EX0-03-A, Wayzata, MN, 55391",44.97028539999999,-93.51979810000002,10667.305207
653,BIO-TECHNE CORP,"614 McKinley Place NE, Minneapolis, MN, 55413",44.9958046,-93.2291042,10661.511185
654,BROWN & BROWN INC,"220 South Ridgewood Avenue, Daytona Beach, FL, 32114",29.2079416,-81.0217059,12130.071098
655,TREDEGAR CORP,"1100 Boulders Parkway, Richmond, VA, 23225",37.5142478,-77.5322873,11153.514445
656,SIGNET JEWELERS LTD,"Clarendon House, 2 Church Street, Hamilton, HM11",32.2936305,-64.7878683,11194.602659
657,STAPLES INC,"Five Hundred Staples Drive, Framingham, MA, 1702",42.2913222,-71.48889539999999,10468.993526
658,PLUM CREEK TIMBER CO INC,"601 Union Street, Suite 3100, Seattle, WA, 98101",47.610152,-122.332363,10231.949164
659,SYMANTEC CORP,"350 Ellis Street, Mountain View, CA, 94043",37.397614,-122.0539239,11333.850496
660,ABBVIE INC,"1 North Waukegan Road, North Chicago, IL, 60064",42.3021242,-87.89157259999999,10884.015262
661,COGNEX CORP,"One Vision Drive, Natick, MA, 1760",42.3022641,-71.3557809,10463.409591
662,PEOPLE'S UNITED FINL INC,"850 Main Street, Bridgeport, CT, 6604",41.1763128,-73.18787750000001,10638.791915
663,ENANTA PHARMACEUTICALS INC,"500 Arsenal Street, Watertown, MA, 2472",42.36391260000001,-71.160262,10450.564233
664,CIRRUS LOGIC INC,"800 West 6th Street, Austin, TX, 78701",30.2708146,-97.7506641,12327.732561
665,RUCKUS WIRELESS INC,"350 West Java Drive, Sunnyvale, CA, 94089",37.4112751,-122.0191908,11333.183747
666,NEOGEN CORP,"620 Lesher Place, Lansing, MI, 48912",42.7400148,-84.5390101,10774.47404
667,HANGER INC,"10910 Domain Drive, Suite 300, Austin, TX, 78758",30.3954441,-97.7269882,12313.783894
668,EOG RESOURCES INC,"1111 Bagby, Sky Lobby 2, Houston, TX, 77002",29.7587886,-95.37080189999999,12362.975703
669,BOISE CASCADE CO,"1111 West Jefferson Street, Suite 300, Boise, ID, 83702",43.6197012,-116.2059158,10768.890077
670,CENTRAL PACIFIC FINANCIAL CP,"220 South King Street, Honolulu, HI, 96813",21.3078264,-157.8605414,11236.070443
671,DIGI INTERNATIONAL INC,"11001 Bren Road East, Minnetonka, MN, 55343",44.8986035,-93.4164363,10674.153793
672,ELECTRONIC ARTS INC,"209 Redwood Shores Parkway, Redwood City, CA, 94065",37.5227848,-122.2547798,11315.804304
673,CITY HOLDING CO,"25 Gatewater Road, Charleston, WV, 25313",38.415868,-81.7930949,11175.386774
674,COMMUNITY BANK SYSTEM INC,"5790 Widewaters Parkway, Dewitt, NY, 13214",43.0485289,-76.059044,10533.593702
675,FIRST BANCORP P R,"First Federal Building, 1519 Ponce de Leon Avenue, Santurce, PR, 908",18.445085,-66.066467,12590.637617
676,GLACIER BANCORP INC,"49 Commons Loop, Kalispell, MT, 59901",48.2199615,-114.3283108,10288.925097
677,INDEPENDENT BANK CORP/MA,"288 Union Street, Rockland, MA, 2370",42.1300527,-70.9159943,10465.928523
678,OFG BANCORP,"Oriental Center, 254 Munoz Rivera Avenue, San Juan, PR, 918",18.4253694,-66.0591404,12592.125746
679,MERCURY GENERAL CORP,"4484 Wilshire Boulevard, Los Angeles, CA, 90010",34.0615725,-118.3270632,11773.216218
680,NATIONAL PENN BANCSHARES INC,"645 Hamilton Street, Suite 1100, Allentown, PA, 18101",40.602447,-75.47141789999999,10769.953345
681,NAVIGATORS GROUP INC,"400 Atlantic Street, Stamford, CT, 6901",41.0504634,-73.53885629999999,10663.058022
682,OLD NATIONAL BANCORP,"One Main Street, Evansville, IN, 47708",37.969456,-87.57455499999999,11349.069402
683,SELECTIVE INS GROUP INC,"40 Wantage Avenue, Branchville, NJ, 7890",41.152243,-74.74465099999999,10690.73773
684,SVB FINANCIAL GROUP,"3003 Tasman Drive, Santa Clara, CA, 95054",37.4042585,-121.982235,11334.782969
685,WASHINGTON FEDERAL INC,"425 Pike Street, Seattle, WA, 98101",47.6104369,-122.3356121,10231.855543
686,WEBSTER FINANCIAL CORP,"Webster Plaza, Waterbury, CT, 6702",41.5537509,-72.98956919999999,10593.720292
687,FIRST FINL BANCORP INC/OH,"255 East Fifth Street, Suite 700, Cincinnati, OH, 45202",39.1016183,-84.50837159999999,11165.209117
688,KINDRED HEALTHCARE INC,"680 South Fourth Street, Louisville, KY, 40202",38.2470285,-85.75969529999999,11283.616618
689,TOMPKINS FINANCIAL CORP,"The Commons, PO Box 460, Ithaca, NY, 14851",42.4405525,-76.4979395,10609.441124
690,TRUSTCO BANK CORP/NY,"5 Sarnowski Drive, Glenville, NY, 12302",42.835745,-73.9337932,10492.189712
691,UNITED BANKSHARES INC/WV,"300 United Center, 500 Virginia Street, East, Charleston, WV, 25301",38.3518438,-81.6366438,11178.283759
692,UNITED FIRE GROUP INC,"118 Second Avenue SE, Cedar Rapids, IA, 52401",41.9778339,-91.6684014,10975.316302
694,CST BRANDS INC,"Building D, Suite 200, One Valero Way, San Antonio, TX, 78249",29.5860851,-98.60540619999999,12409.177062
695,FIRST NBC BANK HOLDING CO,"210 Baronne Street, New Orleans, LA, 70112",29.9528491,-90.07164739999999,12266.243853
696,NEWS CORP,"1211 Avenue of the Americas, New York, NY, 10036",40.758464,-73.98180599999999,10707.264323
697,F N B CORP/FL,"One North Shore Center, 12 Federal Street, Pittsburgh, PA, 15212",40.4473827,-80.0036136,10914.387125
698,MALLINCKRODT PLC,"Perth House, Millennium Way, Chesterfield, S41 8ND",53.2642615,-1.4395722,5953.397653
699,ANI PHARMACEUTICALS INC,"210 Main Street West, Baudette, MN, 56623",48.713802,-94.614299,10264.244979
700,FIRST COMMONWLTH FINL CP/PA,"601 Philadelphia Street, Indiana, PA, 15701",40.6232181,-79.15128159999999,10873.351613
701,MURPHY USA INC,"422 North Washington, El Dorado, AR, 71730",33.2148566,-92.6641499,11950.113507
702,SCIENCE APPLICATIONS INTL CP,"1710 SAIC Drive, McLean, VA, 22102",38.922607,-77.2340229,10997.622167
703,PTC INC,"140 Kendrick Street, Needham, MA, 2494",42.2952787,-71.2145927,10459.354075
704,N B T BANCORP INC,"52 South Broad Street, Norwich, NY, 13815",42.5289388,-75.52412149999999,10571.94266
705,INOGEN INC,"326 Bollay Drive, Goleta, CA, 93117",34.4276727,-119.8672596,11701.872235
706,SIMMONS FIRST NATL CP  -CL A,"501 Main Street, Pine Bluff, AR, 71601",34.224569,-92.00306549999999,11830.214157
707,G-III APPAREL GROUP LTD,"512 Seventh Avenue, New York, NY, 10018",40.7534496,-73.9893388,10708.020583
708,INSTALLED BLDG PRODUCTS INC,"495 South High Street, Suite 50, Columbus, OH, 43215",39.9523897,-82.9992899,11040.340975
709,ONE GAS INC,"15 East Fifth Street, Tulsa, OK, 74103",36.1522832,-95.9894545,11663.711099
710,KNOWLES CORP,"1151 Maplewood Drive, Itasca, IL, 60143",41.969584,-88.030379,10922.51309
711,S & T BANCORP INC,"800 Philadelphia Street, Indiana, PA, 15701",40.6226794,-79.1551178,10873.511093
712,TIME INC,"225 Liberty Street, New York, NY, 10281",40.7125,-74.015278,10713.059029
713,CARETRUST REIT INC,"905 Calle Amanecer, Suite 300, San Clemente, CA, 92673",33.4485286,-117.6077043,11853.655853
714,VERITIV CORP,"6600 Governors Lake Parkway, Norcross, GA, 30071",33.9321515,-84.2500201,11714.187779
715,TIMKENSTEEL CORP,"1835 Dueber Avenue, SW, Canton, OH, 44706",40.7783476,-81.3956564,10914.31682
716,CVB FINANCIAL CORP,"701 North Haven Avenue, Suite 350, Ontario, CA, 91764",34.0712811,-117.5766105,11786.625623
717,PHIBRO ANIMAL HEALTH CORP,"Glenpointe Centre East, 3rd Floor, Suite 21, 300 Frank West Burr Boulevard, Teaneck, NJ, 7666",40.872814,-74.005149,10696.256319
718,SCOTTS MIRACLE-GRO CO,"14111 Scottslawn Road, Marysville, OH, 43041",40.2118364,-83.3093051,11019.625152
719,ICONIX BRAND GROUP INC,"1450 Broadway, New York, NY, 10018",40.75468559999999,-73.9863546,10707.798121
720,CATALENT INC,"14 Schoolhouse Road, Somerset, NJ, 8873",40.5278363,-74.5475443,10748.969068
721,KEYSIGHT TECHNOLOGIES INC,"1400 Fountaingrove Parkway, Santa Rosa, CA, 95403",38.478888,-122.709223,11202.902176
722,NOW INC,"7402 North Eldridge Parkway, Houston, TX, 77041",29.8857462,-95.6065378,12351.448945
723,WP GLIMCHER INC,"7315 Wisconsin Avenue, Suite A, A 500-E, Bethesda, MD, 20814",38.9826881,-77.0928692,10987.168593
725,SLM CORP,"300 Continental Drive, Newark, DE, 19713",39.6839241,-75.6610839,10870.914532
726,RAYONIER ADVANCED MATERIALS,"1301 Riverplace Boulevard, Suite 2300, Jacksonville, FL, 32207",30.31925859999999,-81.65607419999999,12031.142408
727,CABOT OIL & GAS CORP,"Three Memorial City Plaza, 840 Gessner Road, Suite 1400, Houston, TX, 77024",29.7776626,-95.5426161,12362.700924
728,DENBURY RESOURCES INC,"5320 Legacy Drive, Plano, TX, 75024",33.07424580000001,-96.8079829,12010.643096
729,ADEPTUS HEALTH INC,"2941 Lake Vista Drive, Lewisville, TX, 75067",32.9909176,-96.96377849999999,12021.107069
730,SYNCHRONY FINANCIAL,"777 Long Ridge Road, Stamford, CT, 6902",41.0973183,-73.5617133,10658.989435
731,TESCO CORP,"3993 West Sam Houston Parkway North, Suite 100, Houston, TX, 77043",29.8268588,-95.5647765,12357.508701
732,CISCO SYSTEMS INC,"170 West Tasman Drive, San Jose, CA, 95134",37.4083615,-121.9541545,11334.98565
733,HEALTHEQUITY INC,"15 West Scenic Pointe Drive, Suite 100, Draper, UT, 84020",40.4806513,-111.8916329,11167.358797
734,HOLOGIC INC,"250 Campus Drive, Marlborough, MA, 1752",42.3249512,-71.58324429999999,10468.740585
735,TETRA TECHNOLOGIES INC/DE,"24955 Interstate 45 North, The Woodlands, TX, 77380",30.1241436,-95.44350519999999,12323.484422
736,VICOR CORP,"25 Frontage Road, Andover, MA, 1810",42.6288754,-71.18040599999999,10424.403455
737,HALYARD HEALTH INC,"5405 Windward Parkway, Suite 100 South, Alpharetta, GA, 30004",34.086981,-84.272542,11698.13168
738,GRANITE CONSTRUCTION INC,"585 West Beach Street, Watsonville, CA, 95076",36.905154,-121.766138,11393.248837
739,CALIFORNIA RESOURCES CORP,"10889 Wilshire Boulevard, Los Angeles, CA, 90024",34.0592649,-118.4431252,11771.166983
740,LANDSTAR SYSTEM INC,"13410 Sutton Park Drive South, Jacksonville, FL, 32224",30.255065,-81.4628323,12032.393359
741,B/E AEROSPACE INC,"1400 Corporate Center Way, Wellington, FL, 33414",26.6611475,-80.2645829,12374.633639
742,KEMPER CORP/DE,"One East Wacker Drive, Chicago, IL, 60601",41.8864417,-87.6275282,10924.70633
743,AAON INC,"2425 South Yukon Avenue, Tulsa, OK, 74107",36.1308841,-96.0148915,11666.297084
744,MERIT MEDICAL SYSTEMS INC,"1600 West Merit Parkway, South Jordan, UT, 84095",40.571368,-111.935824,11156.901483
745,CONTANGO OIL & GAS CO,"717 Texas Avenue, Suite 2900, Houston, TX, 77002",29.7616891,-95.3642277,12362.586248
746,INTL BANCSHARES CORP,"1200 San Bernardo Avenue, Laredo, TX, 78042",27.5101027,-99.5041755,12643.907818
747,TRUEBLUE INC,"1015 A Street, Tacoma, WA, 98402",47.2538354,-122.436809,10268.17829
748,HCA HOLDINGS INC,"One Park Plaza, Nashville, TN, 37203",36.1537498,-86.8137613,11531.153221
749,XILINX INC,"2100 Logic Drive, San Jose, CA, 95124",37.2529087,-121.9363016,11352.061797
750,KLX INC,"1300 Corporate Center Way, Wellington, FL, 33414",26.6618038,-80.2648442,12374.573134
751,ARCTIC CAT INC,"505 Highway 169 North, Suite 1000, Plymouth, MN, 55441",44.9851409,-93.4034477,10664.485084
752,LANNETT CO INC,"13200 Townsend Road, Philadelphia, PA, 19154",40.109934,-74.9761565,10805.555949
753,VISTA OUTDOOR INC,"938 University Park Boulevard, Suite 200, Clearfield, UT, 84015",41.1008304,-111.9882278,11098.008225
754,BAXALTA INC,"One Baxter Parkway, Deerfield, IL, 60015",42.1594315,-87.87728100000001,10899.291265
755,CHEMOURS CO,"1007 Market Street, PO Box 2047, Wilmington, DE, 19899",39.74624319999999,-75.5479241,10860.964231
756,TRIMBLE NAVIGATION LTD,"935 Stewart Drive, Sunnyvale, CA, 94085",37.384933,-122.0055115,11336.321297
757,EXPONENT INC,"149 Commonwealth Drive, Menlo Park, CA, 94025",37.4812387,-122.1738067,11322.127565
758,COMMUNICATIONS SALES & LSNG,"Benton Building, Suite 300, 10802 Executive Center Drive, Little Rock, AR, 72211",34.7388352,-92.3974532,11779.284389
759,ENERGIZER HOLDINGS INC,"533 Maryville University, St. Louis, MO, 63141",38.6428059,-90.5080772,11324.696213
760,BENCHMARK ELECTRONICS INC,"3000 Technology Drive, Angleton, TX, 77515",29.2068847,-95.4347901,12424.462423
761,MATRIX SERVICE CO,"5100 East Skelly Drive, Suite 500, Tulsa, OK, 74135",36.0967361,-95.91902309999999,11669.22379
762,BARNES & NOBLE EDUCATION INC,"120 Mountain View Boulevard, Basking Ridge, NJ, 7920",40.641983,-74.58468069999999,10738.372506
763,ORBITAL ATK INC,"45101 Warp Drive, Dulles, VA, 20166",39.0122815,-77.43146899999999,10994.079365
764,ESCO TECHNOLOGIES INC,"9900A Clayton Road, St. Louis, MO, 63124",38.6368758,-90.3905535,11323.586249
765,CABLE ONE INC,"210 East Earll Drive, Phoenix, AZ, 85012",33.4841866,-112.070226,11935.681909
766,TOPBUILD CORP,"260 Jimmy Ann Drive, Daytona Beach, FL, 32114",29.199709,-81.065612,12132.248393
767,LUMENTUM HOLDINGS INC,"400 North McCarthy Boulevard, Milpitas, CA, 95035",37.4338871,-121.9215775,11332.992795
768,ETHAN ALLEN INTERIORS INC,"Ethan Allen Drive, Danbury, CT, 6811",41.3858851,-73.4819376,10626.829506
769,CATHAY GENERAL BANCORP,"777 North Broadway, Los Angeles, CA, 90012",34.0622589,-118.2387285,11774.880571
770,HAYNES INTERNATIONAL INC,"1020 West Park Avenue, PO Box 9013, Kokomo, IN, 46904",40.4819861,-86.14316319999999,11049.831417
771,SONIC CORP,"300 Johnny Bench Drive, Oklahoma City, OK, 73104",35.4638294,-97.50755009999999,11751.750691
772,COMMUNITY HEALTH SYSTEMS INC,"4000 Meridian Boulevard, Franklin, TN, 37067",35.9517599,-86.8106066,11552.94187
773,DORMAN PRODUCTS INC,"3400 East Walnut Street, Colmar, PA, 18915",40.2742641,-75.2480884,10797.043227
774,ATMEL CORP,"1600 Technology Drive, San Jose, CA, 95110",37.3643974,-121.9151765,11340.5905
775,PS BUSINESS PARKS,"701 Western Avenue, Suite 200, Glendale, CA, 91201",34.1664274,-118.2955073,11762.475237
776,AUTOZONE INC,"123 South Front Street, Memphis, TN, 38103",35.1420009,-90.0561333,11700.123021
777,REGENERON PHARMACEUTICALS,"777 Old Saw Mill River Road, Tarrytown, NY, 10591",41.07861260000001,-73.8234319,10669.30785
778,GANNETT CO INC,"7950 Jones Branch Drive, McLean, VA, 22107",38.9316133,-77.2192237,10996.244303
779,COLUMBIA PIPELINE GROUP INC,"5151 San Felipe Street, Suite 2500, Houston, TX, 77056",29.7497344,-95.46479819999999,12364.966118
780,EXTERRAN CORP,"4444 Brittmoore Road, Houston, TX, 77041",29.8359562,-95.5691741,12356.551528
781,UNITED STATES STEEL CORP,"600 Grant Street, Pittsburgh, PA, 15219",40.4414139,-79.99470819999999,10914.786805
782,HAEMONETICS CORP,"400 Wood Road, Braintree, MA, 2184",42.2152202,-71.04327669999999,10461.651742
783,PANERA BREAD CO,"3630 South Geyer Road, Suite 100, St. Louis, MO, 63127",38.553627,-90.41435899999999,11333.046733
784,FIRST CASH FINANCIAL SVCS,"690 East Lamar Boulevard, Suite 400, Arlington, TX, 76011",32.7638509,-97.1012075,12047.28453
785,IDEXX LABS INC,"One IDEXX Drive, Westbrook, ME, 4092",43.6616946,-70.3735961,10292.778124
786,AES CORP,"4300 Wilson Boulevard, 11th Floor, Arlington, VA, 22203",38.879629,-77.1126498,10998.504148
787,CORVEL CORP,"2010 Main Street, Suite 600, Irvine, CA, 92614",33.6843249,-117.8514732,11823.396108
788,HANCOCK HOLDING CO,"One Hancock Plaza, 2510 14th Street, Gulfport, MS, 39501",30.368598,-89.093577,12203.00632
789,DINEEQUITY INC,"450 North Brand Boulevard, Glendale, CA, 91203",34.1526168,-118.2544969,11764.777555
790,KAISER ALUMINUM CORP,"27422 Portola Parkway, Suite 200, Foothill Ranch, CA, 92610",33.6706719,-117.6541377,11828.656286
791,MONSTER BEVERAGE CORP,"1 Monster Way, Corona, CA, 92879",33.8866879,-117.5132312,11807.86427
792,XL GROUP PLC,"XL House, 8 St. Stephen's Green, Dublin, 2",53.3398762,-6.2596886,6252.797553
793,VERTEX PHARMACEUTICALS INC,"50 Northern Avenue, Boston, MA, 2210",42.3534302,-71.0462,10447.761659
794,MONRO MUFFLER BRAKE INC,"200 Holleder Parkway, Rochester, NY, 14615",43.1895102,-77.6573689,10563.515096
795,PROGRESS SOFTWARE CORP,"14 Oak Park Drive, Bedford, MA, 1730",42.5134122,-71.2512267,10438.486061
796,HEALTHWAYS INC,"701 Cool Springs Boulevard, Franklin, TN, 37067",35.9451512,-86.8081066,11553.606606
797,ZEBRA TECHNOLOGIES CP  -CL A,"3 Overlook Point, Lincolnshire, IL, 60069",42.187545,-87.93350900000002,10897.180613
798,EZCORP INC  -CL A,"1901 Capital Parkway, Austin, TX, 78746",30.2599273,-97.7980079,12329.277956
799,PROASSURANCE CORP,"100 Brookwood Place, Birmingham, AL, 35209",33.4660327,-86.773774,11820.940833
800,BIOGEN INC,"225 Binney Street, Cambridge, MA, 2142",42.3662897,-71.0857637,10447.801466
801,VCA INC,"12401 West Olympic Boulevard, Los Angeles, CA, 90064",34.0319971,-118.4585662,11773.813337
802,SPX FLOW INC,"13320 Ballantyne Corporate Place, Charlotte, NC, 28277",35.0607938,-80.8458228,11506.612323
803,PAYPAL HOLDINGS INC,"2211 North First Street, San Jose, CA, 95131",37.3768507,-121.9227332,11339.082515
804,OLD DOMINION FREIGHT,"500 Old Dominion Way, Thomasville, NC, 27360",35.90898,-80.0587312,11395.205474
805,HORACE MANN EDUCATORS CORP,"1 Horace Mann Plaza, Springfield, IL, 62715",39.8022923,-89.6449482,11184.837255
806,ATLANTIC TELE-NETWORK INC,"600 Cummings Center, Beverly, MA, 1915",42.5616505,-70.8884814,10421.339709
807,WORLD ACCEPTANCE CORP/DE,"108 Frederick Street, Greenville, SC, 29607",34.8388713,-82.3676497,11570.624399
808,KIMCO REALTY CORP,"3333 New Hyde Park Road, Suite 100, New Hyde Park, NY, 11042",40.7667154,-73.6929382,10697.138035
809,WISDOMTREE INVESTMENTS INC,"245 Park Avenue, 35th Floor, New York, NY, 10167",40.7546103,-73.9746622,10707.43189
810,PERRIGO CO PLC,"Treasury Building, Lower Grand Canal Street, Dublin, 2",53.33932009999999,-6.2401305,6251.607055
811,TETRA TECH INC,"3475 East Foothill Boulevard, Pasadena, CA, 91107",34.1506329,-118.0781576,11768.43308
812,QUALCOMM INC,"5775 Morehouse Drive, San Diego, CA, 92121",32.8960766,-117.1957846,11921.431101
813,CORP OFFICE PPTYS TR INC,"6711 Columbia Gateway Drive, Suite 300, Columbia, MD, 21046",39.1851183,-76.8062206,10957.525026
814,SPOK HOLDINGS INC,"6850 Versar Center, Suite 420, Springfield, VA, 22151",38.7943809,-77.1813171,11009.437169
815,GILEAD SCIENCES INC,"333 Lakeside Drive, Foster City, CA, 94404",37.5670009,-122.281649,11310.445944
816,ABAXIS INC,"3240 Whipple Road, Union City, CA, 94587",37.6029353,-122.079306,11311.261304
817,WHOLE FOODS MARKET INC,"550 Bowie Street, Austin, TX, 78703",30.2706347,-97.7528921,12327.768604
818,ROPER TECHNOLOGIES INC,"6901 Professional Parkway East, Suite 200, Sarasota, FL, 34240",27.3837107,-82.4317818,12364.364046
819,SYNOPSYS INC,"690 East Middlefield Road, Mountain View, CA, 94043",37.3951041,-122.0500808,11334.207837
820,CALLAWAY GOLF CO,"2180 Rutherford Road, Carlsbad, CA, 92008",33.1322376,-117.2816016,11894.164634
821,VIRTUS INVESTMENT PTNRS INC,"100 Pearl Street, 9th Floor, Hartford, CT, 6103",41.7664317,-72.6749773,10561.723873
822,TIME WARNER INC,"One Time Warner Center, New York, NY, 10019",40.7685068,-73.9831349,10706.274645
823,ICU MEDICAL INC,"951 Calle Amanecer, San Clemente, CA, 92673",33.4513733,-117.602684,11853.442579
824,MOHAWK INDUSTRIES INC,"160 South Industrial Boulevard, Calhoun, GA, 30701",34.4724813,-84.9434654,11672.400411
825,PRAXAIR INC,"39 Old Ridgebury Road, Danbury, CT, 6810",41.3830288,-73.5310684,10628.700144
826,KOPIN CORP,"125 North Drive, Westborough, MA, 1581",42.2888796,-71.6308659,10473.995269
827,AGCO CORP,"4205 River Green Parkway, Duluth, GA, 30096",34.0173639,-84.164369,11703.009873
828,STEIN MART INC,"1200 Riverplace Boulevard, Jacksonville, FL, 32207",30.3181065,-81.65834219999999,12031.329109
829,BUCKLE INC,"2407 West 24th Street, Kearney, NE, 68845",40.7003878,-99.11275959999999,11180.860309
830,BOSTON SCIENTIFIC CORP,"300 Boston Scientific Way, Marlborough, MA, 1752",42.3611457,-71.5615488,10464.340526
831,KOHL'S CORP,"N56 W17000 Ridgewood Drive, Menomonee Falls, WI, 53051",43.121978,-88.12319,10798.656752
832,STERIS PLC,"Chancery House, 190 Waterside Road, Hamilton Industrial Park, Leicester, LE5 1QZ",52.6644163,-1.0773244,5951.320102
833,U S PHYSICAL THERAPY INC,"1300 West Sam Houston Parkway South, Suite 300, Houston, TX, 77042",29.7482437,-95.55898250000001,12366.11296
834,BED BATH & BEYOND INC,"650 Liberty Avenue, Union, NJ, 7083",40.6975106,-74.3046712,10723.813
835,D R HORTON INC,"301 Commerce Street, Suite 500, Fort Worth, TX, 76102",32.7558932,-97.3305171,12049.922331
836,EXPRESS SCRIPTS HOLDING CO,"One Express Way, St. Louis, MO, 63121",38.7182901,-90.3106186,11313.480558
837,FINISH LINE INC  -CL A,"3308 North Mitthoeffer Road, Indianapolis, IN, 46235",39.8158845,-85.9942026,11118.923728
838,COLUMBIA BANKING SYSTEM INC,"1301 A Street, Tacoma, WA, 98402",47.2511434,-122.4361754,10268.479774
839,GENERAL CABLE CORP/DE,"4 Tesseneer Drive, Highland Heights, KY, 41076",39.0431862,-84.462464,11170.495559
840,STARBUCKS CORP,"2401 Utah Avenue South, Seattle, WA, 98134",47.5810087,-122.3357381,10235.014234
841,SUPERIOR ENERGY SERVICES INC,"1001 Louisiana Street, Suite 2900, Houston, TX, 77002",29.7578183,-95.3673755,12363.04619
842,CENTRAL GARDEN & PET CO,"1340 Treat Boulevard, Suite 600, Walnut Creek, CA, 94597",37.9256275,-122.0580874,11277.156561
843,ENCORE WIRE CORP,"1329 Millwood Road, Mckinney, TX, 75069",33.183828,-96.6014469,11996.824836
844,CARE CAPITAL PPTYS INC,"353 North Clark Street, Suite 2900, Chicago, IL, 60654",41.8889439,-87.63046849999999,10924.4851
845,OMEGA HEALTHCARE INVS INC,"200 International Circle, Suite 3500, Hunt Valley, MD, 21030",39.49722,-76.6618915,10920.710342
846,LTC PROPERTIES INC,"2829 Townsgate Road, Suite 350, Westlake Village, CA, 91361",34.1542794,-118.8232066,11753.240547
847,CHEESECAKE FACTORY INC,"26901 Malibu Hills Road, Calabasas Hills, CA, 91301",34.1370289,-118.7112899,11757.37409
848,LITTELFUSE INC,"8755 West Higgins Road, Suite 500, Chicago, IL, 60631",41.9864821,-87.8452295,10917.553971
849,ON ASSIGNMENT INC,"26745 Malibu Hills Road, Calabasas, CA, 91301",34.1383518,-118.7062248,11757.33314
850,ELECTRONICS FOR IMAGING INC,"6750 Dumbarton Circle, Fremont, CA, 94555",37.5465432,-122.0614203,11317.715755
851,MINERALS TECHNOLOGIES INC,"622 Third Avenue, 38th Floor, New York, NY, 10017",40.7497769,-73.97570259999999,10707.961916
852,PATTERSON COMPANIES INC,"1031 Mendota Heights Road, St. Paul, MN, 55120",44.8668844,-93.1429909,10674.810144
853,LIGAND PHARMACEUTICAL INC,"11119 North Torrey Pines Road, Suite 200, La Jolla, CA, 92037",32.9079964,-117.2426821,11919.25811
854,TAUBMAN CENTERS INC,"200 East Long Lake Road, Suite 300, Bloomfield Hills, MI, 48304",42.5834305,-83.2374684,10764.007098
855,CHART INDUSTRIES INC,"One Infinity Corporate Centre Drive, Suite 300, Garfield Heights, OH, 44125",41.4113215,-81.6118302,10852.185912
856,BLACK BOX CORP,"1000 Park Drive, Lawrence, PA, 15055",40.3099398,-80.13430079999999,10932.308699
857,SM ENERGY CO,"1775 Sherman Street, Suite 1200, Denver, CO, 80203",39.7445109,-104.9851612,11293.197641
858,UNIVERSAL INSURANCE HLDGS,"1110 West Commercial Boulevard, Suite 100, Fort Lauderdale, FL, 33309",26.1863495,-80.15881929999999,12421.027411
859,SEACOR HOLDINGS INC,"2200 Eller Drive, PO Box 13038, Fort Lauderdale, FL, 33316",26.0830109,-80.1155381,12430.456502
860,HMS HOLDINGS CORP,"5615 High Point Drive, Irving, TX, 75038",32.8885139,-96.97214799999999,12032.489366
861,GULFPORT ENERGY CORP,"14313 North May Avenue, Suite 100, Oklahoma City, OK, 73134",35.616118,-97.5678379,11735.319643
862,HEWLETT PACKARD ENTERPRISE,"3000 Hanover Street, Palo Alto, CA, 94304",37.4146379,-122.145929,11329.906908
863,CSRA INC,"3170 Fairview Park Drive, Falls Church, VA, 22042",38.8604305,-77.21437829999999,11003.527839
864,FOUR CORNERS PROPERTY TR INC,"591 Redwood Hwy, Mill Valley, CA, 94941",37.8890238,-122.5183952,11270.465267
865,DDR CORP,"3300 Enterprise Parkway, Beachwood, OH, 44122",41.4677134,-81.49530639999999,10843.399164
866,CHESAPEAKE ENERGY CORP,"6100 North Western Avenue, Oklahoma City, OK, 73118",35.5346475,-97.5289018,11744.064528
867,CREE INC,"4600 Silicon Drive, Durham, NC, 27703",35.8994783,-78.8423838,11361.391107
868,LIVANOVA PLC,"5 Merchant Square, North Wharf Road, London, W2 1AY",51.5188962,-0.173369,5933.16168
869,CRYOLIFE INC,"1655 Roberts Boulevard NW, Kennesaw, GA, 30144",34.0032301,-84.59442779999999,11714.712015
870,UNIVERSAL ELECTRONICS INC,"201 East Sandpointe Avenue, 8th Floor, Santa Ana, CA, 92707",33.69800830000001,-117.8664389,11821.623076
871,ALLERGAN PLC,"Clonshaugh Business and Technology Park, Coolock, Dublin, D17 E400",53.4005042,-6.2230053,6248.066009
872,HUMANA INC,"500 West Main Street, Louisville, KY, 40202",38.2563673,-85.7585738,11282.585857
873,INTUIT INC,"2700 Coast Avenue, Mountain View, CA, 94043",37.4306146,-122.0960646,11329.34437
874,MICROCHIP TECHNOLOGY INC,"2355 West Chandler Boulevard, Chandler, AZ, 85224",33.3043905,-111.8821676,11957.690348
875,JARDEN CORP,"1800 North Military Trail, Boca Raton, FL, 33431",26.3625235,-80.1213345,12401.347485
876,CHICOS FAS INC,"11215 Metro Parkway, Fort Myers, FL, 33966",26.57936,-81.84992749999999,12432.366649
877,CHUBB LTD,"Barengasse 32, Zurich, 8001",47.3694189,8.5360915,5470.238244
878,FOSSIL GROUP INC,"901 South Central Expressway, Richardson, TX, 75080",32.9382263,-96.74492149999999,12025.151727
879,GENERAL GROWTH PPTYS INC,"110 North Wacker Drive, Chicago, IL, 60606",41.8834097,-87.63737739999999,10925.205377
880,SANMINA CORP,"2700 North First Street, San Jose, CA, 95134",37.3900362,-121.9295653,11337.512572
881,APTARGROUP INC,"475 West Terra Cotta Avenue, Suite E, Crystal Lake, IL, 60014",42.24719520000001,-88.3399852,10897.425046
882,O'REILLY AUTOMOTIVE INC,"233 South Patterson Avenue, Springfield, MO, 65802",37.20765919999999,-93.2492485,11518.955039
883,ROYAL CARIBBEAN CRUISES LTD,"1050 Caribbean Way, Miami, 33132",25.7752306,-80.1783085,12464.750984
884,POLYONE CORP,"33587 Walker Road, Avon Lake, OH, 44012",41.493322,-82.052849,10853.859828
885,JABIL CIRCUIT INC,"10560 Dr. Martin Luther King, Jr. Street North, St. Petersburg, FL, 33716",27.8687571,-82.6484117,12319.121846
886,ANIKA THERAPEUTICS INC,"32 Wiggins Avenue, Bedford, MA, 1730",42.4803294,-71.2663544,10442.348028
887,REINSURANCE GROUP AMER INC,"16600 Swingley Ridge Road, Chesterfield, MO, 63017",38.661306,-90.56653,11323.541073
888,TITAN INTERNATIONAL INC,"2701 Spruce Street, Quincy, IL, 62301",39.9474329,-91.37161499999999,11194.123383
889,ELLIS PERRY INTL INC,"3000 NW 107th Avenue, Miami, FL, 33172",25.8015681,-80.37006939999999,12468.200969
890,HEALTHCARE REALTY TRUST INC,"3310 West End Avenue, Suite 700, Nashville, TN, 37203",36.1409566,-86.81850229999999,11532.632095
891,ACADIA REALTY TRUST,"411 Theodore Fremd Avenue, Suite 300, Rye, NY, 10580",40.9735865,-73.70061679999999,10676.154249
892,TRANSOCEAN LTD,"10 Chemin de Blandonnet, Vernier, 1214",46.2212021,6.0974721,5686.446599
893,TANGER FACTORY OUTLET CTRS,"3200 Northline Avenue, Suite 360, Greensboro, NC, 27408",36.0882736,-79.8347077,11370.018825
894,FLOTEK INDUSTRIES INC,"10603 West Sam Houston Parkway North, Suite 300, Houston, TX, 77064",29.9197877,-95.55738,12347.190208
895,ALLSTATE CORP,"2775 Sanders Road, Northbrook, IL, 60062",42.1009833,-87.8704727,10905.531731
896,PAPA JOHNS INTERNATIONAL INC,"2002 Papa Johns Boulevard, Louisville, KY, 40299",38.2125113,-85.5317798,11282.634143
897,GENTHERM INC,"21680 Haggerty Road, Suite 101, Northville, MI, 48167",42.4480598,-83.4330564,10782.740237
898,FLIR SYSTEMS INC,"27700 SW Parkway Avenue, Wilsonville, OR, 97070",45.31977879999999,-122.7646278,10469.065
899,STONE ENERGY CORP,"625 East Kaliste Saloom Road, Lafayette, LA, 70508",30.1971523,-92.0053602,12271.423353
900,BRINKS CO,"1801 Bayberry Court, PO Box 18100, Richmond, VA, 23226",37.6078137,-77.53184519999999,11143.731108
901,POST PROPERTIES INC,"4401 Northside Parkway, Suite 800, Atlanta, GA, 30327",33.868009,-84.448933,11725.790915
902,CAMDEN PROPERTY TRUST,"11 Greenway Plaza, Suite 2400, Houston, TX, 77046",29.7321329,-95.43544329999999,12366.596845
903,MONARCH CASINO & RESORT INC,"3800 South Virginia Street, Reno, NV, 89502",39.4889071,-119.7936863,11156.91056
904,EQUITY RESIDENTIAL,"Two North Riverside Plaza, Chicago, IL, 60606",41.8825078,-87.6387652,10925.327265
905,BORGWARNER INC,"3850 Hamlin Road, Auburn Hills, MI, 48326",42.6458447,-83.2107925,10756.741899
906,SPARTANNASH CO,"850 76th Street, S.W., PO Box 8700, Grand Rapids, MI, 49518",42.825551,-85.684614,10787.735787
907,SAUL CENTERS INC,"7501 Wisconsin Avenue, Suite 1500, Bethesda, MD, 20814",38.9853692,-77.09354359999999,10986.909042
908,ARRIS INTERNATIONAL PLC,"3871 Lakefield Drive, Suwanee, GA, 30024",34.0646195,-84.1549726,11697.72241
909,KEURIG GREEN MOUNTAIN INC,"33 Coffee Lane, Waterbury, VT, 5676",44.3378203,-72.7562636,10301.564619
910,COLONIAL PROPERTIES TRUST,"569 Brookwood Village, Suite 851, Birmingham, AL, 35209",33.468403,-86.773185,11820.672361
911,BARNES & NOBLE INC,"122 Fifth Avenue, New York, NY, 10011",40.7382681,-73.99237049999999,10709.677902
912,MARRIOTT INTL INC,"10400 Fernwood Road, Bethesda, MD, 20817",39.0247171,-77.1382699,10984.132801
913,ULTRATECH INC,"3050 Zanker Road, San Jose, CA, 95134",37.3986597,-121.9303782,11336.56932
914,BELDEN INC,"1 North Brentwood Boulevard, 15th Floor, St. Louis, MO, 63105",38.6509306,-90.34167219999999,11321.313465
915,BOYD GAMING CORP,"3883 Howard Hughes Parkway, Ninth Floor, Las Vegas, NV, 89169",36.118724,-115.15801,11604.610746
916,DECKERS OUTDOOR CORP,"250 Coromar Drive, Goleta, CA, 93117",34.4287369,-119.8629881,11701.849296
917,COSTCO WHOLESALE CORP,"999 Lake Drive, Issaquah, WA, 98027",47.548675,-122.050648,10243.984932
918,LEXINGTON REALTY TRUST,"One Penn Plaza, Suite 4015, New York, NY, 10119",40.7511838,-73.9921394,10708.343014
919,REGENCY CENTERS CORP,"One Independent Drive, Suite 114, Jacksonville, FL, 32202",30.3258498,-81.65882280000001,12030.523089
920,FIRST FINL BANKSHARES INC,"400 Pine Street, Abilene, TX, 79601",32.4528753,-99.73315249999999,12097.708618
921,PATTERSON-UTI ENERGY INC,"450 Gears Road, Suite 500, Houston, TX, 77067",29.9464942,-95.4212426,12342.826922
922,INCYTE CORP,"1801 Augustine Cut-Off, Wilmington, DE, 19803",39.7625852,-75.5535578,10859.446277
923,GIBRALTAR INDUSTRIES INC,"3556 Lake Shore Road, PO Box 2028, Buffalo, NY, 14219",42.7921907,-78.8490336,10636.939343
924,ITRON INC,"2111 North Molter Road, Liberty Lake, WA, 99019",47.67524419999999,-117.09118,10313.154883
925,URBAN OUTFITTERS INC,"5000 South Broad Street, Philadelphia, PA, 19112",39.8891088,-75.1760903,10834.625198
926,UNIVERSAL FOREST PRODS INC,"2801 East Beltline Avenue, NE, Grand Rapids, MI, 49525",43.013889,-85.59169,10765.62119
927,ASSOCIATED ESTATES RLTY CORP,"1 AEC Parkway, Richmond Heights, OH, 44143",41.5695382,-81.4931112,10832.512386
928,NEWFIELD EXPLORATION CO,"4 Waterway Square Place, Suite 100, The Woodlands, TX, 77380",30.1602387,-95.4564448,12319.64193
929,FORWARD AIR CORP,"430 Airport Road, Greeneville, TN, 37745",36.1929071,-82.8111778,11437.492609
930,BOSTON PRIVATE FINL HOLDINGS,"Ten Post Office Square, Boston, MA, 2109",42.357535,-71.055815,10447.672359
931,VIAVI SOLUTIONS INC,"430 North McCarthy Boulevard, Milpitas, CA, 95035",37.4334522,-121.9207774,11333.057689
933,ASTORIA FINANCIAL CORP,"One Astoria Bank Plaza, Lake Success, NY, 11042",40.7577475,-73.70896359999999,10698.575307
934,NEW YORK CMNTY BANCORP INC,"615 Merrick Avenue, Westbury, NY, 11590",40.7389103,-73.584533,10696.486628
935,MADDEN STEVEN LTD,"52-16 Barnett Avenue, Long Island City, NY, 11104",40.7499158,-73.91114569999999,10705.880317
936,SIMON PROPERTY GROUP INC,"225 West Washington Street, Indianapolis, IN, 46204",39.7668367,-86.16231739999999,11127.52279
937,EASTMAN CHEMICAL CO,"200 South Wilcox Drive, Kingsport, TN, 37662",36.5354128,-82.5508778,11394.516964
938,MEDIFAST INC,"11445 Cronhill Drive, Owings Mills, MD, 21117",39.4396387,-76.7731032,10930.027555
939,HAIN CELESTIAL GROUP INC,"1111 Marcus Avenue, Lake Success, NY, 11042",40.7549295,-73.7007308,10698.598956
940,CELADON GROUP INC,"9503 East 33rd Street, Indianapolis, IN, 46235",39.816731,-85.99766009999999,11118.900379
941,MID-AMERICA APT CMNTYS INC,"6584 Poplar Avenue, Memphis, TN, 38138",35.0994042,-89.8431514,11701.254767
942,DAKTRONICS INC,"201 Daktronics Drive, Brookings, SD, 57006",44.307157,-96.7565924,10767.879407
943,HEALTH NET INC,"21650 Oxnard Street, Woodland Hills, CA, 91367",34.1787318,-118.6010616,11755.076582
944,DSP GROUP INC,"161 South San Antonio Road, Suite 10, Los Altos, CA, 94022",37.38034469999999,-122.1136996,11334.325055
945,MARTIN MARIETTA MATERIALS,"2710 Wycliff Road, Raleigh, NC, 27607-3033",35.8201608,-78.6901288,11365.234772
946,MOBILE MINI INC,"4646 East Van Buren Street, Suite 400, Phoenix, AZ, 85008",33.4518951,-111.984813,11940.251011
947,TRACTOR SUPPLY CO,"5401 Virginia Way, Brentwood, TN, 37027",36.0324501,-86.8130118,11544.261016
948,ALBEMARLE CORP,"451 Florida Street, Baton Rouge, LA, 70801",30.4496129,-91.1864939,12230.985304
949,QLOGIC CORP,"26650 Aliso Viejo Parkway, Aliso Viejo, CA, 92656",33.575428,-117.72937,11837.558325
950,INVESCO LTD,"Two Peachtree Pointe, 1555 Peachtree Street, North East, Suite 1800, Atlanta, 30309",33.7984172,-84.3877999,11731.803168
951,WESTROCK CO,"501 South 5th Street, Richmond, VA, 23219",37.5362715,-77.4416911,11148.496437
952,MACERICH CO,"401 Wilshire Boulevard, Suite 700, Santa Monica, CA, 90401",34.0198125,-118.4985762,11774.335328
953,OLYMPIC STEEL INC,"5096 Richmond Road, Bedford Heights, OH, 44146",41.4216122,-81.4999223,10848.414902
954,AVALONBAY COMMUNITIES INC,"Ballston Tower, 671 North Glebe Road, Suite 800, Arlington, VA, 22203",38.8786257,-77.1114515,10998.573132
955,TOWERS WATSON & CO,"901 North Glebe Road, Arlington, VA, 22203",38.8815164,-77.1151671,10998.382192
956,CIBER INC,"6312 S Fiddler's Green Circle, Suite 600 E, Greenwood Village, CO, 80111",39.6032897,-104.8933984,11309.086729
957,COPART INC,"14185 Dallas Parkway, Suite 300, Dallas, TX, 75254",32.9390113,-96.8226646,12025.703735
958,SCANSOURCE INC,"6 Logue Court, Greenville, SC, 29615",34.8554188,-82.2467808,11565.74319
959,MOTORCAR PARTS OF AMER INC,"2929 California Street, Torrance, CA, 90503",33.8419379,-118.3376944,11796.803796
960,AK STEEL HOLDING CORP,"9227 Centre Pointe Drive, West Chester, OH, 45069",39.3281175,-84.42941979999999,11139.157005
961,PROLOGIS INC,"Pier 1, Bay 1, San Francisco, CA, 94111",37.7973319,-122.3942501,11283.16916
962,EAGLE MATERIALS INC,"3811 Turtle Creek Boulevard, Suite 1100, Dallas, TX, 75219",32.8140807,-96.8006889,12039.325763
963,AGREE REALTY CORP,"70 East Long Lake Road, Bloomfield Hills, MI, 48304",42.583222,-83.242676,10764.142297
964,NEKTAR THERAPEUTICS,"455 Mission Bay Boulevard South, San Francisco, CA, 94158",37.7704274,-122.3887624,11286.177171
965,INVESTMENT TECHNOLOGY GP INC,"One Liberty Plaza, 165 Broadway, New York, NY, 10006",40.709808,-74.0107905,10713.192255
966,AMERIS BANCORP,"310 First Street, SE, Moultrie, GA, 31768",31.1764333,-83.78797349999999,11997.621475
967,SIMPSON MANUFACTURING INC,"5956 West Las Positas Boulevard, Pleasanton, CA, 94588",37.6826246,-121.8995146,11306.819619
968,ESSEX PROPERTY TRUST,"925 East Meadow Drive, Palo Alto, CA, 94303",37.4287126,-122.1077536,11329.27903
969,HIGHWOODS PROPERTIES INC,"3100 Smoketree Court, Suite 600, Raleigh, NC, 27604",35.818927,-78.6069251,11362.904761
970,LIBERTY PROPERTY TRUST,"Great Valley Corporate Center, 500 Chesterfield Parkway, Malvern, PA, 19355",40.0604656,-75.51247479999999,10827.333674
971,GREENBRIER COMPANIES INC,"One Centerpointe Drive, Suite 200, Lake Oswego, OR, 97035",45.42154050000001,-122.738859,10458.688301
972,MATTHEWS INTL CORP  -CL A,"Two NorthShore Center, Pittsburgh, PA, 15212",40.4476007,-80.0024093,10914.332808
973,APARTMENT INVST & MGMT CO,"4582 South Ulster Street, Suite 1100, Denver, CO, 80237",39.6331849,-104.898149,11305.757817
974,GEO GROUP INC,"One Park Place, Suite 700, 621 Northwest 53rd Street, Boca Raton, FL, 33487",26.3971008,-80.09514310000002,12396.876542
975,HOME PROPERTIES INC,"850 Clinton Square, Rochester, NY, 14604",43.1558773,-77.6058465,10565.639337
976,ADTRAN INC,"901 Explorer Boulevard, Huntsville, AL, 35806",34.7257637,-86.6804186,11682.859764
977,AMEDISYS INC,"5959 South Sherwood Forest Boulevard, Baton Rouge, LA, 70816",30.4007858,-91.0504299,12234.105333
978,MACK-CALI REALTY CORP,"343 Thornall Street, Edison, NJ, 8837",40.560655,-74.3357441,10738.887762
979,DARLING INGREDIENTS INC,"251 O'Connor Ridge Boulevard, Suite 300, Irving, TX, 75038",32.8674207,-96.9512184,12034.652906
980,SIRIUS XM HOLDINGS INC,"1221 Avenue of the Americas, 36th Floor, New York, NY, 10020",40.7594099,-73.98222,10707.180346
981,RELIANCE STEEL & ALUMINUM CO,"350 South Grand Avenue, Suite 5100, Los Angeles, CA, 90071",34.0514719,-118.2516573,11775.795815
982,REALTY INCOME CORP,"11995 El Camino Real, San Diego, CA, 92130",32.9375327,-117.2366546,11916.161771
983,KNIGHT TRANSPORTATION INC,"20002 North 19th Avenue, Phoenix, AZ, 85027",33.6677851,-112.1034337,11915.090627
984,NORTHWEST BANCSHARES INC,"100 Liberty Street, Warren, PA, 16365",41.84456,-79.146996,10744.554974
985,CAPITAL ONE FINANCIAL CORP,"1680 Capital One Drive, McLean, VA, 22102",38.9246474,-77.21315419999999,10996.791383
986,STILLWATER MINING CO,"26 West Dry Creek Circle, Suite 400, Littleton, CO, 80120",39.58026410000001,-104.9906157,11311.413372
987,NUTRISYSTEM INC,"Fort Washington Executive Center, 600 Office Center Drive, Fort Washington, PA, 19034",40.144402,-75.17597599999999,10808.232381
988,HANMI FINANCIAL CORP,"3660 Wilshire Boulevard, Penthouse Suite A, Los Angeles, CA, 90010",34.0612059,-118.3050067,11773.691001
989,INSIGHT ENTERPRISES INC,"6820 South Harl Avenue, Tempe, AZ, 85283",33.3583329,-111.9680852,11950.741845
990,RENT-A-CENTER INC,"5501 Headquarters Drive, Plano, TX, 75024",33.08516460000001,-96.81358039999999,12009.482452
991,BROOKS AUTOMATION INC,"15 Elizabeth Drive, Chelmsford, MA, 1824",42.5867377,-71.3229621,10433.463141
992,INTL FCSTONE INC,"708 Third Avenue, 15th Floor, Suite 1500, New York, NY, 10017",40.7524458,-73.97370529999999,10707.623729
993,ACI WORLDWIDE INC,"3520 Kraft Road, Suite 3000, Naples, FL, 34105",26.2093299,-81.7466602,12468.338271
994,DOLLAR TREE INC,"500 Volvo Parkway, Chesapeake, VA, 23320",36.7681471,-76.24261829999999,11191.38778
995,NATIONAL INSTRUMENTS CORP,"11500 North MoPac Expressway, Austin, TX, 78759",30.4083821,-97.7262444,12312.348301
996,MB FINANCIAL INC/MD,"800 West Madison Street, Chicago, IL, 60607",41.8819347,-87.6475602,10925.540895
997,HARMONIC INC,"4300 North First Street, San Jose, CA, 95134",37.4211359,-121.9610865,11333.457476
998,DARDEN RESTAURANTS INC,"1000 Darden Center Drive, Orlando, FL, 32837",28.4182605,-81.4253464,12225.439029
999,FEI CO,"5350 NE Dawson Creek Drive, Hillsboro, OR, 97124",45.5428834,-122.9294578,10441.737721
1000,RESMED INC,"9001 Spectrum Center Boulevard, San Diego, CA, 92123",32.8257199,-117.1335528,11930.238426
1001,CAMERON INTERNATIONAL CORP,"1333 West Loop South, Suite 1700, Houston, TX, 77027",29.7549365,-95.4545613,12364.285354
1002,DISH NETWORK CORP,"9601 South Meridian Boulevard, Englewood, CO, 80112",39.5457044,-104.8561335,11315.562753
1003,HAWAIIAN HOLDINGS INC,"3375 Koapaka Street, Suite G-350, Honolulu, HI, 96819",21.3357473,-157.9178975,11229.859014
1004,SOVRAN SELF STORAGE INC,"6467 Main Street, Williamsville, NY, 14221",42.9648461,-78.71251629999999,10615.199458
1005,WABTEC CORP,"1001 Air Brake Avenue, Wilmerding, PA, 15148",40.3943886,-79.8094533,10914.923215
1006,SUNEDISON INC,"13736 Riverport Drive, Maryland Heights, MO, 63043",38.7547875,-90.4666996,11311.832292
1007,ATLAS AIR WORLDWIDE HLDG INC,"2000 Westchester Avenue, Purchase, NY, 10577",41.0167558,-73.7111984,10672.063298
1008,INTEGRA LIFESCIENCES HLDGS,"311 Enterprise Drive, Plainsboro, NJ, 8536",40.3280772,-74.5849552,10770.73953
1009,HOSPITALITY PROPERTIES TRUST,"Two Newton Place, 255 Washington Street, Newton, MA, 2458",42.3578035,-71.18429689999999,10451.995666
1010,MEDNAX INC,"1301 Concord Terrace, Sunrise, FL, 33323",26.1339066,-80.34232089999999,12432.443593
1011,EVEREST RE GROUP LTD,"Seon Place, 4nd Floor, 141 Front Street, Hamilton, HM DX",32.2930807,-64.7784154,11194.220755
1012,RENAISSANCERE HOLDINGS LTD,"Renaissance House, 12 Crow Lane, Pembroke, HM 19",32.293436,-64.7761738,11194.083192
1013,HANOVER INSURANCE GROUP INC,"440 Lincoln Street, Worcester, MA, 1653",42.2926471,-71.7830993,10478.68869
1014,DIAMOND OFFSHRE DRILLING INC,"15415 Katy Freeway, Suite 100, Houston, TX, 77094",29.7841127,-95.6556135,12363.154562
1015,POOL CORP,"109 Northpark Boulevard, Covington, LA, 70433",30.44164719999999,-90.0873601,12213.262747
1016,DAVITA HEALTHCARE PARTNERS,"2000 16th Street, Denver, CO, 80202",39.7535072,-105.00415,11292.153419
1017,BANNER CORP,"10 South First Avenue, Walla Walla, WA, 99362",46.06653559999999,-118.3378654,10469.594295
1018,SCHEIN (HENRY) INC,"135 Duryea Road, Melville, NY, 11747",40.7677851,-73.4175607,10688.106698
1019,SANDISK CORP,"951 SanDisk Drive, Milpitas, CA, 95035",37.4188883,-121.9221553,11334.58797
1020,SCHWEITZER-MAUDUIT INTL INC,"100 North Point Center East, Suite 600, Alpharetta, GA, 30022-8246",34.0456623,-84.2990118,11703.189651
1021,LEXMARK INTL INC  -CL A,"One Lexmark Centre Drive, 740 West New Circle Road, Lexington, KY, 40550",38.0728015,-84.4911195,11275.400034
1022,ADVANCED ENERGY INDS INC,"1625 Sharp Point Drive, Fort Collins, CO, 80525",40.5658375,-105.0308111,11201.926001
1023,LAUDER (ESTEE) COS INC -CL A,"767 Fifth Avenue, New York, NY, 10153",40.7635861,-73.9723967,10706.436955
1024,WATERS CORP,"34 Maple Street, Milford, MA, 1757",42.136791,-71.4813247,10484.418913
1025,HEADWATERS INC,"10701 South River Front Parkway, Suite 300, South Jordan, UT, 84095",40.556642,-111.9111681,11158.781083
1026,BOSTON BEER INC  -CL A,"One Design Center Place, Suite 850, Boston, MA, 2210",42.34426879999999,-71.0305676,10448.158347
1027,NETAPP INC,"495 East Java Drive, Sunnyvale, CA, 94089",37.4112611,-122.0119022,11333.352417
1028,PAREXEL INTERNATIONAL CORP,"195 West Street, Waltham, MA, 2451",42.3923901,-71.27298259999999,10451.48413
1029,CITRIX SYSTEMS INC,"851 West Cypress Creek Road, Fort Lauderdale, FL, 33309",26.2039173,-80.1539354,12419.027818
1030,MSC INDUSTRIAL DIRECT  -CL A,"75 Maxess Road, Melville, NY, 11747",40.77709309999999,-73.4112069,10686.946169
1031,HARTFORD FINANCIAL SERVICES,"One Hartford Plaza, Hartford, CT, 6155",41.7696634,-72.6870864,10561.789892
1032,IMPAX LABORATORIES INC,"30831 Huntwood Avenue, Hayward, CA, 94544",37.6156295,-122.0554237,11310.448027
1033,SIZMEK INC,"500 West 5th Street, Suite 900, Austin, TX, 78701",30.2688431,-97.748206,12327.93266
1034,ALEXION PHARMACEUTICALS INC,"100 College Street, New Haven, CT, 6510",41.304215,-72.9317535,10617.350741
1035,CSG SYSTEMS INTL INC,"9555 Maroon Circle, Englewood, CO, 80112",39.5418548,-104.8577753,11315.986309
1036,IRON MOUNTAIN INC,"One Federal Street, Boston, MA, 2110",42.3561065,-71.05683359999999,10447.851516
1037,HUB GROUP INC  -CL A,"2000 Clearwater Drive, Oak Brook, IL, 60523",41.8506503,-87.930263,10933.763207
1038,CENTURY ALUMINUM CO,"One South Wacker Drive, Suite 1000, Chicago, IL, 60606",41.877458,-87.63596299999999,10925.827709
1039,YAHOO INC,"701 First Avenue, Sunnyvale, CA, 94089",37.4172771,-122.0251679,11332.403243
1040,DEAN FOODS CO,"2711 North Haskell Avenue, Suite 3400, Dallas, TX, 75204",32.8055394,-96.79236100000001,12040.20092
1041,CARBO CERAMICS INC,"Energy Center II, 575 North Dairy Ashford, Suite 300, Houston, TX, 77079",29.7861602,-95.6154818,12362.517337
1042,POLYCOM INC,"6001 America Center Drive, San Jose, CA, 95002",37.4175167,-121.9784588,11333.448021
1043,SYKES ENTERPRISES INC,"400 North Ashley Drive, Suite 2800, Tampa, FL, 33602",27.9475243,-82.46026959999999,12305.409169
1044,FTI CONSULTING INC,"1101 K Street NW, Washington, DC, 20005",38.902861,-77.0277527,10993.553163
1046,TUPPERWARE BRANDS CORP,"14901 South Orange Blossom Trail, Orlando, FL, 32837",28.3466496,-81.4021947,12232.31376
1047,SOUTHSIDE BANCSHARES INC,"1201 South Beckham Avenue, Tyler, TX, 75701",32.336145,-95.2920788,12078.119655
1048,AFFYMETRIX INC,"3420 Central Expressway, Santa Clara, CA, 95051",37.3749697,-121.9904979,11337.733604
1049,ANSYS INC,"Southpointe, 2600 ANSYS Drive, Canonsburg, PA, 15317",40.2718234,-80.166319,10937.168986
1050,GENESEE & WYOMING INC  -CL A,"20 West Avenue, Darien, CT, 6820",41.0777331,-73.470962,10658.069802
1051,DIME COMMUNITY BANCSHARES,"209 Havemeyer Street, Brooklyn, NY, 11211",40.7096551,-73.9585297,10711.535423
1052,FACTSET RESEARCH SYSTEMS INC,"601 Merritt 7, 3rd Floor, Norwalk, CT, 6851",41.1466963,-73.4265229,10649.564488
1053,STRAYER EDUCATION INC,"2303 Dulles Station Boulevard, Herndon, VA, 20171",38.95924369999999,-77.41470249999999,10999.12643
1054,TELETECH HOLDINGS INC,"9197 South Peoria Street, Englewood, CO, 80112",39.5491373,-104.8419049,11315.21369
1055,LAMAR ADVERTISING CO  -CL A,"5321 Corporate Boulevard, Baton Rouge, LA, 70808",30.4255441,-91.1347773,12232.776587
1056,GUESS INC,"1444 South Alameda Street, Los Angeles, CA, 90021",34.0241343,-118.2387483,11779.012369
1057,E TRADE FINANCIAL CORP,"1271 Avenue of the Americas, 14th Floor, New York, NY, 10020",40.7603857,-73.980766,10707.033557
1058,STERICYCLE INC,"28161 North Keith Drive, Lake Forest, IL, 60045",42.2716848,-87.90237839999999,10887.507109
1059,ABERCROMBIE & FITCH  -CL A,"6301 Fitch Path, New Albany, OH, 43054",40.090839,-82.77777999999999,11020.433059
1060,ENDO INTERNATIONAL PLC,"Minerva House, Simmonscourt Road, Ballsbridge, Dublin, 4",53.32530149999999,-6.226457799999999,6251.32755
1061,SPECTRUM PHARMACEUTICALS INC,"11500 South Eastern Avenue, Suite 240, Henderson, NV, 89052",35.982052,-115.099769,11620.44443
1062,ROFIN SINAR TECHNOLOGIES INC,"40984 Concept Drive, Plymouth, MI, 48170",42.3767546,-83.4385088,10790.502505
1063,NAVIGANT CONSULTING INC,"30 South Wacker Drive, Suite 3550, Chicago, IL, 60606",41.8808789,-87.6373976,10925.480711
1064,BJ'S RESTAURANTS INC,"7755 Center Avenue, Suite 300, Huntington Beach, CA, 92647",33.7349464,-117.9950726,11815.126353
1065,HIBBETT SPORTS INC,"2700 Milan Court, Birmingham, AL, 35211",33.4307767,-86.88709209999999,11827.118484
1066,WINTRUST FINANCIAL CORP,"9700 West Higgins Road, Suite 800, Rosemont, IL, 60018",41.9947978,-87.8695046,10917.061125
1067,STAGE STORES INC,"10201 Main Street, Houston, TX, 77025",29.6733809,-95.42804459999999,12372.992459
1068,TRIUMPH GROUP INC,"899 Cassatt Road, Suite 210, Berwyn, PA, 19312",40.0630789,-75.4591429,10825.418629
1069,NATIONAL OILWELL VARCO INC,"7909 Parkwood Circle Drive, Houston, TX, 77036",29.6916115,-95.5545889,12372.308732
1070,INGRAM MICRO INC,"1600 East St. Andrew Place, Santa Ana, CA, 92705",33.7218528,-117.8481765,11819.387948
1071,UNITED NATURAL FOODS INC,"313 Iron Horse Way, Providence, RI, 2908",41.828686,-71.4318448,10514.003132
1072,EPLUS INC,"13595 Dulles Technology Drive, Herndon, VA, 20171",38.9528571,-77.416496,10999.846147
1073,STEEL DYNAMICS INC,"7575 West Jefferson Boulevard, Fort Wayne, IN, 46804",41.04110499999999,-85.23742999999999,10971.603302
1074,FORRESTER RESEARCH INC,"60 Acorn Park Drive, Cambridge, MA, 2140",42.3982665,-71.14900589999999,10446.704073
1075,VIASAT INC,"6155 El Camino Real, Carlsbad, CA, 92009",33.12664,-117.2670287,11895.045588
1076,DELTIC TIMBER CORP,"210 East Elm Street, PO Box 7200, El Dorado, AR, 71731",33.2128321,-92.66240379999999,11950.311983
1077,MONSTER WORLDWIDE INC,"Building 15, 133 Boston Post Road, Weston, MA, 2493",42.3705458,-71.27502679999999,10453.767014
1078,QUEST DIAGNOSTICS INC,"3 Giralda Farms, Madison, NJ, 7940",40.77057629999999,-74.4387486,10720.526178
1079,LITHIA MOTORS INC  -CL A,"150 North Bartlett Street, Medford, OR, 97501",42.3286582,-122.8720949,10787.212908
1080,WILSHIRE BANCORP INC,"3200 Wilshire Boulevard, Los Angeles, CA, 90010",34.061458,-118.2919856,11773.920237
1081,DXP ENTERPRISES INC,"7272 Pinemont, Houston, TX, 77040",29.8418366,-95.50084629999999,12355.193886
1082,CAL-MAINE FOODS INC,"3320 Woodrow Wilson Avenue, Jackson, MS, 39209",32.326586,-90.2238067,12010.109843
1083,INSPERITY INC,"19001 Crescent Springs Drive, Kingwood, TX, 77339",30.0497309,-95.2499557,12329.631335
1084,KILROY REALTY CORP,"12200 West Olympic Boulevard, Suite 200, Los Angeles, CA, 90064",34.0316641,-118.4554446,11773.911553
1085,EPIQ SYSTEMS INC,"501 Kansas Avenue, Kansas City, KS, 66105",39.0869773,-94.62203520000001,11327.017983
1087,CIENA CORP,"7035 Ridge Road, Hanover, MD, 21076",39.1921521,-76.6999634,10953.608072
1088,SILGAN HOLDINGS INC,"4 Landmark Square, Suite 400, Stamford, CT, 6901",41.0547226,-73.5380168,10662.594147
1089,CARMAX INC,"12800 Tuckahoe Creek Parkway, Richmond, VA, 23238",37.640308,-77.6706647,11144.479179
1090,ROVI CORP,"2830 De La Cruz Boulevard, Santa Clara, CA, 95050",37.3710134,-121.9440225,11339.221835
1091,GULF ISLAND FABRICATION INC,"16225 Park Ten Place, Suite 280, Houston, TX, 77084",29.7862357,-95.66395419999999,12363.0058
1092,TAKE-TWO INTERACTIVE SFTWR,"622 Broadway, New York, NY, 10012",40.7258867,-73.9960648,10711.068642
1093,RAMBUS INC,"1050 Enterprise Way, Suite 700, Sunnyvale, CA, 94089",37.4045818,-122.0360211,11333.514942
1094,AMAZON.COM INC,"410 Terry Avenue North, Seattle, WA, 98109",47.6221922,-122.336546,10230.574688
1095,UNITED COMMUNITY BANKS INC,"125 Highway 515 East, Blairsville, GA, 30512",34.8798997,-83.9578058,11605.684139
1096,ALEXANDRIA R E EQUITIES INC,"385 East Colorado Boulevard, Suite 299, Pasadena, CA, 91101",34.1461014,-118.1422349,11767.678651
1097,QORVO INC,"7628 Thorndike Road, Greensboro, NC, 27409",36.0763408,-79.9651702,11374.934855
1098,RALPH LAUREN CORP,"650 Madison Avenue, New York, NY, 10022",40.7641823,-73.97127669999999,10706.339857
1099,MAXIMUS INC,"1891 Metro Center Drive, Reston, VA, 20190",38.9492634,-77.34079419999999,10997.993385
1100,BOSTON PROPERTIES INC,"The Prudential Center, Suite 1900, 800 Boylston Street, Boston, MA, 02199-8103",42.3473119,-71.0818999,10449.591883
1101,COMFORT SYSTEMS USA INC,"675 Bering Drive, Suite 400, Houston, TX, 77057",29.7613625,-95.4791738,12363.83551
1102,HELIX ENERGY SOLUTIONS GROUP,"3505 West Sam Houston Parkway North, Suite 400, Houston, TX, 77043",29.82505799999999,-95.56476339999999,12357.707037
1103,ARCHROCK INC,"16666 Northchase Drive, Houston, TX, 77060",29.9424478,-95.4023814,12343.074052
1104,8X8 INC,"2125 O'Nel Drive, San Jose, CA, 95131",37.374108,-121.9241045,11339.345288
1105,OUTERWALL INC,"1800 114th Avenue SE, Bellevue, WA, 98004",47.5957894,-122.189265,10236.258167
1106,CORRECTIONS CORP AMER,"10 Burton Hills Boulevard, Nashville, TN, 37215",36.0937958,-86.8219556,11537.803407
1107,BANK OF THE OZARKS INC,"17901 Chenal Parkway, Little Rock, AR, 72223",34.7701306,-92.4599341,11776.694478
1108,JONES LANG LASALLE INC,"200 East Randolph Drive, Chicago, IL, 60601",41.8852827,-87.62151229999999,10924.72861
1109,CARRIZO OIL & GAS INC,"500 Dallas Street, Suite 2300, Houston, TX, 77002",29.7577528,-95.37082389999999,12363.090058
1110,UMPQUA HOLDINGS CORP,"One SW Columbia Street, Suite 1200, Portland, OR, 97258",45.5132936,-122.6754886,10450.154504
1111,SL GREEN REALTY CORP,"420 Lexington Avenue, New York, NY, 10170",40.7527814,-73.9759322,10707.660479
1112,PETMED EXPRESS INC,"1441 SW 29th Avenue, Pompano Beach, FL, 33069",26.211824,-80.16273939999999,12418.483639
1113,YUM BRANDS INC,"1441 Gardiner Lane, Louisville, KY, 40213",38.1981365,-85.69574899999999,11287.577519
1114,FARO TECHNOLOGIES INC,"250 Technology Park, Lake Mary, FL, 32746",28.7386307,-81.3627135,12189.745814
1115,CHILDRENS PLACE INC,"500 Plaza Drive, Secaucus, NJ, 7094",40.7878337,-74.04492979999999,10706.261556
1116,OSI SYSTEMS INC,"12525 Chadron Avenue, Hawthorne, CA, 90250",33.9186321,-118.3302139,11788.642248
1117,C H ROBINSON WORLDWIDE INC,"14701 Charlson Road, Eden Prairie, MN, 55347",44.8208431,-93.4606427,10683.174321
1118,FAIRCHILD SEMICONDUCTOR INTL,"3030 Orchard Parkway, San Jose, CA, 95134",37.3928078,-121.9364021,11337.059168
1119,DRIL-QUIP INC,"6401 North Eldridge Parkway, Houston, TX, 77041",29.8668253,-95.6101654,12353.571712
1120,EPR PROPERTIES,"909 Walnut Street, Suite 200, Kansas City, MO, 64106",39.1028623,-94.581547,11324.862273
1121,GROUP 1 AUTOMOTIVE INC,"800 Gessner, Suite 500, Houston, TX, 77024",29.7777447,-95.5438873,12362.705076
1122,METTLER-TOLEDO INTL INC,"1900 Polaris Parkway, Columbus, OH, 43240",40.1439863,-82.9690578,11019.156452
1123,SONIC AUTOMOTIVE INC  -CL A,"4401 Colwick Road, Charlotte, NC, 28211",35.1767046,-80.79698479999999,11493.009289
1124,AFFILIATED MANAGERS GRP INC,"777 South Flagler Drive, West Palm Beach, FL, 33401",26.7066139,-80.0501742,12362.981191
1125,GEOSPACE TECHNOLOGIES CORP,"7007 Pinemont Drive, Houston, TX, 77040",29.84067629999999,-95.49739389999999,12355.28573
1126,DEPOMED INC,"7999 Gateway Boulevard, Suite 300, Newark, CA, 94560",37.5393462,-122.0643504,11318.419943
1127,AMSURG CORP,"1A Burton Hills Boulevard, Nashville, TN, 37215",36.0967135,-86.8232108,11537.512858
1128,INGREDION INC,"5 Westbrook Corporate Center, Westchester, IL, 60154",41.8453955,-87.9052856,10933.911989
1129,POWER INTEGRATIONS INC,"5245 Hellyer Avenue, San Jose, CA, 95138",37.2705656,-121.7936056,11353.42456
1130,UNITED RENTALS INC,"100 First Stamford Place, Suite 700, Stamford, CT, 6902",41.0443102,-73.5486083,10664.003646
1131,BBCN BANCORP INC,"3731 Wilshire Boulevard, Suite 1000, Los Angeles, CA, 90010",34.0624483,-118.3074937,11773.507343
1132,CAREER EDUCATION CORP,"231 North Martingale Road, Schaumburg, IL, 60173",42.0331635,-88.0324027,10915.630834
1133,MERCURY SYSTEMS INC,"201 Riverneck Road, Chelmsford, MA, 1824",42.6042651,-71.3307693,10431.947792
1134,SURMODICS INC,"9924 West 74th Street, Eden Prairie, MN, 55344",44.8694285,-93.4037094,10677.238319
1135,WADDELL&REED FINL INC  -CL A,"6300 Lamar Avenue, Overland Park, KS, 66202",39.0135762,-94.65972760000001,11335.487449
1136,VASCO DATA SEC INTL INC,"1901 South Meyers Road, Suite 210, Oakbrook Terrace, IL, 60181",41.84744269999999,-87.99050199999999,10935.12849
1137,BROADCOM CORP  -CL A,"5300 California Avenue, Irvine, CA, 92617-3038",33.6364483,-117.848235,11828.652893
1138,FEDERATED INVESTORS INC,"Federated Investors Tower, 1001 Liberty Avenue, Pittsburgh, PA, 15222-3779",40.4444836,-79.9940505,10914.445223
1139,NIELSEN HOLDINGS PLC,"A C Nielsen House, London Road, Oxford, OX3 9RX",51.7616409,-1.1842729,5990.612499
1140,AMERICAN TOWER CORP,"116 Huntington Avenue, 11th Floor, Boston, MA, 2116",42.3465172,-71.0797918,10449.600867
1141,BROOKLINE BANCORP INC,"131 Clarendon Street, Boston, MA, 2116",42.3483312,-71.0737797,10449.213365
1142,FIRST NIAGARA FINANCIAL GRP,"726 Exchange Street, Suite 618, Buffalo, NY, 14210",42.8748963,-78.84988589999999,10628.25369
1143,MANHATTAN ASSOCIATES INC,"2300 Windy Ridge Parkway, 10th Floor, Atlanta, GA, 30339",33.9059932,-84.4601722,11721.983368
1144,LASALLE HOTEL PROPERTIES,"7550 Wisconsin Avenue, 10th Floor, Bethesda, MD, 20814",38.9856706,-77.0948025,10986.915018
1145,INFINITY PROPERTY & CAS CORP,"3700 Colonnade Parkway, Suite 600, Birmingham, AL, 35243",33.4371856,-86.7310969,11823.16212
1146,VENTAS INC,"353 North Clark Street, Suite 3300, Chicago, IL, 60654",41.8889439,-87.63046849999999,10924.4851
1147,EQUITY ONE INC,"410 Park Avenue, Suite 1220, New York, NY, 10022",40.7602961,-73.97219009999999,10706.768466
1148,INNOSPEC INC,"8310 South Valley Highway, Suite 350, Englewood, CO, 80112",39.5651233,-104.8696336,11313.376964
1149,L-3 COMMUNICATIONS HLDGS INC,"600 Third Avenue, New York, NY, 10016",40.7493238,-73.97590919999999,10708.015092
1150,WASTE CONNECTIONS INC,"3 Waterway Square Place, Suite 110, The Woodlands, TX, 77380",30.1609216,-95.45624,12319.564535
1151,ULTIMATE SOFTWARE GROUP INC,"2000 Ultimate Way, Weston, FL, 33326",26.0969179,-80.3843933,12437.675833
1152,MARINEMAX INC,"2600 McCormick Drive, Suite 200, Clearwater, FL, 33759",27.9997134,-82.72826549999999,12307.480789
1153,MICROSTRATEGY INC,"1850 Towers Crescent Plaza, Tysons Corner, VA, 22182",38.9157423,-77.2206661,10997.943017
1154,COGNIZANT TECH SOLUTIONS,"Glenpointe Centre West, 500 Frank W. Burr Boulevard, Teaneck, NJ, 7666",40.8728057,-74.0059819,10696.283738
1155,REPUBLIC SERVICES INC,"18500 North Allied Way, Phoenix, AZ, 85054",33.654396,-111.9301716,11918.617585
1156,CARDINAL FINANCIAL CORP,"8270 Greensboro Drive, Suite 500, McLean, VA, 22102",38.92364269999999,-77.2306207,10997.413392
1157,CONVERGYS CORP,"201 East Fourth Street, Cincinnati, OH, 45202",39.1002093,-84.50890799999999,11165.372173
1158,CROWN CASTLE INTL CORP,"1220 Augusta Drive, Suite 600, Houston, TX, 77057",29.7546993,-95.48326999999999,12364.612673
1159,EBAY INC,"2065 Hamilton Avenue, San Jose, CA, 95125",37.2954211,-121.9274892,11347.705271
1160,POPEYES LOUISIANA KITCHEN,"400 Perimeter Center Terrace, Suite 1000, Atlanta, GA, 30346",33.9296913,-84.33830569999999,11716.554466
1161,GOLDMAN SACHS GROUP INC,"200 West Street, New York, NY, 10282",40.7148544,-74.0144968,10712.792038
1162,PROSPERITY BANCSHARES INC,"Prosperity Bank Plaza, 4295 San Felipe, Houston, TX, 77027",29.746371,-95.4511375,12365.193202
1163,SELECT COMFORT CORP,"9800 59th Avenue North, Minneapolis, MN, 55442",45.0599473,-93.4049132,10656.25684
1164,BLUCORA INC,"10900 NE 8th Street, Suite 800, Bellevue, WA, 98004",47.6178603,-122.1940258,10233.794441
1165,STERLING BANCORP,"400 Rella Boulevard, Montebello, NY, 10901",41.1158261,-74.1054599,10674.456226
1166,NVIDIA CORP,"2701 San Tomas Expressway, Santa Clara, CA, 95050",37.3701279,-121.9640635,11338.858217
1167,EAST WEST BANCORP INC,"135 North Los Robles Avenue, 7th Floor, Pasadena, CA, 91101",34.1486799,-118.1416632,11767.410222
1168,ALBANY MOLECULAR RESH INC,"26 Corporate Circle, Albany, NY, 12203",42.7032309,-73.8745256,10503.978666
1169,DELPHI AUTOMOTIVE PLC,"Courteney Road, Hoath Way, Gillingham, ME8 0RU",51.3598034,0.5818013,5888.978546
1170,BOTTOMLINE TECHNOLOGIES INC,"325 Corporate Drive, Portsmouth, NH, 3801",43.0705301,-70.80000989999999,10366.884815
1171,KORN/FERRY INTERNATIONAL,"1900 Avenue of the Stars, Suite 2600, Los Angeles, CA, 90067",34.0603415,-118.4164015,11771.58125
1172,CEB INC,"1919 North Lynn Street, Arlington, VA, 22209",38.8976978,-77.0703873,10995.362093
1173,MKS INSTRUMENTS INC,"2 Tech Drive, Suite 201, Andover, MA, 1810",42.6888361,-71.21143479999999,10419.371393
1174,PRICELINE GROUP INC,"800 Connecticut Avenue, Norwalk, CT, 6854",41.0930242,-73.4539645,10655.952948
1175,STANCORP FINANCIAL GROUP INC,"1100 SW Sixth Avenue, Portland, OR, 97204",45.5158773,-122.6796262,10449.79248
1176,HEIDRICK & STRUGGLES INTL,"233 South Wacker Drive, Willis Tower, Suite 4200, Chicago, IL, 60606",41.8788764,-87.6359149,10925.672764
1177,CONSOL ENERGY INC,"CNX Center, 1000 Consol Energy Drive, Canonsburg, PA, 15317",40.279096,-80.166737,10936.410515
1178,LIFEPOINT HEALTH INC,"330 Seven Springs Way, Brentwood, TN, 37027",36.04160660000001,-86.76916969999999,11542.390907
1179,U S CONCRETE INC,"331 North Main Street, Euless, TX, 76039",32.8415143,-97.0840497,12038.567432
1180,REYNOLDS AMERICAN INC,"401 North Main Street, Winston-Salem, NC, 27101",36.0994589,-80.24376520000001,11380.241044
1181,F5 NETWORKS INC,"401 Elliott Avenue West, Seattle, WA, 98119",47.62240990000001,-122.3638296,10230.021825
1182,SKECHERS U S A INC,"228 Manhattan Beach Boulevard, Manhattan Beach, CA, 90266",33.8847376,-118.4099502,11790.732037
1183,UNITED THERAPEUTICS CORP,"1040 Spring Street, Silver Spring, MD, 20910",38.9992599,-77.02759259999999,10983.498952
1184,STAMPS.COM INC,"1990 East Grand Avenue, El Segundo, CA, 90245",33.9189526,-118.3915039,11787.392348
1185,JUNIPER NETWORKS INC,"1133 Innovation Way, Sunnyvale, CA, 94089",37.4075923,-122.0292407,11333.347908
1186,ENCORE CAPITAL GROUP INC,"3111 Camino Del Rio North, Suite 103, San Diego, CA, 92108",32.7747243,-117.1275094,11935.893438
1187,PRIVATEBANCORP INC,"120 South LaSalle Street, Chicago, IL, 60603",41.8803285,-87.6325535,10925.457103
1188,NIC INC,"25501 West Valley Parkway, Suite 300, Olathe, KS, 66061",38.944273,-94.8820269,11345.30979
1189,J2 GLOBAL INC,"6922 Hollywood Boulevard, Suite 500, Los Angeles, CA, 90028",34.1010505,-118.3409441,11768.664482
1190,LENNOX INTERNATIONAL INC,"2140 Lake Park Boulevard, Richardson, TX, 75080",32.9817034,-96.76028749999999,12020.475614
1191,PERFICIENT INC,"555 Maryville University Drive, Suite 600, Saint Louis, MO, 63141",38.64347,-90.50767599999999,11324.617604
1192,RED HAT INC,"100 East Davie Street, Raleigh, NC, 27601",35.7754699,-78.63799139999999,11368.380251
1193,NETSCOUT SYSTEMS INC,"310 Littleton Road, Westford, MA, 1886",42.5530747,-71.4417174,10440.854794
1194,INTERACTIVE INTELLIGENCE GRP,"7601 Interactive Way, Indianapolis, IN, 46278",39.8904809,-86.26783619999999,11116.206064
1195,SENIOR HOUSING PPTYS TRUST,"Two Newton Place, 255 Washington Street, Newton, MA, 2458",42.3578035,-71.18429689999999,10451.995666
1196,BLACKROCK INC,"55 East 52nd Street, New York, NY, 10055",40.7592344,-73.9735446,10706.920908
1197,CIRCOR INTL INC,"30 Corporate Drive, Suite 200, Burlington, MA, 1803",42.4937981,-71.1905072,10438.428316
1198,VASCULAR SOLUTIONS INC,"6464 Sycamore Court North, Minneapolis, MN, 55369",45.0722915,-93.4432497,10655.287171
1199,WORLD WRESTLING ENTMT INC,"1241 East Main Street, Stamford, CT, 6902",41.0592289,-73.5097026,10661.218279
1200,AKAMAI TECHNOLOGIES INC,"150 Broadway, Cambridge, MA, 2142",42.3644243,-71.08905039999999,10448.101707
1201,EXPEDIA INC,"333 108th Avenue NE, Bellevue, WA, 98004",47.6133892,-122.1970996,10234.215757
1202,RUDOLPH TECHNOLOGIES INC,"16 Jonspin Road, Wilmington, MA, 1887",42.595568,-71.1509787,10426.786612
1203,AGILENT TECHNOLOGIES INC,"5301 Stevens Creek Boulevard, Santa Clara, CA, 95051",37.3248865,-121.9989378,11342.909017
1205,TELEDYNE TECHNOLOGIES INC,"1049 Camino Dos Rios, Thousand Oaks, CA, 91360",34.1974847,-118.9054586,11746.891424
1206,XO GROUP INC,"195 Broadway, 25th Floor, New York, NY, 10007",40.7105352,-74.009543,10713.077614
1207,PACKAGING CORP OF AMERICA,"1955 West Field Court, Lake Forest, IL, 60045",42.243103,-87.8944751,10890.482384
1208,INTERSIL CORP  -CL A,"1001 Murphy Ranch Road, Milpitas, CA, 95035",37.4129457,-121.9237828,11335.188053
1209,SILICON LABORATORIES INC,"400 West Cesar Chavez, Austin, TX, 78701",30.2648128,-97.7484564,12328.379992
1210,EDGEWELL PERSONAL CARE CO,"1350 Timberlake Manor Parkway, Chesterfield, MO, 63017",38.6481405,-90.5269746,11324.393961
1211,CABOT MICROELECTRONICS CORP,"870 North Commons Drive, Aurora, IL, 60504",41.7732806,-88.2239869,10947.10201
1212,HEALTHSTREAM INC,"209 10th Avenue South, Suite 450, Nashville, TN, 37203",36.1551649,-86.7825589,11530.37561
1213,METLIFE INC,"200 Park Avenue, New York, NY, 10166-0188",40.7533488,-73.9766668,10707.625664
1214,LIVEPERSON INC,"475 10th Avenue, 5th Floor, New York, NY, 10018",40.7562724,-73.99852589999999,10708.024163
1215,FRONTIER COMMUNICATIONS CORP,"401 Merritt 7, Norwalk, CT, 6851",41.1483696,-73.4269741,10649.407563
1216,CEVA INC,"1943 Landings Drive, Mountain View, CA, 94043",37.419242,-122.0879711,11330.749435
1217,NRG ENERGY INC,"211 Carnegie Center, Princeton, NJ, 8540",40.3187091,-74.6450753,10773.60384
1218,PACWEST BANCORP,"9701 Wilshire Boulevard, Suite 700, Beverly Hills, CA, 90212",34.0674823,-118.406589,11771.002378
1219,INTUITIVE SURGICAL INC,,33.791638,-84.389488,11732.570047
1220,BASIC ENERGY SERVICES INC,"801 Cherry Street, Suite 2100, Fort Worth, TX, 76102",32.7506147,-97.33452489999999,12050.535946
1221,CHARLES RIVER LABS INTL INC,"251 Ballardvale Street, Wilmington, MA, 1887",42.5942235,-71.1605103,10427.243937
1222,JANUS CAPITAL GROUP INC,"151 Detroit Street, Denver, CO, 80206",39.7186799,-104.9548689,11296.136673
1223,ILLUMINA INC,"5200 Illumina Way, San Diego, CA, 92122",32.8708716,-117.1990312,11924.109347
1224,MEDICINES CO,"8 Sylvan Way, Parsippany, NJ, 7054",40.8477082,-74.4471587,10712.84464
1225,EQUINIX INC,"One Lagoon Drive, 4th Floor, Redwood City, CA, 94065",37.527412,-122.26131,11315.157403
1226,PINNACLE FINL PARTNERS INC,"150 Third Avenue South, Suite 900, Nashville, TN, 37201",36.160032,-86.7743931,11529.685484
1227,MOODY'S CORP,"7 World Trade Center, 250 Greenwich Street, New York, NY, 10007",40.7134088,-74.011926,10712.858437
1228,TTM TECHNOLOGIES INC,"1665 Scenic Avenue, Suite 250, Costa Mesa, CA, 92626",33.6988992,-117.9266394,11820.36334
1229,GREATBATCH INC,"2595 Dallas Parkway, Suite 310, Frisco, TX, 75034",33.1001699,-96.8239625,12007.909223
1230,COACH INC,"516 West 34th Street, New York, NY, 10001",40.7547599,-74.001189,10708.264752
1231,IXIA,"26601 West Agoura Road, Calabasas, CA, 91302",34.1437158,-118.700819,11756.861623
1232,MONSANTO CO,"800 North Lindbergh Boulevard, St. Louis, MO, 63167",38.6711242,-90.40053329999999,11319.991327
1233,BANK MUTUAL CORP,"4949 West Brown Deer Road, Milwaukee, WI, 53223",43.17701479999999,-87.9724492,10790.197631
1234,UTI WORLDWIDE INC,"100 Oceangate, Suite 1500, Long Beach, 90802",33.7668357,-118.1989539,11807.682367
1235,RESOURCES CONNECTION INC,"17101 Armstrong Avenue, Suite 201, Irvine, CA, 92614",33.6956564,-117.8449714,11822.291919
1236,ALIGN TECHNOLOGY INC,"2560 Orchard Parkway, San Jose, CA, 95131",37.3826529,-121.9296671,11338.301942
1237,GARMIN LTD,"Muhlentalstrasse 2, Schaffhausen, 8200",47.6995558,8.632778499999999,5452.867439
1238,GLOBAL PAYMENTS INC,"10 Glenlake Parkway NE, North Tower, Atlanta, GA, 30328",33.9362975,-84.3612589,11716.39149
1239,OIL STATES INTL INC,"Three Allen Center, Suite 4620, 333 Clay Street, Houston, TX, 77002",29.7573519,-95.3718504,12363.145136
1240,NORTHERN OIL & GAS INC,"315 Manitoba Avenue, Suite 200, Wayzata, MN, 55391",44.9709047,-93.5164396,10667.203
1241,FMC TECHNOLOGIES INC,"5875 North Sam Houston Parkway West, Houston, TX, 77086",29.9359048,-95.5127716,12344.951372
1242,SYNAPTICS INC,"1251 McKay Drive, San Jose, CA, 95131",37.3916454,-121.8908582,11338.223425
1243,MONDELEZ INTERNATIONAL INC,"Three Parkway North, Deerfield, IL, 60015",42.16376959999999,-87.879201,10898.851936
1244,OMNICELL INC,"590 East Middlefield Road, Mountain View, CA, 94043",37.3952126,-122.0515168,11334.163205
1245,PRUDENTIAL FINANCIAL INC,"751 Broad Street, Newark, NJ, 7102",40.7369358,-74.1720252,10715.54448
1246,ACCENTURE PLC,"1 Grand Canal Square, Grand Canal Harbour, Dublin, 2",53.34348809999999,-6.2390937,6251.373672
1247,INLAND REAL ESTATE CORP,"2901 Butterfield Road, Oak Brook, IL, 60523",41.84277429999999,-87.98943799999999,10935.618316
1248,TASER INTERNATIONAL INC,"17800 North 85th Street, Scottsdale, AZ, 85255",33.6482983,-111.8984991,11919.659849
1249,ALLIANCE DATA SYSTEMS CORP,"7500 Dallas Parkway, Suite 700, Plano, TX, 75024",33.0809403,-96.8236276,12010.031049
1250,WILLIS TOWERS WATSON PLC,"51 Lime Street, London, EC3M 7DQ",51.512803,-0.08148559999999999,5927.335117
1251,ROCKWELL COLLINS INC,"400 Collins Road NE, Cedar Rapids, IA, 52498",42.0297602,-91.635846,10969.202009
1252,CROSS COUNTRY HEALTHCARE INC,"6551 Park of Commerce Boulevard, N.W., Boca Raton, FL, 33487",26.4061827,-80.0977506,12396.00886
1253,NATUS MEDICAL INC,"6701 Koll Center Parkway, Suite 120, Pleasanton, CA, 94566",37.6596925,-121.8994391,11309.280848
1254,AMN HEALTHCARE SERVICES INC,"12400 High Bluff Drive, Suite 100, San Diego, CA, 92130",32.943963,-117.240552,11915.390082
1255,ZIMMER BIOMET HOLDINGS INC,"1800 West Center Street, Warsaw, IN, 46581-0708",41.2388306,-85.8831617,10962.996069
1256,BIG 5 SPORTING GOODS CORP,"2525 East El Segundo Boulevard, El Segundo, CA, 90245",33.9168426,-118.3758657,11787.931433
1257,ANTHEM INC,"120 Monument Circle, Indianapolis, IN, 46204",39.7692172,-86.1587224,11127.195219
1258,GAMESTOP CORP,"625 Westport Parkway, Grapevine, TX, 76051",32.9031308,-97.08716009999999,12031.7823
1259,CENTENE CORP,"Centene Plaza, 7700 Forsyth Boulevard, St. Louis, MO, 63105",38.6495116,-90.3345013,11321.360394
1260,PRINCIPAL FINANCIAL GRP INC,"711 High Street, Des Moines, IA, 50392",41.588566,-93.62759,11041.043875
1261,ADVANCE AUTO PARTS INC,"Store Support Center, 5008 Airport Road, Roanoke, VA, 24012",37.3176875,-79.95808640000001,11243.763977
1262,ACUITY BRANDS INC,"1170 Peachtree Street, NE, Suite 2300, Atlanta, GA, 30309",33.7864313,-84.3837324,11732.991459
1263,MANTECH INTL CORP,"12015 Lee Jackson Highway, Fairfax, VA, 22033",38.8600854,-77.3630462,11007.960035
1264,JETBLUE AIRWAYS CORP,"27-01 Queens Plaza North, Long Island City, NY, 11101",40.7508113,-73.9387376,10706.67239
1265,NETFLIX INC,"100 Winchester Circle, Los Gatos, CA, 95032",37.259575,-121.9627527,11350.740823
1266,REPUBLIC AIRWAYS HLDGS INC,"8909 Purdue Road, Suite 300, Indianapolis, IN, 46268",39.9174175,-86.2194476,11112.35468
1267,CALAVO GROWERS INC,"1141A Cummings Road, Santa Paula, CA, 93060",34.3309056,-119.1260485,11727.937057
1268,COMPUTER PROGRAMS & SYSTEMS,"6600 Wall Street, Mobile, AL, 36695",30.671993,-88.195741,12152.537698
1269,AECOM INC,"1999 Avenue of the Stars, Suite 2600, Los Angeles, CA, 90067",34.0588788,-118.4171318,11771.725206
1270,KIRKLAND'S INC,"5310 Maryland Way, Brentwood, TN, 37027",36.0369401,-86.8099873,11543.71467
1271,SAFETY INSURANCE GROUP INC,"20 Custom House Street, Boston, MA, 2110",42.35810379999999,-71.0533603,10447.531513
1272,RED ROBIN GOURMET BURGERS,"6312 South Fiddler's Green Circle, Suite 200N, Greenwood Village, CO, 80111",39.6032897,-104.8933984,11309.086729
1273,ENPRO INDUSTRIES INC,"5605 Carnegie Boulevard, Suite 500, Charlotte, NC, 28209",35.1533071,-80.83821139999999,11496.614665
1274,CME GROUP INC,"20 South Wacker Drive, Chicago, IL, 60606",41.8812552,-87.6372287,10925.436916
1275,WYNN RESORTS LTD,"3131 Las Vegas Boulevard South, Las Vegas, NV, 89109",36.1271069,-115.1648303,11603.59004
1276,NASDAQ INC,"One Liberty Plaza, 165 Broadway, New York, NY, 10006",40.709808,-74.0107905,10713.192255
1277,DICKS SPORTING GOODS INC,"345 Court Street, Coraopolis, PA, 15108",40.5075915,-80.2655499,10914.78039
1278,HORNBECK OFFSHORE SVCS INC,"103 Northpark Blvd Ste 300, Covington, LA, 70433-6111",30.4421342,-90.0862483,12213.190054
1279,CARTER'S INC,"Phipps Tower, Suite 1800, 3438 Peachtree Road NE, Atlanta, GA, 30326",33.8526869,-84.363936,11725.41824
1280,PROVIDENT FINANCIAL SVCS INC,"239 Washington Street, Jersey City, NJ, 7302",40.7158143,-74.037846,10713.439594
1281,TEXAS CAPITAL BANCSHARES INC,"2000 McKinney Avenue, Suite 700, Dallas, TX, 75201",32.7906565,-96.80298,12041.93234
1282,PRA GROUP INC,"120 Corporate Boulevard, Norfolk, VA, 23502",36.840848,-76.213138,11182.911628
1283,SAIA INC,"11465 Johns Creek Parkway, Suite 400, Johns Creek, GA, 30097",34.0592304,-84.1669679,11698.586807
1284,CIMAREX ENERGY CO,"1700 Lincoln Street, Suite 3700, Denver, CO, 80203",39.743642,-104.9854807,11293.29331
1285,SEAGATE TECHNOLOGY PLC,"38/39 Fitzwilliam Square, Dublin, 2",53.333676,-6.2524919,6252.602842
1286,MOLINA HEALTHCARE INC,"200 Oceangate, Suite 100, Long Beach, CA, 90802",33.7665116,-118.2006675,11807.683778
1287,ENDURANCE SPECIALTY HOLDINGS,"Wellesley House, 90 Pitts Bay Road, Pembroke, HM 08",32.2909221,-64.79127059999999,11195.021289
1288,DTS INC,"5220 Las Virgenes Road, Calabasas, CA, 91302",34.1509649,-118.6969081,11756.15586
1289,NETGEAR INC,"350 East Plumeria Drive, San Jose, CA, 95134",37.3945488,-121.9254446,11337.122817
1290,QEP RESOURCES INC,"1050 17th Street, Suite 800, Denver, CO, 80265",39.7482995,-104.9944174,11292.754905
1291,PROVIDENCE SERVICE CORP,"64 East Broadway Boulevard, Tucson, AZ, 85701",32.2208742,-110.9698969,12087.251328
1292,LKQ CORP,"500 West Madison Street, Suite 2800, Chicago, IL, 60661",41.8823083,-87.6403843,10925.376812
1293,TESSERA TECHNOLOGIES INC,"3025 Orchard Parkway, San Jose, CA, 95134",37.3927906,-121.9378963,11337.026865
1294,SYNNEX CORP,"44201 Nobel Drive, Fremont, CA, 94538",37.4970796,-121.9799896,11324.882898
1295,AMERICAN EQTY INVT LIFE HLDG,"6000 Westown Parkway, West Des Moines, IA, 50266",41.5944384,-93.7917234,11042.128276
1296,ACORDA THERAPEUTICS INC,"420 Saw Mill River Road, Ardsley, NY, 10502",40.9967941,-73.8572059,10678.791569
1297,UNIVERSAL TECHNICAL INST,"16220 North Scottsdale Road, Suite 100, Scottsdale, AZ, 85254",33.6339286,-111.9265965,11920.911469
1298,TEMPUR SEALY INTL INC,"1000 Tempur Way, Lexington, KY, 40511",38.0982867,-84.49411339999999,11272.727633
1299,ASSURANT INC,"28 Liberty Street, 41st Floor, New York, NY, 10005",40.7078538,-74.00898049999999,10713.335244
1300,COMPASS MINERALS INTL INC,"9900 West 109th Street, Suite 100, Overland Park, KS, 66210",38.9311756,-94.69934479999999,11344.96766
1301,BUFFALO WILD WINGS INC,"5500 Wayzata Boulevard, Suite 1600, Minneapolis, MN, 55416",44.9713611,-93.3502713,10665.458014
1302,ASPEN INSURANCE HOLDINGS LTD,"141 Front Street, Hamilton, HM 19",32.2933227,-64.77812109999999,11194.183795
1303,SALESFORCE.COM INC,"The Landmark @ One Market, Suite 300, San Francisco, CA, 94105",37.79390040000001,-122.3950114,11283.518883
1304,GENWORTH FINANCIAL INC,"6620 West Broad Street, Richmond, VA, 23230",37.6029091,-77.5133905,11143.690825
1305,MARKETAXESS HOLDINGS INC,"299 Park Avenue, 10th Floor, New York, NY, 10171",40.756039,-73.9741415,10707.268402
1306,B&G FOODS INC,"Four Gatehall Drive, Parsippany, NJ, 7054",40.84600400000001,-74.463444,10713.53262
1307,DOMINO'S PIZZA INC,"30 Frank Lloyd Wright Drive, Ann Arbor, MI, 48105",42.3190961,-83.6827825,10801.920676
1308,MASTERCARD INC,"2000 Purchase Street, Purchase, NY, 10577",41.0234636,-73.71427609999999,10671.47359
1309,ALPHABET INC,"1600 Amphitheatre Parkway, Mountain View, CA, 94043",37.422593,-122.0853986,11330.449513
1310,TEXAS ROADHOUSE INC,"6040 Dutchmans Lane, Suite 200, Louisville, KY, 40205",38.2270419,-85.6405367,11283.320365
1311,EXTRA SPACE STORAGE INC,"2795 East Cottonwood Parkway, Suite 400, Salt Lake City, UT, 84121",40.6335533,-111.8132148,11151.316876
1312,DIAMONDROCK HOSPITALITY CO,"3 Bethesda Metro Center, Suite 1500, Bethesda, MD, 20814",38.9844228,-77.0959967,10987.080625
1313,SIGNATURE BANK/NY,"565 Fifth Avenue, New York, NY, 10017",40.7560544,-73.9784469,10707.404538
1315,VIAD CORP,"1850 North Central Avenue, Suite 1900, Phoenix, AZ, 85004",33.46843190000001,-112.0750359,11937.357225
1316,MONOLITHIC POWER SYSTEMS INC,"79 Great Oaks Boulevard, San Jose, CA, 95119",37.2354799,-121.7792904,11357.513875
1317,ENERSYS INC,"2366 Bernville Road, Reading, PA, 19605",40.3699808,-75.964958,10809.04767
1318,DREAMWORKS ANIMATION INC,"Campanile Building, 1000 Flower Street, Glendale, CA, 91201",34.1574774,-118.2851512,11763.648794
1319,CALAMOS ASSET MANAGEMENT INC,"2020 Calamos Court, Naperville, IL, 60563",41.8052949,-88.2019069,10943.251103
1320,BIOMED REALTY TRUST INC,"17190 Bernardo Center Drive, San Diego, CA, 92128",33.0246638,-117.0774775,11909.655009
1321,HEARTLAND PAYMENT SYSTEMS,"90 Nassau Street, Princeton, NJ, 8542",40.3499999,-74.6601249,10770.852002
1322,AMERICAN CAMPUS COMMUNITIES,"12700 Hill Country Boulevard, Suite T-200, Austin, TX, 78738",30.3087594,-97.9387981,12324.87725
1323,EDUCATION REALTY TRUST INC,"999 South Shady Grove Road, Suite 600, Memphis, TN, 38120",35.104429,-89.86050999999999,11700.995404
1324,CONSOLIDATED COMM HLDGS INC,"121 South 17th Street, Mattoon, IL, 61938",39.4818474,-88.3754505,11199.004999
1325,MOSAIC CO,"Atria Corporate Center, Suite E490, 3033 Campus Drive, Plymouth, MN, 55441",45.0154671,-93.4546099,10661.664915
1326,MEDICAL PROPERTIES TRUST,"1000 Urban Center Drive, Suite 501, Birmingham, AL, 35242",33.48309800000001,-86.705593,11817.665563
1327,NEENAH PAPER INC,"3460 Preston Ridge Road, Suite 600, Alpharetta, GA, 30005",34.0726957,-84.26022669999999,11699.369628
1328,PRESTIGE BRANDS HOLDINGS,"660 White Plains Road, Suite 250, Tarrytown, NY, 10591",41.0598012,-73.8347386,10671.601386
1329,WEX INC,"97 Darling Avenue, South Portland, ME, 4106",43.6354261,-70.3246581,10293.772054
1330,FTD COMPANIES INC,"3113 Woodcreek Drive, Downers Grove, IL, 60515",41.8286559,-88.0348566,10937.917943
1331,LHC GROUP INC,"420 West Pinhook Road, Suite A, Lafayette, LA, 70503",30.2100487,-92.010868,12270.094851
1332,EXLSERVICE HOLDINGS INC,"280 Park Avenue, 38th Floor, New York, NY, 10017",40.7567429,-73.9755649,10707.241593
1333,BILL BARRETT CORP,"1099 18th Street, Suite 2300, Denver, CO, 80202",39.7497134,-104.9926012,11292.602357
1334,BOFI HOLDING INC,"4350 La Jolla Village Drive, Suite 140, San Diego, CA, 92122",32.8740639,-117.2125378,11923.509766
1335,VERIFONE SYSTEMS INC,"88 West Plumeria Drive, San Jose, CA, 95134",37.3898607,-121.9334834,11337.44187
1336,CORE MARK HOLDING CO INC,"395 Oyster Point Boulevard, Suite 415, South San Francisco, CA, 94080",37.6676844,-122.3830972,11297.309156
1337,ZUMIEZ INC,"4001 204th Street SW, Lynnwood, WA, 98036",47.8147022,-122.2870918,10210.849362
1338,KOPPERS HOLDINGS INC,"436 Seventh Avenue, Pittsburgh, PA, 15219",40.4420849,-79.99562569999999,10914.739708
1339,INTERCONTINENTAL EXCHANGE,"5660 New Northside Drive, Atlanta, GA, 30328",33.9089619,-84.43166839999999,11720.991015
1340,DIAMOND FOODS INC,"600 Montgomery Street, 13th Floor, San Francisco, CA, 94111",37.7950185,-122.4027468,11283.219532
1341,NEUSTAR INC,"21575 Ridgetop Circle, Sterling, VA, 20166",39.0277577,-77.40591409999999,10991.712796
1342,CAPELLA EDUCATION CO,"Capella Tower, 9th Floor, 225 South Sixth Street, Minneapolis, MN, 55402",44.9760317,-93.2682497,10664.09619
1343,FRANKLIN STREET PROPERTIES,"401 Edgewater Place, Suite 200, Wakefield, MA, 1880",42.5238036,-71.0411748,10430.34553
1344,RUTHS HOSPITALITY GROUP INC,"1030 West Canton Avenue, Suite 100, Winter Park, FL, 32789",28.5995342,-81.3633973,12204.455818
1345,CF INDUSTRIES HOLDINGS INC,"4 Parkway North, Suite 400, Deerfield, IL, 60015",42.1622842,-87.8803526,10899.032879
1346,TREEHOUSE FOODS INC,"2021 Spring Road, Suite 600, Oak Brook, IL, 60523",41.8494815,-87.9473423,10934.178896
1347,DISCOVERY COMMUNICATIONS INC,"One Discovery Place, Silver Spring, MD, 20910",38.9947766,-77.0276063,10983.966748
1348,IROBOT CORP,"8 Crosby Drive, Bedford, MA, 1730",42.5044951,-71.2442936,10439.156419
1349,RESTAURANT BRANDS INTL INC,"874 Sinclair Road, Oakville, ON, L6K 2Y1",43.4465785,-79.69692599999999,10589.546015
1350,AMERISAFE INC,"2301 Highway 190 West, DeRidder, LA, 70634",30.84517229999999,-93.3208765,12219.020154
1351,HOME BANCSHARES INC,"719 Harkrider, Suite 100, Conway, AR, 72032",35.0896305,-92.4373564,11741.331582
1352,CYNOSURE INC,"5 Carlisle Road, Westford, MA, 1886",42.5639528,-71.4235439,10439.143264
1353,KAPSTONE PAPER & PACKAGING,"1101 Skokie Boulevard, Suite 300, Northbrook, IL, 60062",42.1322059,-87.78624789999999,10900.710735
1354,AMERIPRISE FINANCIAL INC,"55 Ameriprise Financial Center, Minneapolis, MN, 55474",44.9750925,-93.2689261,10664.206674
1355,CROCS INC,"7477 East Dry Creek Parkway, Niwot, CO, 80503",40.0905397,-105.1797434,11254.30589
1356,UNDER ARMOUR INC,"1020 Hull Street, Baltimore, MD, 21230",39.275091,-76.5913832,10941.712364
1357,LEIDOS HOLDINGS INC,"11951 Freedom Drive, Reston, VA, 20190",38.9590456,-77.35928260000001,10997.516731
1358,WESTERN REFINING INC,"123 West Mills Avenue, Suite 200, El Paso, TX, 79901",31.7589164,-106.489318,12173.200961
1359,VIACOM INC,"1515 Broadway, New York, NY, 10036",40.7579353,-73.9861885,10707.458808
1360,LIVE NATION ENTERTAINMENT,"9348 Civic Center Drive, Beverly Hills, CA, 90210",34.0742157,-118.3985559,11770.432206
1361,CHIPOTLE MEXICAN GRILL INC,"1401 Wynkoop Street, Suite 500, Denver, CO, 80202",39.7505354,-105.0031001,11292.485787
1362,FIDELITY NATIONAL INFO SVCS,"601 Riverside Avenue, Jacksonville, FL, 32204",30.3184009,-81.6762696,12031.809431
1363,LIQUIDITY SERVICES INC,"1920 L Street, NW, 6th Floor, Washington, DC, 20036",38.9034742,-77.0444478,10993.987002
1364,KRATON PERFORMANCE POLYMERS,"15710 John F. Kennedy Boulevard, Suite 300, Houston, TX, 77032",29.9466126,-95.3309201,12341.857727
1365,SYNCHRONOSS TECHNOLOGIES,"200 Crossing Boulevard, 8th Floor, Bridgewater, NJ, 8807",40.5825363,-74.61196749999999,10745.35925
1366,POST HOLDINGS INC,"2503 South Hanley Road, St. Louis, MO, 63144",38.616533,-90.33491070000001,11324.972021
1367,FACEBOOK INC,"1601 Willow Road, Menlo Park, CA, 94025",37.4850908,-122.1475755,11322.320087
1368,PHILLIPS 66,"3010 Briarpark Drive, Houston, TX, 77042",29.7322463,-95.5503257,12367.786203
1369,TUMI HOLDINGS INC,"1001 Durham Avenue, South Plainfield, NJ, 7080",40.5502332,-74.4096007,10742.302167
1370,FIVE BELOW INC,"1818 Market Street, Suite 2000, Philadelphia, PA, 19103",39.9529111,-75.17104570000001,10827.872924
1371,PGT INC,"1070 Technology Drive, North Venice, FL, 34275",27.1429028,-82.4080056,12389.195273
1372,COMMVAULT SYSTEMS INC,"1 CommVault Way, Tinton Falls, NJ, 7724",40.2998199,-74.0824061,10757.634105
1373,DUNKIN' BRANDS GROUP INC,"130 Royall Street, Canton, MA, 2021",42.207401,-71.13002469999999,10465.390697
1374,SELECT MEDICAL HOLDINGS CORP,"4714 Gettysburg Road, PO Box 2034, Mechanicsburg, PA, 17055",40.2132535,-76.9603149,10854.936226
1375,KBR INC,"601 Jefferson Street, Suite 3400, Houston, TX, 77002",29.7532925,-95.3723074,12363.597246
1376,LEGACY TEX FINANCIAL GRP INC,"5851 Legacy Circle, Plano, TX, 75024",33.0810221,-96.8227276,12010.014682
1377,EHEALTH INC,"440 East Middlefield Road, Mountain View, CA, 94043",37.3971638,-122.0575991,11333.814267
1378,INNOPHOS HOLDINGS INC,"259 Prospect Plains Road, Cranbury, NJ, 8512",40.325957,-74.4788535,10767.598761
1379,WYNDHAM WORLDWIDE CORP,"22 Sylvan Way, Parsippany, NJ, 7054",40.84593,-74.43873169999999,10712.762594
1380,EVERCORE PARTNERS INC,"55 East 52nd Street, New York, NY, 10055",40.7592344,-73.9735446,10706.920908
1381,SIRONA DENTAL SYSTEMS INC,"30-30 47th Avenue, Suite 500, Long Island City, NY, 11101",40.742804,-73.9363744,10707.419466
1382,ALLEGIANT TRAVEL CO,"1201 North Town Center Drive, Las Vegas, NV, 89144",36.1844463,-115.3110217,11595.079788
1383,WESTERN UNION CO,"12500 East Belford Avenue, Englewood, CO, 80112",39.5466002,-104.8445727,11315.489307
1384,DOUGLAS EMMETT INC,"808 Wilshire Boulevard, Suite 200, Santa Monica, CA, 90401",34.0220006,-118.4937317,11774.195053
1385,HANESBRANDS INC,"1000 East Hanes Mill Road, Winston-Salem, NC, 27105",36.1888431,-80.2641032,11371.362639
1386,FIRST SOLAR INC,"350 West Washington Street, Suite 600, Tempe, AZ, 85281",33.4377065,-111.9443776,11942.290292
1387,IPG PHOTONICS CORP,"50 Old Webster Road, Oxford, MA, 1540",42.081183,-71.8811303,10503.449337
1388,EMERGENT BIOSOLUTIONS INC,"400 Professional Drive, Gaithersburg, MD, 20879",39.1608355,-77.2298277,10972.638294
1389,SPECTRA ENERGY CORP,"5400 Westheimer Court, Houston, TX, 77056",29.7403262,-95.4731118,12366.090077
1390,ORITANI FINANCIAL CORP,"370 Pascack Road, Township of Washington, NJ, 7676",40.9883592,-74.0639977,10686.250317
1391,AEROVIRONMENT INC,"181 West Huntington Drive, Suite 202, Monrovia, CA, 91016",34.1409299,-118.001949,11770.960508
1392,TIME WARNER CABLE INC,"60 Columbus Circle, New York, NY, 10023",40.7688638,-73.98272899999999,10706.224975
1393,SUPER MICRO COMPUTER INC,"980 Rock Avenue, San Jose, CA, 95131",37.3893311,-121.9048185,11338.15319
1394,EMPLOYERS HOLDINGS INC,"10375 Professional Circle, Reno, NV, 89521",39.4310553,-119.7577142,11163.870774
1395,HFF INC,"One Oxford Centre, Suite 1100, 301 Grant Street, Pittsburgh, PA, 15219",40.4383265,-79.99907689999999,10915.226659
1396,INTERACTIVE BROKERS GROUP,"One Pickwick Plaza, Greenwich, CT, 6830",41.0311536,-73.6262083,10667.85353
1397,DOMTAR CORP,"395 de Maisonneuve Boulevard West, Montreal, QC, H3A 1L6",45.50652669999999,-73.57006299999999,10206.620019
1398,BROADRIDGE FINANCIAL SOLUTNS,"5 Dakota Drive, Suite 300, Lake Success, NY, 11042",40.7620332,-73.6906851,10697.545836
1399,MONOTYPE IMAGING HOLDINGS,"600 Unicorn Park Drive, Woburn, MA, 1801",42.486182,-71.1165358,10436.702932
1400,CINEMARK HOLDINGS INC,"3900 Dallas Parkway, Suite 500, Plano, TX, 75093",33.051307,-96.8278143,12013.339122
1401,TE CONNECTIVITY LTD,"Rheinstrasse 20, Schaffhausen, 8200",47.6940249,8.6338709,5452.961098
1402,DISCOVER FINANCIAL SVCS INC,"2500 Lake Cook Road, Riverwoods, IL, 60015",42.1550376,-87.88696879999999,10899.93244
1403,SOLERA HOLDINGS INC,"7 Village Circle, Suite 100, Westlake, TX, 76262",32.9798346,-97.168527,12023.936391
1404,COMSCORE INC,"11950 Democracy Drive, Suite 600, Reston, VA, 20190",38.958068,-77.35951,10997.625499
1405,VIRTUSA CORP,"2000 West Park Drive, Westborough, MA, 1581",42.2806793,-71.56859349999999,10472.74489
1406,MASIMO CORP,"52 Discovery, Irvine, CA, 92618",33.662523,-117.7569451,11827.577995
1407,REX ENERGY CORP,"366 Walker Drive, State College, PA, 16801",40.8165864,-77.8316358,10816.852366
1408,PHARMERICA CORP,"1901 Campus Place, Louisville, KY, 40299",38.2140519,-85.5337292,11282.508533
1409,DHI GROUP INC,"1040 Avenue of the Americas, New York, NY, 10018",40.7530461,-73.9850001,10707.923311
1411,MIMEDX GROUP INC,"1775 West Oak Commons Court, NE, Marietta, GA, 30062",33.9816689,-84.520731,11715.294814
1412,TERADATA CORP,"10000 Innovation Drive, Dayton, OH, 45342",39.6022107,-84.2333955,11105.457672
1413,CONSTANT CONTACT INC,"Reservoir Place, Third Floor, 1601 Trapelo Road, Waltham, MA, 2451",42.418587,-71.2586513,10448.346177
1414,MSCI INC,"7 World Trade Center, 49th Floor, 250 Greenwich Street, New York, NY, 10007",40.7134088,-74.011926,10712.858437
1415,RETAIL OPPORTUNITY INVTS CP,"8905 Towne Centre Drive, Suite 108, San Diego, CA, 92122",32.8674511,-117.2067761,11924.336155
1416,AMERICAN PUBLIC EDUCATION,"111 West Congress Street, Charles Town, WV, 25414",39.28776080000001,-77.86008749999999,10977.728375
1417,ENSIGN GROUP INC,"27101 Puerta Real, Suite 450, Mission Viejo, CA, 92691",33.568112,-117.6714435,11839.459671
1418,LUMBER LIQUIDATORS HLDGS INC,"3000 John Deere Road, Toano, VA, 23168",37.4130217,-76.8121881,11142.1905
1419,UNITED INSURANCE HOLDINGS CO,"360 Central Avenue, Suite 900, St. Petersburg, FL, 33701",27.7707185,-82.6376246,12329.218785
1420,NORTHFIELD BANCORP INC,"581 Main Street, Woodbridge, NJ, 7095",40.5435977,-74.29998979999999,10739.508321
1422,SYNERGY RESOURCES CORP,"1625 Broadway, Suite 300, Denver, CO, 80202",39.7422604,-104.9878998,11293.440841
1423,MEDASSETS INC,"100 North Point Center East, Suite 200, Alpharetta, GA, 30022",34.0456623,-84.2990118,11703.189651
1424,FORESTAR GROUP INC,"Building Two, Suite 500, 6300 Bee Cave Road, Austin, TX, 78746",30.2973869,-97.8305939,12325.370264
1425,ORION MARINE GROUP INC,"12000 Aerospace, Suite 300, Houston, TX, 77034",29.6013579,-95.1748977,12378.206919
1426,VISA INC,"PO Box 8999, San Francisco, CA, 94128",37.6239079,-122.3815924,11302.031077
1427,FABRINET,"190 Elgin Avenue, George Town, KY1-9005",19.2923518,-81.3770296,13183.846997
1428,PHILIP MORRIS INTERNATIONAL,"120 Park Avenue, New York, NY, 10017",40.7518892,-73.9782982,10707.827859
1429,HILLENBRAND INC,"One Batesville Boulevard, Batesville, IN, 47006",39.2916975,-85.1945543,11159.298961
1430,LOGMEIN INC,"320 Summer Street, Boston, MA, 2210",42.3495215,-71.0481518,10448.223538
1431,SOLARWINDS INC,"Building 400, 7171 Southwest Parkway, Austin, TX, 78735",30.2508065,-97.861761,12330.741794
1432,QUANEX BUILDING PRODUCTS,"1800 West Loop South, Suite 1500, Houston, TX, 77027",29.7490993,-95.4572227,12364.956537
1433,INTREPID POTASH INC,"707 17th Street, Suite 4200, Denver, CO, 80202",39.7471865,-104.9904438,11292.887998
1434,RACKSPACE HOSTING INC,"1 Fanatical Place, City of Windcrest, San Antonio, TX, 78218",29.5089281,-98.3939449,12416.381443
1435,ECHO GLOBAL LOGISTICS INC,"600 West Chicago Avenue, Suite 725, Chicago, IL, 60654",41.897642,-87.64339090000001,10923.762434
1436,SCRIPPS NETWORKS INTERACTIVE,"9721 Sherrill Boulevard, Knoxville, TN, 37932",35.9155227,-84.1089393,11498.278645
1437,INTERVAL LEISURE GROUP,"6262 Sunset Drive, Miami, FL, 33143",25.7035838,-80.29458269999999,12476.036085
1438,HSN INC,"1 HSN Drive, St. Petersburg, FL, 33729",27.8816324,-82.665562,12318.241758
1439,ACTIVISION BLIZZARD INC,"3100 Ocean Park Boulevard, Santa Monica, CA, 90405",34.0196137,-118.4525618,11775.274186
1440,LENDINGTREE INC,"11115 Rushmore Drive, Charlotte, NC, 28277",35.0601184,-80.8599775,11507.071771
1441,JOHN BEAN TECHNOLOGIES,"70 West Madison, Suite 4400, Chicago, IL, 60602",41.882248,-87.630172,10925.207526
1442,ROADRUNNER TRANS SVCS HLDGS,"4900 South Pennsylvania Avenue, Cudahy, WI, 53110",42.9550922,-87.879042,10812.792945
1443,CLOUD PEAK ENERGY INC,"505 South Gillette Avenue, Gillette, WY, 82716",44.28980139999999,-105.5033598,10787.24117
1444,MYR GROUP INC,"1701 Golf Road, Suite 3-1012, Rolling Meadows, IL, 60008",42.050011,-87.9993915,10913.245137
1445,VERISK ANALYTICS INC,"545 Washington Boulevard, Jersey City, NJ, 7310",40.7277301,-74.0356122,10712.143238
1446,MEAD JOHNSON NUTRITION CO,"2701 Patriot Boulevard, Fourth Floor, Glenview, IL, 60026",42.1047967,-87.8225061,10904.305496
1447,ALLSCRIPTS HEALTHCARE SOLTNS,"222 Merchandise Mart Plaza, Suite 2024, Chicago, IL, 60654",41.8884096,-87.6354498,10924.628926
1448,GREEN PLAINS INC,"450 Regency Parkway, Suite 400, Omaha, NE, 68114",41.2549273,-96.0747329,11100.589845
1449,CLEARWATER PAPER CORP,"601 West Riverside Avenue, Suite 1100, Spokane, WA, 99201",47.6575137,-117.4214468,10310.32445
1450,MEDIDATA SOLUTIONS INC,"350 Hudson Street, 9th Floor, New York, NY, 10014",40.72766470000001,-74.0067845,10711.228685
1451,GOVERNMENT PPTYS INCOME TR,"400 Centre Street, Newton, MA, 02458-2076",42.3559661,-71.18448,10452.187986
1452,IRIDIUM COMMUNICATIONS INC,"1750 Tysons Boulevard, Suite 1400, McLean, VA, 22102",38.924009,-77.22282179999999,10997.144287
1454,CHESAPEAKE LODGING TRUST,"1997 Annapolis Exchange Parkway, Suite 410, Annapolis, MD, 21401",38.9877586,-76.538269,10969.999399
1455,FINANCIAL ENGINES INC,"1050 Enterprise Way, 3rd Floor, Sunnyvale, CA, 94089",37.4045818,-122.0360211,11333.514942
1456,QUINSTREET INC,"950 Tower Lane, 6th Floor, Foster City, CA, 94404",37.5577976,-122.2769085,11311.541501
1457,GREEN DOT CORP,"3465 East Foothill Boulevard, Pasadena, CA, 91107",34.1510431,-118.0785966,11768.380079
1458,CBOE HOLDINGS INC,"400 South LaSalle Street, Chicago, IL, 60605",41.8764787,-87.6321342,10925.868178
1459,TANGOE INC,"35 Executive Boulevard, Orange, CT, 6477",41.2482286,-73.0048288,10625.464844
1460,FIRST AMERICAN FINANCIAL CP,"1 First American Way, Santa Ana, CA, 92707",33.7019896,-117.8601399,11821.312569
1461,CORESITE REALTY CORP,"1050 17th Street, Suite 500, Denver, CO, 80202",39.7482995,-104.9944174,11292.754905
1462,WALKER & DUNLOP INC,"7501 Wisconsin Avenue, Suite 1200E, Bethesda, MD, 20814",38.9853692,-77.09354359999999,10986.909042
1463,SUMMIT HOTEL PROPERTIES INC,"12600 Hill Country Boulevard, Suite R-100, Austin, TX, 78738",30.3081657,-97.93757989999999,12324.934378
1464,AMERICAN ASSETS TRUST INC,"11455 El Camino Real, Suite 200, San Diego, CA, 92130",32.9271844,-117.237022,11917.279299
1465,EXAMWORKS GROUP INC,"3280 Peachtree Road, NE, Suite 2625, Atlanta, GA, 30305",33.8444244,-84.3710444,11726.472908
1466,SABRA HEALTH CARE REIT INC,"18500 Von Karman Avenue, Suite 550, Irvine, CA, 92612",33.6763588,-117.8516129,11824.2577
1467,SAGENT PHARMACEUTICALS INC,"1901 North Roselle Road, Suite 700, Schaumburg, IL, 60195",42.0619316,-88.0784098,10913.269975
1468,SUPERNUS PHARMACEUTICALS INC,"1550 East Gude Drive, Rockville, MD, 20850",39.0950796,-77.1322474,10976.61503
1469,HUNTINGTON INGALLS IND INC,"4101 Washington Avenue, Newport News, VA, 23607",36.9880862,-76.4371019,11174.699163
1470,SUNCOKE ENERGY INC,"1011 Warrenville Road, Suite 600, Lisle, IL, 60532",41.8071162,-88.07427349999999,10940.922469
1471,MARATHON PETROLEUM CORP,"539 South Main Street, Findlay, OH, 45840",41.0360917,-83.6494426,10938.836578
1472,FRANCESCAS HOLDINGS CORP,"8760 Clay Road, Houston, TX, 77080",29.8344332,-95.5108863,12356.114432
1473,WAGEWORKS INC,"1100 Park Place, 4th Floor, San Mateo, CA, 94403",37.5451045,-122.2908192,11312.578363
1475,WPX ENERGY INC,"3500 One Williams Center, Tulsa, OK, 74172",36.155217,-95.99048189999999,11663.396121
1476,AMC NETWORKS INC,"11 Penn Plaza, New York, NY, 10001",40.7491231,-73.9914503,10708.532782
1477,BONANZA CREEK ENERGY INC,"410 17th Street, Suite 1400, Denver, CO, 80202",39.7440063,-104.9889953,11293.244438
1478,ERA GROUP INC,"818 Town & Country Boulevard, Suite 200, Houston, TX, 77024",29.7815065,-95.56051079999999,12362.462896
1480,FORTUNE BRANDS HOME & SECUR,"520 Lake Cook Road, Deerfield, IL, 60015",42.1561165,-87.8426199,10899.066318
1481,XYLEM INC,"1 International Drive, Rye Brook, NY, 10573",41.0501365,-73.6880785,10667.89472
1482,ENOVA INTERNATIONAL INC,"200 West Jackson Boulevard, Suite 2400, Chicago, IL, 60606",41.8783809,-87.63413899999999,10925.696023
1483,LUMOS NETWORKS CORP,"One Lumos Plaza, Waynesboro, VA, 22980",38.0692943,-78.8882855,11134.833079
1484,MARRIOTT VACATIONS WORLDWIDE,"6649 Westwood Boulevard, Orlando, FL, 32821",28.4167563,-81.4727225,12227.002936
1485,TALMER BANCORP INC,"2301 West Big Beaver Road, Suite 525, Troy, MI, 48084",42.560289,-83.178063,10765.196556
1486,MICHAEL KORS HOLDINGS LTD,"33 Kingsway, London, WC2B 6UF",51.5143327,-0.1185272,5929.717381
1487,TRIPADVISOR INC,"400 1st Avenue, Needham, MA, 2494",42.2978722,-71.2194469,10459.255402
1488,TRI POINTE GROUP INC,"19540 Jamboree Road, Suite 300, Irvine, CA, 92612",33.6590389,-117.8603556,11825.96824
1489,CBRE GROUP INC,"400 South Hope Street, 25th Floor, Los Angeles, CA, 90071",34.0516068,-118.2536323,11775.742387
1490,WELLCARE HEALTH PLANS INC,"8725 Henderson Road, Renaissance One, Tampa, FL, 33634",28.0306431,-82.5488209,12299.116925
1491,BLACKBAUD INC,"2000 Daniel Island Drive, Charleston, SC, 29492",32.8688212,-79.9187845,11711.57559
1492,NUVASIVE INC,"7475 Lusk Boulevard, San Diego, CA, 92121",32.9006994,-117.2174531,11920.523522
1493,ANGIODYNAMICS INC,"14 Plaza Drive, Latham, NY, 12110",42.7685049,-73.75869709999999,10493.669739
1494,BLUE NILE INC,"411 First Avenue South, Suite 700, Seattle, WA, 98104",47.5988359,-122.3345846,10233.121643
1495,GREENHILL & CO INC,"300 Park Avenue, New York, NY, 10022",40.7570209,-73.97466949999999,10707.184379
1496,CARDTRONICS INC,"3250 Briarpark Drive, Suite 400, Houston, TX, 77042",29.7315315,-95.55016169999999,12367.863277
1497,MOMENTA PHARMACEUTICALS INC,"675 West Kendall Street, Cambridge, MA, 2142",42.36464,-71.0819609,10447.83961
1498,CABELAS INC,"One Cabela Drive, Sidney, NE, 69160",41.1146173,-102.9569446,11143.484761
1499,KITE REALTY GROUP TRUST,"30 South Meridian Street, Suite 1100, Indianapolis, IN, 46204",39.76629,-86.158305,11127.503512
1500,FUTUREFUEL CORP,"8235 Forsyth Boulevard, 4th Floor, Clayton, MO, 63105",38.6515821,-90.3429953,11321.262196
1501,LYONDELLBASELL INDUSTRIES NV,"Delftseplein 27E, Rotterdam, 3013 AA",51.925,4.4727749,5613.004044
1502,ALLEGION PLC,"Block D, Iveagh Court, Harcourt Road, Dublin, 1",53.3324717,-6.2619526,6253.238572
